<?xml version="1.0" encoding="UTF-8"?>
<kml xmlns="http://www.opengis.net/kml/2.2" xmlns:gx="http://www.google.com/kml/ext/2.2" xmlns:kml="http://www.opengis.net/kml/2.2" xmlns:atom="http://www.w3.org/2005/Atom">
<Document id="1n1SPwF6F2rggpx3dlFWpdPn5HpanJmcC">
	<name>Copy of Hostels ITER</name>
	<gx:CascadingStyle kml:id="__managed_style_0E0B87352D413BB50E6B_normal">
		<Style>
			<IconStyle>
				<Icon>
					<href>https://earth.google.com/earth/document/icon?color=1976d2&amp;id=2000&amp;scale=4</href>
				</Icon>
				<hotSpot x="64" y="128" xunits="pixels" yunits="insetPixels"/>
			</IconStyle>
			<LabelStyle>
			</LabelStyle>
			<LineStyle>
				<color>ff2dc0fb</color>
				<width>3.2</width>
			</LineStyle>
			<PolyStyle>
				<color>40ffffff</color>
			</PolyStyle>
			<BalloonStyle>
			</BalloonStyle>
		</Style>
	</gx:CascadingStyle>
	<StyleMap id="__managed_style_0E0B87352D413BB50E6B">
		<Pair>
			<key>normal</key>
			<styleUrl>#__managed_style_0E0B87352D413BB50E6B_normal</styleUrl>
		</Pair>
		<Pair>
			<key>highlight</key>
			<styleUrl>#__managed_style_0E0B87352D413BB50E6B_highlight</styleUrl>
		</Pair>
	</StyleMap>
	<gx:CascadingStyle kml:id="__managed_style_0CE6AACFE4413BB50E7F_highlight">
		<Style>
			<IconStyle>
				<scale>1.2</scale>
				<Icon>
					<href>https://earth.google.com/earth/document/icon?color=1976d2&amp;id=2000&amp;scale=4</href>
				</Icon>
				<hotSpot x="64" y="128" xunits="pixels" yunits="insetPixels"/>
			</IconStyle>
			<LabelStyle>
			</LabelStyle>
			<LineStyle>
				<color>ff2dc0fb</color>
				<width>4.8</width>
			</LineStyle>
			<PolyStyle>
				<color>40ffffff</color>
			</PolyStyle>
			<BalloonStyle>
			</BalloonStyle>
		</Style>
	</gx:CascadingStyle>
	<gx:CascadingStyle kml:id="__managed_style_0E0B87352D413BB50E6B_highlight">
		<Style>
			<IconStyle>
				<scale>1.2</scale>
				<Icon>
					<href>https://earth.google.com/earth/document/icon?color=1976d2&amp;id=2000&amp;scale=4</href>
				</Icon>
				<hotSpot x="64" y="128" xunits="pixels" yunits="insetPixels"/>
			</IconStyle>
			<LabelStyle>
			</LabelStyle>
			<LineStyle>
				<color>ff2dc0fb</color>
				<width>4.8</width>
			</LineStyle>
			<PolyStyle>
				<color>40ffffff</color>
			</PolyStyle>
			<BalloonStyle>
			</BalloonStyle>
		</Style>
	</gx:CascadingStyle>
	<gx:CascadingStyle kml:id="__managed_style_0CE6AACFE4413BB50E7F_normal">
		<Style>
			<IconStyle>
				<Icon>
					<href>https://earth.google.com/earth/document/icon?color=1976d2&amp;id=2000&amp;scale=4</href>
				</Icon>
				<hotSpot x="64" y="128" xunits="pixels" yunits="insetPixels"/>
			</IconStyle>
			<LabelStyle>
			</LabelStyle>
			<LineStyle>
				<color>ff2dc0fb</color>
				<width>3.2</width>
			</LineStyle>
			<PolyStyle>
				<color>40ffffff</color>
			</PolyStyle>
			<BalloonStyle>
			</BalloonStyle>
		</Style>
	</gx:CascadingStyle>
	<StyleMap id="__managed_style_0CE6AACFE4413BB50E7F">
		<Pair>
			<key>normal</key>
			<styleUrl>#__managed_style_0CE6AACFE4413BB50E7F_normal</styleUrl>
		</Pair>
		<Pair>
			<key>highlight</key>
			<styleUrl>#__managed_style_0CE6AACFE4413BB50E7F_highlight</styleUrl>
		</Pair>
	</StyleMap>
	<Placemark id="0B29EF7C53413BA1F17C">
		<name>LH-1,2,4</name>
		<LookAt>
			<longitude>85.80122565800504</longitude>
			<latitude>20.24710421598694</latitude>
			<altitude>43.62829742038786</altitude>
			<heading>0</heading>
			<tilt>0</tilt>
			<gx:fovy>34.9999999777951</gx:fovy>
			<range>246.0010829615567</range>
			<altitudeMode>absolute</altitudeMode>
		</LookAt>
		<styleUrl>#__managed_style_0CE6AACFE4413BB50E7F</styleUrl>
		<Polygon>
			<outerBoundaryIs>
				<LinearRing>
					<coordinates>
						85.80061459012906,20.24729380377547,0 85.80065556474753,20.24730501625384,0 85.80069460168922,20.24724268432145,0 85.80065174585353,20.24721872496012,0 85.80071679705961,20.24712410281951,0 85.80074592995641,20.24714809738,0 85.80080400868653,20.24707118674843,0 85.80075772529587,20.24704879963981,0 85.80081584155749,20.24695583761886,0 85.80086073510435,20.24697025260203,0 85.80090146238766,20.24692698817543,0 85.80086044275153,20.24690134313444,0 85.80091695867671,20.2467971885715,0 85.80111156970769,20.24680197194413,0 85.80111791252256,20.24666871128554,0 85.80107694018776,20.24666392626199,0 85.8010738153732,20.24640125567099,0 85.80129033253546,20.2464078652975,0 85.80154271026638,20.24642177334844,0 85.80181425644457,20.2464276211052,0 85.80179160238484,20.24668625359164,0 85.80168210657727,20.24668748175756,0 85.80167523298641,20.24664382106977,0 85.80159975953129,20.24663245750052,0 85.80159640675527,20.24668092867993,0 85.80148843664229,20.24667932215769,0 85.80148659766355,20.24663894604105,0 85.80139055007187,20.24663088429702,0 85.80138562196186,20.24667290283966,0 85.80127460124349,20.24667153156006,0 85.80127087923321,20.24662794001568,0 85.80119430222904,20.24662826669675,0 85.80119446692173,20.24667010823187,0 85.80115549030478,20.2466751095418,0 85.8011555900795,20.24669119787104,0 85.80120138080328,20.24669582830624,0 85.80119839029111,20.24678103865059,0 85.80114402809134,20.24678273870423,0 85.80114061134012,20.24681319160359,0 85.80118826141107,20.24681314573423,0 85.80118566323561,20.24698623613743,0 85.80113272662815,20.24699264307583,0 85.80113476933359,20.24704381154747,0 85.80128501148349,20.24705016651681,0 85.80129104765625,20.24689975251581,0 85.80148867446123,20.24690169550384,0 85.80169810065694,20.24691382431879,0 85.80181394785704,20.24691688946535,0 85.80189167681971,20.24691948502779,0 85.80200548298571,20.24692246432676,0 85.80200633029328,20.24702482461054,0 85.8019952598266,20.24713317805873,0 85.80170446923478,20.24712534732024,0 85.80150169153367,20.24712109982641,0 85.8013165709103,20.24712214393488,0 85.80129485239053,20.24710641271699,0 85.80127816247715,20.24709905802228,0 85.80127272510727,20.2470738240645,0 85.80107182367567,20.24707057484584,0 85.80106064411981,20.24709787030492,0 85.80102379918229,20.24715648824978,0 85.80094895385658,20.24727804777957,0 85.8008939781449,20.24736415440516,0 85.8008637147242,20.24741249451794,0 85.80079278799833,20.24752110367734,0 85.80075038597867,20.24749778274837,0 85.80073133639274,20.24748201291405,0 85.80064207749635,20.24743222046096,0 85.80055555344718,20.24738969854266,0 85.80061459012906,20.24729380377547,0 
					</coordinates>
				</LinearRing>
			</outerBoundaryIs>
		</Polygon>
	</Placemark>
	<Placemark id="0B66EF3E41413BA3C4F4">
		<name>LH-3</name>
		<LookAt>
			<longitude>85.80138236281852</longitude>
			<latitude>20.24646240366057</latitude>
			<altitude>41.45560149675756</altitude>
			<heading>0</heading>
			<tilt>0</tilt>
			<gx:fovy>34.9999999777951</gx:fovy>
			<range>244.0598431271792</range>
			<altitudeMode>absolute</altitudeMode>
		</LookAt>
		<styleUrl>#__managed_style_0E0B87352D413BB50E6B</styleUrl>
		<Polygon>
			<outerBoundaryIs>
				<LinearRing>
					<coordinates>
						85.80190067630555,20.24657607904989,0 85.80191079943496,20.24634679201986,0 85.80196298959446,20.24634206857472,0 85.80196685834279,20.2462801614802,0 85.80191633049374,20.24627694142435,0 85.80192020706352,20.24616093898892,0 85.80209964045837,20.24615928757382,0 85.80209131374011,20.24631830534842,0 85.80214864576415,20.24632306652747,0 85.8021313186063,20.24661836374535,0 85.80211959729273,20.24683565297807,0 85.80190026912186,20.24683506564497,0 85.80190290713503,20.24671918318906,0 85.80194129903201,20.24671907539182,0 85.80194698748748,20.2466468550791,0 85.80190348355183,20.24665007798398,0 85.80189718319033,20.24660446185971,0 85.80179829160967,20.2465982746822,0 85.80180013988432,20.24657145759071,0 85.80190067630555,20.24657607904989,0 
					</coordinates>
				</LinearRing>
			</outerBoundaryIs>
		</Polygon>
	</Placemark>
	<Placemark id="07F353AD03413BA7784C">
		<name>BH-6</name>
		<LookAt>
			<longitude>85.80195084614967</longitude>
			<latitude>20.24657855090282</latitude>
			<altitude>42.62571281814184</altitude>
			<heading>0</heading>
			<tilt>0</tilt>
			<gx:fovy>34.9999999777951</gx:fovy>
			<range>294.4554768551097</range>
			<altitudeMode>absolute</altitudeMode>
		</LookAt>
		<styleUrl>#__managed_style_0E0B87352D413BB50E6B</styleUrl>
		<Polygon>
			<outerBoundaryIs>
				<LinearRing>
					<coordinates>
						85.80225757056041,20.24672529541931,0 85.80231229525224,20.24672143642354,0 85.80231266406555,20.24666055517178,0 85.80226197379392,20.24665677306575,0 85.80226251058669,20.24654797207112,0 85.8023072205368,20.24654415976366,0 85.80230773567922,20.24646374885614,0 85.80227733257524,20.24644453833927,0 85.80227179815981,20.2463483942277,0 85.80231875338056,20.24634651583284,0 85.80232715278038,20.2462696265994,0 85.80227608098591,20.24627341087772,0 85.80227855489164,20.24616347846537,0 85.80245828483564,20.24616581407793,0 85.80255627460117,20.24616788514452,0 85.80255528270143,20.24628925700502,0 85.8023965043523,20.24628317922164,0 85.80239023177671,20.24632162090439,0 85.8023901350317,20.24634851496296,0 85.8024775530024,20.24635445267059,0 85.80248178318791,20.24632948384378,0 85.80255700920704,20.2463296193092,0 85.80255442866945,20.24641975922815,0 85.80254448351729,20.24656710564571,0 85.80253502721513,20.246694637452,0 85.80246634469903,20.24669089328707,0 85.80246659775347,20.24666046747551,0 85.80238762320171,20.24666432020615,0 85.80238918765079,20.24672705978571,0 85.80245592745487,20.24672699224543,0 85.80253667197357,20.24673069622355,0 85.80253398211099,20.24685780102914,0 85.80244289996625,20.24684452139778,0 85.80234784321372,20.24684079744903,0 85.8022528128065,20.24684284497409,0 85.80225757056041,20.24672529541931,0 
					</coordinates>
				</LinearRing>
			</outerBoundaryIs>
		</Polygon>
	</Placemark>
	<Placemark id="0785F8280A413BAADDC8">
		<name>BH-6 ke peeche wala building</name>
		<LookAt>
			<longitude>85.80244053767004</longitude>
			<latitude>20.24642241664136</latitude>
			<altitude>42.40456407214649</altitude>
			<heading>0</heading>
			<tilt>0</tilt>
			<gx:fovy>34.9999999777951</gx:fovy>
			<range>171.406911388458</range>
			<altitudeMode>absolute</altitudeMode>
		</LookAt>
		<styleUrl>#__managed_style_0E0B87352D413BB50E6B</styleUrl>
		<Polygon>
			<outerBoundaryIs>
				<LinearRing>
					<coordinates>
						85.80265406481588,20.2461606133998,0 85.80280307984464,20.24616478473547,0 85.80280300978086,20.24618369302115,0 85.80284969897417,20.24618276800983,0 85.8028460241607,20.24622942675537,0 85.8028671425257,20.24623171684398,0 85.80286361225149,20.24642573316144,0 85.80282216056735,20.24649314076908,0 85.8027952788019,20.24649318248209,0 85.80279394648304,20.24651525663764,0 85.80264133941888,20.24650664002338,0 85.80264770798946,20.24642796994554,0 85.80265040103836,20.24633231134245,0 85.80265406481588,20.2461606133998,0 
					</coordinates>
				</LinearRing>
			</outerBoundaryIs>
		</Polygon>
	</Placemark>
	<Placemark id="0C85E7A753413BAC78E0">
		<name>BH-?</name>
		<LookAt>
			<longitude>85.80201411893368</longitude>
			<latitude>20.24584945817856</latitude>
			<altitude>41.16111329652731</altitude>
			<heading>0</heading>
			<tilt>0</tilt>
			<gx:fovy>34.9999999777951</gx:fovy>
			<range>245.4137394161808</range>
			<altitudeMode>absolute</altitudeMode>
		</LookAt>
		<styleUrl>#__managed_style_0E0B87352D413BB50E6B</styleUrl>
		<Polygon>
			<outerBoundaryIs>
				<LinearRing>
					<coordinates>
						85.80208888128435,20.24584467557865,0 85.80236083042624,20.24584786324706,0 85.80263135712444,20.24585263899231,0 85.80280572742434,20.2458621520478,0 85.80279952542112,20.24607289751881,0 85.8026840290496,20.24607642216334,0 85.80268591444514,20.24603044666645,0 85.80260749022121,20.24602760435424,0 85.80260216777779,20.24606887174505,0 85.8024895609523,20.24606771167863,0 85.8024964056483,20.2460199374732,0 85.80239468573512,20.24601682657332,0 85.80240147879401,20.24606464472907,0 85.80228271324407,20.24606158391593,0 85.80228272144507,20.24601693103762,0 85.8022028206381,20.24601533604372,0 85.80219772065578,20.24605840040281,0 85.80208381958781,20.246064780567,0 85.80208888128435,20.24584467557865,0 
					</coordinates>
				</LinearRing>
			</outerBoundaryIs>
		</Polygon>
	</Placemark>
	<Placemark id="08ED5F7AD1413BAE8C8F">
		<name>BH-12</name>
		<LookAt>
			<longitude>85.8020361385815</longitude>
			<latitude>20.24593224167286</latitude>
			<altitude>41.04416966928848</altitude>
			<heading>0</heading>
			<tilt>0</tilt>
			<gx:fovy>34.9999999777951</gx:fovy>
			<range>260.5854482930955</range>
			<altitudeMode>absolute</altitudeMode>
		</LookAt>
		<styleUrl>#__managed_style_0E0B87352D413BB50E6B</styleUrl>
		<Polygon>
			<outerBoundaryIs>
				<LinearRing>
					<coordinates>
						85.80167008189389,20.24628887600736,0 85.80168430926534,20.24599995242527,0 85.80173663270136,20.24597963914436,0 85.80173663281435,20.24592039192202,0 85.80168430946512,20.24591869906583,0 85.80168643150041,20.24577495571723,0 85.80167965390565,20.24564845664175,0 85.80165096683882,20.24564516771428,0 85.80165138572603,20.24554933033494,0 85.80167826643022,20.24554923621346,0 85.80167169186474,20.24543703106077,0 85.80185300492349,20.24543194376618,0 85.8018419302238,20.24554420191785,0 85.80183065951545,20.24576989718256,0 85.80183586669921,20.24594916922934,0 85.80187195169002,20.24594916938233,0 85.80187376833433,20.24590346648382,0 85.80204696396923,20.24590177166978,0 85.80205418108868,20.2459559405466,0 85.80207583219565,20.24596101888541,0 85.80207222373379,20.2460388864928,0 85.80186293033883,20.24603550103572,0 85.80186293043819,20.24597117540589,0 85.80183586661903,20.24598133207601,0 85.80183074098889,20.24629737034061,0 85.80167008189389,20.24628887600736,0 
					</coordinates>
				</LinearRing>
			</outerBoundaryIs>
		</Polygon>
	</Placemark>
	<Placemark id="0820EEE3DA413BB454FB">
		<name>BH-10</name>
		<LookAt>
			<longitude>85.80259829864312</longitude>
			<latitude>20.24576202630551</latitude>
			<altitude>41.49673791748512</altitude>
			<heading>310.1469745592713</heading>
			<tilt>0</tilt>
			<gx:fovy>34.99999997779511</gx:fovy>
			<range>226.1766100787646</range>
			<altitudeMode>absolute</altitudeMode>
		</LookAt>
		<styleUrl>#__managed_style_0E0B87352D413BB50E6B</styleUrl>
		<Polygon>
			<outerBoundaryIs>
				<LinearRing>
					<coordinates>
						85.80220662022904,20.24547696594189,0 85.80220763401935,20.24549379126307,0 85.80224255162047,20.24549228299335,0 85.80223841742875,20.24547583872792,0 85.80248102158156,20.24548071594839,0 85.80248463035099,20.24544274862246,0 85.80260551617566,20.24544106948823,0 85.8026126033155,20.24539139244929,0 85.80291166971395,20.24539820786768,0 85.80291119980798,20.24545127529694,0 85.80289573477204,20.24545471519718,0 85.80289360623411,20.24547832687386,0 85.80291804554086,20.24548556865622,0 85.8029063532542,20.24570396628179,0 85.80288172462443,20.2457010313454,0 85.80288259129958,20.24572455131089,0 85.80290689907889,20.24573119893677,0 85.80290396903814,20.2457853545051,0 85.80272703780157,20.24577872042935,0 85.80260296254619,20.24577634684052,0 85.80260405342955,20.245719891378,0 85.80262125608925,20.24571845187533,0 85.80261713723966,20.24569739189459,0 85.802599461897,20.2456818243588,0 85.80260156027748,20.24547001918341,0 85.80256114637689,20.24547228833845,0 85.80255376366928,20.24565360893139,0 85.80255215153475,20.24577135079739,0 85.80249951494989,20.24577470206363,0 85.80249304123539,20.2457571996119,0 85.80246998456738,20.24575630638348,0 85.80246378533259,20.24578034937305,0 85.80223229168402,20.24577228307969,0 85.80223317981662,20.24575254292719,0 85.80219943336246,20.24574796857094,0 85.80220396197531,20.24576342167782,0 85.8021422608672,20.2457669986321,0 85.80214979703669,20.24559150565909,0 85.80214962344661,20.24548016626585,0 85.80220662022904,20.24547696594189,0 
					</coordinates>
				</LinearRing>
			</outerBoundaryIs>
		</Polygon>
	</Placemark>
</Document>
</kml>
