<?xml version="1.0" encoding="UTF-8"?>

<kml xmlns="http://www.opengis.net/kml/2.2">

<Document>

    <Placemark>
        <name>SOA ITER CAMPUS 1</name>

        <Polygon>
            <outerBoundaryIs>
                <LinearRing>
                    <coordinates>
                        85.79984626225641,20.2507200777057,0 85.7998644920491,20.25028679568984,0 85.79980641215408,20.25010051168871,0 85.79966536434969,20.24997225362461,0 85.79963120982526,20.24968214953108,0 85.79968709598457,20.2496110386071,0 85.79994596751206,20.24931418327673,0 85.80015301296869,20.24923163121484,0 85.80033274393655,20.24884070635691,0 85.799980103599,20.24881564447525,0 85.79975014118011,20.24844017027732,0 85.79968097908646,20.24819867207181,0 85.79989894270365,20.24804426012118,0 85.80020106046646,20.24716589011873,0 85.8004525051885,20.24673340846605,0 85.80077159353451,20.2465155158357,0 85.80097037056922,20.24620115292076,0 85.80137197775605,20.24622067076241,0 85.8014380192443,20.2460461671749,0 85.80136212995451,20.24566294820245,0 85.80145154840346,20.24530705629243,0 85.80206035474224,20.24537626036667,0 85.8024905116488,20.24489349102976,0 85.80294923283662,20.24535745352665,0 85.80294310966961,20.24562960408058,0 85.8029299320213,20.2458362147885,0 85.80285179643727,20.24584034562719,0 85.80284012418893,20.24609890886627,0 85.80293693741679,20.24636462402434,0 85.80287421374483,20.24649808531644,0 85.8027773539994,20.24661796076598,0 85.80265116612328,20.24669901039963,0 85.80257084664231,20.24674291907888,0 85.8025472925469,20.24684183015246,0 85.80252881805696,20.24703876599925,0 85.80249792493386,20.24710650046522,0 85.80239319748588,20.2471894768596,0 85.80228596014044,20.24728972036223,0 85.80227750169928,20.2474355903147,0 85.80240671014006,20.24761535929262,0 85.80248561230958,20.24785445544801,0 85.80244681072777,20.24796044048806,0 85.80260777130626,20.2480119614047,0 85.80276507195983,20.24806562046334,0 85.80280727881629,20.2481291162874,0 85.80288973025166,20.24825455451492,0 85.80287022736711,20.24841285753976,0 85.80268248628582,20.24850668280849,0 85.80254083843124,20.24853653895394,0 85.80244064160814,20.24867244356933,0 85.80243826276927,20.24878199447587,0 85.80202415113877,20.24903345417485,0 85.8019205229913,20.24908825479958,0 85.8018591013644,20.24915050329774,0 85.80187891215455,20.24920466006824,0 85.80190798962396,20.24929993333017,0 85.80192247289106,20.24944991577527,0 85.80185998770516,20.24950255645547,0 85.80164900501576,20.24955015638097,0 85.8015126113086,20.24958969151535,0 85.8013896671571,20.24960275815578,0 85.80113581202922,20.24962212394835,0 85.80113679377854,20.24982789101482,0 85.80114513615968,20.25010571211267,0 85.80114509342198,20.25021459197847,0 85.80115033783731,20.25048561945813,0 85.80070307350506,20.250472198958,0 85.80069890768534,20.25061676806025,0 85.80060394563574,20.25061957385358,0 85.8006019366734,20.25065727642109,0 85.80020813423953,20.25066315971087,0 85.80020611112849,20.25073093347667,0 85.80008133917194,20.25074493281408,0 85.79984626225641,20.2507200777057,0 
                    </coordinates>
                </LinearRing>
            </outerBoundaryIs>
        </Polygon>

    </Placemark>


    <Placemark>
        <name>neighbour</name>

        <Polygon>
            <outerBoundaryIs>
                <LinearRing>
                    <coordinates>
                        85.79825215823966,20.24245598898925,0 85.80743372129,20.24590110160668,0 85.80511378233041,20.25306906146531,0 85.79476101109584,20.24936495078567,0 85.79825215823966,20.24245598898925,0 
                    </coordinates>
                </LinearRing>
            </outerBoundaryIs>
        </Polygon>

    </Placemark>

</Document>

</kml>