{
"type": "FeatureCollection",
"name": "heat_risk_zones",
"crs": { "type": "name", "properties": { "name": "urn:ogc:def:crs:OGC:1.3:CRS84" } },
"features": [
{ "type": "Feature", "properties": { "zone_name": "Low Risk Zone 1", "risk_class": "Low Risk", "color": "#16a34a", "area_m2": 959.31231062393636, "centroid_lat": 20.241622799891374, "centroid_lon": 85.790540521259615 }, "geometry": { "type": "Polygon", "coordinates": [ [ [ 85.790097780226844, 20.241468802479943 ], [ 85.789828285641605, 20.241468802479943 ], [ 85.789828285641605, 20.242007791650416 ], [ 85.791175758567789, 20.242007791650416 ], [ 85.791175758567789, 20.241199307894707 ], [ 85.790097780226844, 20.241199307894707 ], [ 85.790097780226844, 20.241468802479943 ] ] ] } },
{ "type": "Feature", "properties": { "zone_name": "Low Risk Zone 2", "risk_class": "Low Risk", "color": "#16a34a", "area_m2": 959.31231062393636, "centroid_lat": 20.242951022757172, "centroid_lon": 85.798317365076542 }, "geometry": { "type": "Polygon", "coordinates": [ [ [ 85.798182617783922, 20.243085769991357 ], [ 85.798452112369162, 20.243085769991357 ], [ 85.798452112369162, 20.242816275406124 ], [ 85.798182617783922, 20.242816275406124 ], [ 85.798182617783922, 20.243085769991357 ] ] ] } },
{ "type": "Feature", "properties": { "zone_name": "Low Risk Zone 3", "risk_class": "Low Risk", "color": "#16a34a", "area_m2": 959.31231062393636, "centroid_lat": 20.24441960284161, "centroid_lon": 85.800452034121335 }, "geometry": { "type": "Polygon", "coordinates": [ [ [ 85.798721606954388, 20.242546780820888 ], [ 85.798991101539627, 20.242546780820888 ], [ 85.798991101539627, 20.242816275406124 ], [ 85.798721606954388, 20.242816275406124 ], [ 85.798721606954388, 20.243355264576593 ], [ 85.798452112369162, 20.243355264576593 ], [ 85.798452112369162, 20.243624759161829 ], [ 85.798182617783922, 20.243624759161829 ], [ 85.798182617783922, 20.243894253747065 ], [ 85.797643628613457, 20.243894253747065 ], [ 85.797643628613457, 20.244163748332301 ], [ 85.797374134028217, 20.244163748332301 ], [ 85.797374134028217, 20.244433242917538 ], [ 85.796835144857738, 20.244433242917538 ], [ 85.796835144857738, 20.244163748332301 ], [ 85.796565650272512, 20.244163748332301 ], [ 85.796565650272512, 20.243894253747065 ], [ 85.796296155687273, 20.243894253747065 ], [ 85.796296155687273, 20.24497223208801 ], [ 85.796026661102033, 20.24497223208801 ], [ 85.796026661102033, 20.245241726673246 ], [ 85.796296155687273, 20.245241726673246 ], [ 85.796296155687273, 20.246050210428955 ], [ 85.796565650272512, 20.246050210428955 ], [ 85.796565650272512, 20.245780715843718 ], [ 85.796835144857738, 20.245780715843718 ], [ 85.796835144857738, 20.245511221258482 ], [ 85.797374134028217, 20.245511221258482 ], [ 85.797374134028217, 20.245241726673246 ], [ 85.798452112369162, 20.245241726673246 ], [ 85.798452112369162, 20.24497223208801 ], [ 85.799530090710107, 20.24497223208801 ], [ 85.799530090710107, 20.244702737502774 ], [ 85.800338574465812, 20.244702737502774 ], [ 85.800338574465812, 20.24497223208801 ], [ 85.800608069051052, 20.24497223208801 ], [ 85.800608069051052, 20.244702737502774 ], [ 85.800877563636277, 20.244702737502774 ], [ 85.800877563636277, 20.24497223208801 ], [ 85.801147058221517, 20.24497223208801 ], [ 85.801147058221517, 20.245511221258482 ], [ 85.800608069051052, 20.245511221258482 ], [ 85.800608069051052, 20.246050210428955 ], [ 85.800338574465812, 20.246050210428955 ], [ 85.800338574465812, 20.245780715843718 ], [ 85.799799585295332, 20.245780715843718 ], [ 85.799799585295332, 20.246050210428955 ], [ 85.799530090710107, 20.246050210428955 ], [ 85.799530090710107, 20.246589199599423 ], [ 85.799260596124867, 20.246589199599423 ], [ 85.799260596124867, 20.24685869418466 ], [ 85.799530090710107, 20.24685869418466 ], [ 85.799530090710107, 20.247128188769896 ], [ 85.799799585295332, 20.247128188769896 ], [ 85.799799585295332, 20.247667177940368 ], [ 85.799530090710107, 20.247667177940368 ], [ 85.799530090710107, 20.247936672525604 ], [ 85.799260596124867, 20.247936672525604 ], [ 85.799260596124867, 20.248745156281313 ], [ 85.799530090710107, 20.248745156281313 ], [ 85.799530090710107, 20.249014650866549 ], [ 85.799260596124867, 20.249014650866549 ], [ 85.799260596124867, 20.249553640037018 ], [ 85.800069079880572, 20.249553640037018 ], [ 85.800069079880572, 20.249284145451782 ], [ 85.800608069051052, 20.249284145451782 ], [ 85.800608069051052, 20.248475661696077 ], [ 85.800069079880572, 20.248475661696077 ], [ 85.800069079880572, 20.247667177940368 ], [ 85.800877563636277, 20.247667177940368 ], [ 85.800877563636277, 20.247936672525604 ], [ 85.801955541977222, 20.247936672525604 ], [ 85.801955541977222, 20.24820616711084 ], [ 85.803303014903406, 20.24820616711084 ], [ 85.803303014903406, 20.248475661696077 ], [ 85.803572509488646, 20.248475661696077 ], [ 85.803572509488646, 20.247936672525604 ], [ 85.802764025732927, 20.247936672525604 ], [ 85.802764025732927, 20.247667177940368 ], [ 85.802494531147701, 20.247667177940368 ], [ 85.802494531147701, 20.247128188769896 ], [ 85.802225036562461, 20.247128188769896 ], [ 85.802225036562461, 20.24685869418466 ], [ 85.801955541977222, 20.24685869418466 ], [ 85.801955541977222, 20.246589199599423 ], [ 85.802225036562461, 20.246589199599423 ], [ 85.802225036562461, 20.246050210428955 ], [ 85.802494531147701, 20.246050210428955 ], [ 85.802494531147701, 20.246319705014187 ], [ 85.802764025732927, 20.246319705014187 ], [ 85.802764025732927, 20.246589199599423 ], [ 85.802494531147701, 20.246589199599423 ], [ 85.802494531147701, 20.24685869418466 ], [ 85.802764025732927, 20.24685869418466 ], [ 85.802764025732927, 20.247397683355132 ], [ 85.803033520318166, 20.247397683355132 ], [ 85.803033520318166, 20.247128188769896 ], [ 85.803842004073871, 20.247128188769896 ], [ 85.803842004073871, 20.246319705014187 ], [ 85.803572509488646, 20.246319705014187 ], [ 85.803572509488646, 20.246050210428955 ], [ 85.803842004073871, 20.246050210428955 ], [ 85.803842004073871, 20.24497223208801 ], [ 85.802494531147701, 20.24497223208801 ], [ 85.802494531147701, 20.244702737502774 ], [ 85.802225036562461, 20.244702737502774 ], [ 85.802225036562461, 20.24497223208801 ], [ 85.801955541977222, 20.24497223208801 ], [ 85.801955541977222, 20.243894253747065 ], [ 85.802225036562461, 20.243894253747065 ], [ 85.802225036562461, 20.242816275406124 ], [ 85.802494531147701, 20.242816275406124 ], [ 85.802494531147701, 20.242546780820888 ], [ 85.802764025732927, 20.242546780820888 ], [ 85.802764025732927, 20.242277286235652 ], [ 85.803033520318166, 20.242277286235652 ], [ 85.803033520318166, 20.241738297065179 ], [ 85.803303014903406, 20.241738297065179 ], [ 85.803303014903406, 20.241468802479943 ], [ 85.803572509488646, 20.241468802479943 ], [ 85.803572509488646, 20.241199307894707 ], [ 85.803303014903406, 20.241199307894707 ], [ 85.803303014903406, 20.240929813309471 ], [ 85.799260596124867, 20.240929813309471 ], [ 85.799260596124867, 20.241468802479943 ], [ 85.798721606954388, 20.241468802479943 ], [ 85.798721606954388, 20.241199307894707 ], [ 85.798452112369162, 20.241199307894707 ], [ 85.798452112369162, 20.240929813309471 ], [ 85.797374134028217, 20.240929813309471 ], [ 85.797374134028217, 20.241738297065179 ], [ 85.797104639442978, 20.241738297065179 ], [ 85.797104639442978, 20.242277286235652 ], [ 85.797374134028217, 20.242277286235652 ], [ 85.797374134028217, 20.242546780820888 ], [ 85.797913123198683, 20.242546780820888 ], [ 85.797913123198683, 20.242816275406124 ], [ 85.798182617783922, 20.242816275406124 ], [ 85.798182617783922, 20.242546780820888 ], [ 85.798452112369162, 20.242546780820888 ], [ 85.798452112369162, 20.242277286235652 ], [ 85.798721606954388, 20.242277286235652 ], [ 85.798721606954388, 20.242546780820888 ] ], [ [ 85.801686047391982, 20.245511221258482 ], [ 85.801955541977222, 20.245511221258482 ], [ 85.801955541977222, 20.246050210428955 ], [ 85.801686047391982, 20.246050210428955 ], [ 85.801686047391982, 20.245511221258482 ] ], [ [ 85.798182617783922, 20.241468802479943 ], [ 85.798452112369162, 20.241468802479943 ], [ 85.798452112369162, 20.241738297065179 ], [ 85.798182617783922, 20.241738297065179 ], [ 85.798182617783922, 20.241468802479943 ] ], [ [ 85.802494531147701, 20.241199307894707 ], [ 85.803033520318166, 20.241199307894707 ], [ 85.803033520318166, 20.241468802479943 ], [ 85.802494531147701, 20.241468802479943 ], [ 85.802494531147701, 20.241199307894707 ] ] ] } },
{ "type": "Feature", "properties": { "zone_name": "Low Risk Zone 4", "risk_class": "Low Risk", "color": "#16a34a", "area_m2": 959.31231062393636, "centroid_lat": 20.245174353216864, "centroid_lon": 85.799866958853997 }, "geometry": { "type": "Polygon", "coordinates": [ [ [ 85.800338574465812, 20.24497223208801 ], [ 85.799530090710107, 20.24497223208801 ], [ 85.799530090710107, 20.245511221258482 ], [ 85.799799585295332, 20.245511221258482 ], [ 85.799799585295332, 20.245241726673246 ], [ 85.800338574465812, 20.245241726673246 ], [ 85.800338574465812, 20.24497223208801 ] ] ] } },
{ "type": "Feature", "properties": { "zone_name": "Low Risk Zone 5", "risk_class": "Low Risk", "color": "#16a34a", "area_m2": 959.31231062393636, "centroid_lat": 20.246184957780013, "centroid_lon": 85.798721606954388 }, "geometry": { "type": "Polygon", "coordinates": [ [ [ 85.798991101539627, 20.246319705014187 ], [ 85.798991101539627, 20.246050210428955 ], [ 85.798452112369162, 20.246050210428955 ], [ 85.798452112369162, 20.246319705014187 ], [ 85.798991101539627, 20.246319705014187 ] ] ] } },
{ "type": "Feature", "properties": { "zone_name": "Low Risk Zone 6", "risk_class": "Low Risk", "color": "#16a34a", "area_m2": 959.31231062393636, "centroid_lat": 20.247262936120961, "centroid_lon": 85.797778375906063 }, "geometry": { "type": "Polygon", "coordinates": [ [ [ 85.797913123198683, 20.247397683355132 ], [ 85.797913123198683, 20.247128188769896 ], [ 85.797643628613457, 20.247128188769896 ], [ 85.797643628613457, 20.247397683355132 ], [ 85.797913123198683, 20.247397683355132 ] ] ] } },
{ "type": "Feature", "properties": { "zone_name": "Low Risk Zone 7", "risk_class": "Low Risk", "color": "#16a34a", "area_m2": 959.31231062393636, "centroid_lat": 20.247532430706197, "centroid_lon": 85.798047870491303 }, "geometry": { "type": "Polygon", "coordinates": [ [ [ 85.797913123198683, 20.247667177940368 ], [ 85.798182617783922, 20.247667177940368 ], [ 85.798182617783922, 20.247397683355132 ], [ 85.797913123198683, 20.247397683355132 ], [ 85.797913123198683, 20.247667177940368 ] ] ] } },
{ "type": "Feature", "properties": { "zone_name": "Low Risk Zone 8", "risk_class": "Low Risk", "color": "#16a34a", "area_m2": 959.31231062393636, "centroid_lat": 20.247801925291434, "centroid_lon": 85.798856354246993 }, "geometry": { "type": "Polygon", "coordinates": [ [ [ 85.798991101539627, 20.247936672525604 ], [ 85.798991101539627, 20.247667177940368 ], [ 85.798721606954388, 20.247667177940368 ], [ 85.798721606954388, 20.247936672525604 ], [ 85.798991101539627, 20.247936672525604 ] ] ] } },
{ "type": "Feature", "properties": { "zone_name": "Low Risk Zone 9", "risk_class": "Low Risk", "color": "#16a34a", "area_m2": 959.31231062393636, "centroid_lat": 20.250496871143802, "centroid_lon": 85.794813935468483 }, "geometry": { "type": "Polygon", "coordinates": [ [ [ 85.794948682761088, 20.250631618377962 ], [ 85.794948682761088, 20.250362123792726 ], [ 85.794679188175863, 20.250362123792726 ], [ 85.794679188175863, 20.250631618377962 ], [ 85.794948682761088, 20.250631618377962 ] ] ] } },
{ "type": "Feature", "properties": { "zone_name": "Low Risk Zone 10", "risk_class": "Low Risk", "color": "#16a34a", "area_m2": 959.31231062393636, "centroid_lat": 20.252026535441136, "centroid_lon": 85.795912057072883 }, "geometry": { "type": "Polygon", "coordinates": [ [ [ 85.793062220664439, 20.253326564230321 ], [ 85.793331715249678, 20.253326564230321 ], [ 85.793331715249678, 20.253596058815557 ], [ 85.797913123198683, 20.253596058815557 ], [ 85.797913123198683, 20.253326564230321 ], [ 85.798991101539627, 20.253326564230321 ], [ 85.798991101539627, 20.253596058815557 ], [ 85.800069079880572, 20.253596058815557 ], [ 85.800069079880572, 20.253326564230321 ], [ 85.799799585295332, 20.253326564230321 ], [ 85.799799585295332, 20.253057069645084 ], [ 85.798991101539627, 20.253057069645084 ], [ 85.798991101539627, 20.252518080474612 ], [ 85.799530090710107, 20.252518080474612 ], [ 85.799530090710107, 20.251170607548435 ], [ 85.799799585295332, 20.251170607548435 ], [ 85.799799585295332, 20.25009262920749 ], [ 85.799260596124867, 20.25009262920749 ], [ 85.799260596124867, 20.250362123792726 ], [ 85.798991101539627, 20.250362123792726 ], [ 85.798991101539627, 20.249014650866549 ], [ 85.797913123198683, 20.249014650866549 ], [ 85.797913123198683, 20.249284145451782 ], [ 85.798182617783922, 20.249284145451782 ], [ 85.798182617783922, 20.249823134622254 ], [ 85.798452112369162, 20.249823134622254 ], [ 85.798452112369162, 20.250362123792726 ], [ 85.797374134028217, 20.250362123792726 ], [ 85.797374134028217, 20.25009262920749 ], [ 85.797104639442978, 20.25009262920749 ], [ 85.797104639442978, 20.250362123792726 ], [ 85.796026661102033, 20.250362123792726 ], [ 85.796026661102033, 20.250631618377962 ], [ 85.795757166516793, 20.250631618377962 ], [ 85.795757166516793, 20.251170607548435 ], [ 85.794948682761088, 20.251170607548435 ], [ 85.794948682761088, 20.250901112963199 ], [ 85.794679188175863, 20.250901112963199 ], [ 85.794679188175863, 20.250631618377962 ], [ 85.794409693590623, 20.250631618377962 ], [ 85.794409693590623, 20.250901112963199 ], [ 85.794140199005383, 20.250901112963199 ], [ 85.794140199005383, 20.251170607548435 ], [ 85.794409693590623, 20.251170607548435 ], [ 85.794409693590623, 20.251440102133671 ], [ 85.793331715249678, 20.251440102133671 ], [ 85.793331715249678, 20.251979091304143 ], [ 85.793062220664439, 20.251979091304143 ], [ 85.793062220664439, 20.252518080474612 ], [ 85.792792726079199, 20.252518080474612 ], [ 85.792792726079199, 20.252248585889376 ], [ 85.792523231493973, 20.252248585889376 ], [ 85.792523231493973, 20.251709596718907 ], [ 85.793062220664439, 20.251709596718907 ], [ 85.793062220664439, 20.251170607548435 ], [ 85.792253736908734, 20.251170607548435 ], [ 85.792253736908734, 20.251440102133671 ], [ 85.791714747738268, 20.251440102133671 ], [ 85.791714747738268, 20.251709596718907 ], [ 85.791445253153029, 20.251709596718907 ], [ 85.791445253153029, 20.252248585889376 ], [ 85.791175758567789, 20.252248585889376 ], [ 85.791175758567789, 20.252518080474612 ], [ 85.790906263982549, 20.252518080474612 ], [ 85.790906263982549, 20.252248585889376 ], [ 85.790097780226844, 20.252248585889376 ], [ 85.790097780226844, 20.252787575059848 ], [ 85.790636769397324, 20.252787575059848 ], [ 85.790636769397324, 20.253057069645084 ], [ 85.790906263982549, 20.253057069645084 ], [ 85.790906263982549, 20.253326564230321 ], [ 85.791445253153029, 20.253326564230321 ], [ 85.791445253153029, 20.253057069645084 ], [ 85.791714747738268, 20.253057069645084 ], [ 85.791714747738268, 20.253326564230321 ], [ 85.791984242323494, 20.253326564230321 ], [ 85.791984242323494, 20.253596058815557 ], [ 85.792792726079199, 20.253596058815557 ], [ 85.792792726079199, 20.252787575059848 ], [ 85.793062220664439, 20.252787575059848 ], [ 85.793062220664439, 20.253326564230321 ] ] ] } },
{ "type": "Feature", "properties": { "zone_name": "Low Risk Zone 11", "risk_class": "Low Risk", "color": "#16a34a", "area_m2": 959.31231062393636, "centroid_lat": 20.252518080708462, "centroid_lon": 85.800473321758446 }, "geometry": { "type": "Polygon", "coordinates": [ [ [ 85.800608069051052, 20.252787575059848 ], [ 85.800608069051052, 20.252248585889376 ], [ 85.800338574465812, 20.252248585889376 ], [ 85.800338574465812, 20.252787575059848 ], [ 85.800608069051052, 20.252787575059848 ] ] ] } },
{ "type": "Feature", "properties": { "zone_name": "Low Risk Zone 12", "risk_class": "Low Risk", "color": "#16a34a", "area_m2": 959.31231062393636, "centroid_lat": 20.252922322878639, "centroid_lon": 85.789424043763759 }, "geometry": { "type": "Polygon", "coordinates": [ [ [ 85.789558791056379, 20.253326564230321 ], [ 85.789558791056379, 20.252518080474612 ], [ 85.789289296471139, 20.252518080474612 ], [ 85.789289296471139, 20.253326564230321 ], [ 85.789558791056379, 20.253326564230321 ] ] ] } },
{ "type": "Feature", "properties": { "zone_name": "Low Risk Zone 13", "risk_class": "Low Risk", "color": "#16a34a", "area_m2": 959.31231062393636, "centroid_lat": 20.253191816996168, "centroid_lon": 85.800203827173206 }, "geometry": { "type": "Polygon", "coordinates": [ [ [ 85.800069079880572, 20.253326564230321 ], [ 85.800338574465812, 20.253326564230321 ], [ 85.800338574465812, 20.253057069645084 ], [ 85.800069079880572, 20.253057069645084 ], [ 85.800069079880572, 20.253326564230321 ] ] ] } },
{ "type": "Feature", "properties": { "zone_name": "Low Risk Zone 14", "risk_class": "Low Risk", "color": "#16a34a", "area_m2": 959.31231062393636, "centroid_lat": 20.241513718458382, "centroid_lon": 85.808468327735142 }, "geometry": { "type": "Polygon", "coordinates": [ [ [ 85.80815391743765, 20.241468802479943 ], [ 85.80815391743765, 20.241738297065179 ], [ 85.808692906608115, 20.241738297065179 ], [ 85.808692906608115, 20.241199307894707 ], [ 85.80842341202289, 20.241199307894707 ], [ 85.80842341202289, 20.241468802479943 ], [ 85.80815391743765, 20.241468802479943 ] ] ] } },
{ "type": "Feature", "properties": { "zone_name": "Low Risk Zone 15", "risk_class": "Low Risk", "color": "#16a34a", "area_m2": 959.31231062393636, "centroid_lat": 20.24214253900146, "centroid_lon": 85.809097148485975 }, "geometry": { "type": "Polygon", "coordinates": [ [ [ 85.809231895778595, 20.242277286235652 ], [ 85.809231895778595, 20.242007791650416 ], [ 85.808962401193355, 20.242007791650416 ], [ 85.808962401193355, 20.242277286235652 ], [ 85.809231895778595, 20.242277286235652 ] ] ] } },
{ "type": "Feature", "properties": { "zone_name": "Low Risk Zone 16", "risk_class": "Low Risk", "color": "#16a34a", "area_m2": 959.31231062393636, "centroid_lat": 20.245776070247665, "centroid_lon": 85.807015535075692 }, "geometry": { "type": "Polygon", "coordinates": [ [ [ 85.80653694992624, 20.245241726673246 ], [ 85.80653694992624, 20.245511221258482 ], [ 85.805728466170521, 20.245511221258482 ], [ 85.805728466170521, 20.245780715843718 ], [ 85.805458971585296, 20.245780715843718 ], [ 85.805458971585296, 20.246050210428955 ], [ 85.806806444511466, 20.246050210428955 ], [ 85.806806444511466, 20.246319705014187 ], [ 85.807345433681945, 20.246319705014187 ], [ 85.807345433681945, 20.246589199599423 ], [ 85.807614928267171, 20.246589199599423 ], [ 85.807614928267171, 20.246319705014187 ], [ 85.80788442285241, 20.246319705014187 ], [ 85.80788442285241, 20.245780715843718 ], [ 85.80815391743765, 20.245780715843718 ], [ 85.80815391743765, 20.245241726673246 ], [ 85.80653694992624, 20.245241726673246 ] ] ] } },
{ "type": "Feature", "properties": { "zone_name": "Low Risk Zone 17", "risk_class": "Low Risk", "color": "#16a34a", "area_m2": 959.31231062393636, "centroid_lat": 20.246576950332905, "centroid_lon": 85.808582658931471 }, "geometry": { "type": "Polygon", "coordinates": [ [ [ 85.80842341202289, 20.246319705014187 ], [ 85.80842341202289, 20.246050210428955 ], [ 85.80815391743765, 20.246050210428955 ], [ 85.80815391743765, 20.246319705014187 ], [ 85.80788442285241, 20.246319705014187 ], [ 85.80788442285241, 20.246589199599423 ], [ 85.80815391743765, 20.246589199599423 ], [ 85.80815391743765, 20.24685869418466 ], [ 85.80842341202289, 20.24685869418466 ], [ 85.80842341202289, 20.247128188769896 ], [ 85.808692906608115, 20.247128188769896 ], [ 85.808692906608115, 20.24685869418466 ], [ 85.809231895778595, 20.24685869418466 ], [ 85.809231895778595, 20.246319705014187 ], [ 85.80842341202289, 20.246319705014187 ] ] ] } },
{ "type": "Feature", "properties": { "zone_name": "Low Risk Zone 18", "risk_class": "Low Risk", "color": "#16a34a", "area_m2": 959.31231062393636, "centroid_lat": 20.248071419876666, "centroid_lon": 85.800742816343657 }, "geometry": { "type": "Polygon", "coordinates": [ [ [ 85.800877563636277, 20.24820616711084 ], [ 85.800877563636277, 20.247936672525604 ], [ 85.800608069051052, 20.247936672525604 ], [ 85.800608069051052, 20.24820616711084 ], [ 85.800877563636277, 20.24820616711084 ] ] ] } },
{ "type": "Feature", "properties": { "zone_name": "Low Risk Zone 19", "risk_class": "Low Risk", "color": "#16a34a", "area_m2": 959.31231062393636, "centroid_lat": 20.248475661929874, "centroid_lon": 85.809097148485989 }, "geometry": { "type": "Polygon", "coordinates": [ [ [ 85.808962401193355, 20.248745156281313 ], [ 85.809231895778595, 20.248745156281313 ], [ 85.809231895778595, 20.24820616711084 ], [ 85.808962401193355, 20.24820616711084 ], [ 85.808962401193355, 20.248745156281313 ] ] ] } },
{ "type": "Feature", "properties": { "zone_name": "Low Risk Zone 20", "risk_class": "Low Risk", "color": "#16a34a", "area_m2": 959.31231062393636, "centroid_lat": 20.250143161492701, "centroid_lon": 85.802174506285724 }, "geometry": { "type": "Polygon", "coordinates": [ [ [ 85.802494531147701, 20.25009262920749 ], [ 85.802494531147701, 20.249553640037018 ], [ 85.802225036562461, 20.249553640037018 ], [ 85.802225036562461, 20.249014650866549 ], [ 85.801955541977222, 20.249014650866549 ], [ 85.801955541977222, 20.25009262920749 ], [ 85.801686047391982, 20.25009262920749 ], [ 85.801686047391982, 20.250901112963199 ], [ 85.802225036562461, 20.250901112963199 ], [ 85.802225036562461, 20.250631618377962 ], [ 85.802764025732927, 20.250631618377962 ], [ 85.802764025732927, 20.25009262920749 ], [ 85.802494531147701, 20.25009262920749 ] ] ] } },
{ "type": "Feature", "properties": { "zone_name": "Low Risk Zone 21", "risk_class": "Low Risk", "color": "#16a34a", "area_m2": 959.31231062393636, "centroid_lat": 20.250559664699246, "centroid_lon": 85.806488788785629 }, "geometry": { "type": "Polygon", "coordinates": [ [ [ 85.80653694992624, 20.253326564230321 ], [ 85.80653694992624, 20.253057069645084 ], [ 85.806806444511466, 20.253057069645084 ], [ 85.806806444511466, 20.252787575059848 ], [ 85.807075939096705, 20.252787575059848 ], [ 85.807075939096705, 20.252248585889376 ], [ 85.80788442285241, 20.252248585889376 ], [ 85.80788442285241, 20.251979091304143 ], [ 85.80815391743765, 20.251979091304143 ], [ 85.80815391743765, 20.251170607548435 ], [ 85.80842341202289, 20.251170607548435 ], [ 85.80842341202289, 20.250631618377962 ], [ 85.809231895778595, 20.250631618377962 ], [ 85.809231895778595, 20.249014650866549 ], [ 85.808962401193355, 20.249014650866549 ], [ 85.808962401193355, 20.249553640037018 ], [ 85.808692906608115, 20.249553640037018 ], [ 85.808692906608115, 20.249284145451782 ], [ 85.80842341202289, 20.249284145451782 ], [ 85.80842341202289, 20.249014650866549 ], [ 85.80815391743765, 20.249014650866549 ], [ 85.80815391743765, 20.248475661696077 ], [ 85.806267455341001, 20.248475661696077 ], [ 85.806267455341001, 20.249014650866549 ], [ 85.805458971585296, 20.249014650866549 ], [ 85.805458971585296, 20.24820616711084 ], [ 85.805189477000056, 20.24820616711084 ], [ 85.805189477000056, 20.247936672525604 ], [ 85.803842004073871, 20.247936672525604 ], [ 85.803842004073871, 20.24820616711084 ], [ 85.804111498659111, 20.24820616711084 ], [ 85.804111498659111, 20.248745156281313 ], [ 85.803842004073871, 20.248745156281313 ], [ 85.803842004073871, 20.249014650866549 ], [ 85.804111498659111, 20.249014650866549 ], [ 85.804111498659111, 20.249553640037018 ], [ 85.804380993244351, 20.249553640037018 ], [ 85.804380993244351, 20.250901112963199 ], [ 85.805189477000056, 20.250901112963199 ], [ 85.805189477000056, 20.251170607548435 ], [ 85.804650487829576, 20.251170607548435 ], [ 85.804650487829576, 20.251709596718907 ], [ 85.804919982414816, 20.251709596718907 ], [ 85.804919982414816, 20.251979091304143 ], [ 85.804650487829576, 20.251979091304143 ], [ 85.804650487829576, 20.252248585889376 ], [ 85.805458971585296, 20.252248585889376 ], [ 85.805458971585296, 20.251709596718907 ], [ 85.805997960755761, 20.251709596718907 ], [ 85.805997960755761, 20.253057069645084 ], [ 85.804919982414816, 20.253057069645084 ], [ 85.804919982414816, 20.253596058815557 ], [ 85.80842341202289, 20.253596058815557 ], [ 85.80842341202289, 20.253057069645084 ], [ 85.807345433681945, 20.253057069645084 ], [ 85.807345433681945, 20.253326564230321 ], [ 85.80653694992624, 20.253326564230321 ] ] ] } },
{ "type": "Feature", "properties": { "zone_name": "Low Risk Zone 22", "risk_class": "Low Risk", "color": "#16a34a", "area_m2": 959.31231062393636, "centroid_lat": 20.251305354899511, "centroid_lon": 85.802090289269827 }, "geometry": { "type": "Polygon", "coordinates": [ [ [ 85.802225036562461, 20.251440102133671 ], [ 85.802225036562461, 20.251170607548435 ], [ 85.801955541977222, 20.251170607548435 ], [ 85.801955541977222, 20.251440102133671 ], [ 85.802225036562461, 20.251440102133671 ] ] ] } },
{ "type": "Feature", "properties": { "zone_name": "Low Risk Zone 23", "risk_class": "Low Risk", "color": "#16a34a", "area_m2": 959.31231062393636, "centroid_lat": 20.251844344069983, "centroid_lon": 85.804246245951731 }, "geometry": { "type": "Polygon", "coordinates": [ [ [ 85.804380993244351, 20.251979091304143 ], [ 85.804380993244351, 20.251709596718907 ], [ 85.804111498659111, 20.251709596718907 ], [ 85.804111498659111, 20.251979091304143 ], [ 85.804380993244351, 20.251979091304143 ] ] ] } },
{ "type": "Feature", "properties": { "zone_name": "Low Risk Zone 24", "risk_class": "Low Risk", "color": "#16a34a", "area_m2": 959.31231062393636, "centroid_lat": 20.252191582775481, "centroid_lon": 85.803059432971736 }, "geometry": { "type": "Polygon", "coordinates": [ [ [ 85.803842004073871, 20.253057069645084 ], [ 85.803842004073871, 20.250901112963199 ], [ 85.802225036562461, 20.250901112963199 ], [ 85.802225036562461, 20.251170607548435 ], [ 85.802494531147701, 20.251170607548435 ], [ 85.802494531147701, 20.251979091304143 ], [ 85.802225036562461, 20.251979091304143 ], [ 85.802225036562461, 20.252248585889376 ], [ 85.802494531147701, 20.252248585889376 ], [ 85.802494531147701, 20.252518080474612 ], [ 85.802225036562461, 20.252518080474612 ], [ 85.802225036562461, 20.252787575059848 ], [ 85.801955541977222, 20.252787575059848 ], [ 85.801955541977222, 20.253057069645084 ], [ 85.802494531147701, 20.253057069645084 ], [ 85.802494531147701, 20.253596058815557 ], [ 85.803303014903406, 20.253596058815557 ], [ 85.803303014903406, 20.253326564230321 ], [ 85.803572509488646, 20.253326564230321 ], [ 85.803572509488646, 20.253057069645084 ], [ 85.803842004073871, 20.253057069645084 ] ] ] } },
{ "type": "Feature", "properties": { "zone_name": "Low Risk Zone 25", "risk_class": "Low Risk", "color": "#16a34a", "area_m2": 959.31231062393636, "centroid_lat": 20.252383333240452, "centroid_lon": 85.804515740536971 }, "geometry": { "type": "Polygon", "coordinates": [ [ [ 85.804650487829576, 20.252518080474612 ], [ 85.804650487829576, 20.252248585889376 ], [ 85.804380993244351, 20.252248585889376 ], [ 85.804380993244351, 20.252518080474612 ], [ 85.804650487829576, 20.252518080474612 ] ] ] } },
{ "type": "Feature", "properties": { "zone_name": "Moderate Risk Zone 26", "risk_class": "Moderate Risk", "color": "#f59e0b", "area_m2": 3837.2559022530913, "centroid_lat": 20.241109476522098, "centroid_lon": 85.79041219044646 }, "geometry": { "type": "Polygon", "coordinates": [ [ [ 85.789828285641605, 20.240929813309471 ], [ 85.789828285641605, 20.241468802479943 ], [ 85.790097780226844, 20.241468802479943 ], [ 85.790097780226844, 20.241199307894707 ], [ 85.791175758567789, 20.241199307894707 ], [ 85.791175758567789, 20.240929813309471 ], [ 85.789828285641605, 20.240929813309471 ] ] ] } },
{ "type": "Feature", "properties": { "zone_name": "Moderate Risk Zone 27", "risk_class": "Moderate Risk", "color": "#f59e0b", "area_m2": 3837.2559022530913, "centroid_lat": 20.241738297298895, "centroid_lon": 85.791310505860395 }, "geometry": { "type": "Polygon", "coordinates": [ [ [ 85.791445253153029, 20.242007791650416 ], [ 85.791445253153029, 20.241468802479943 ], [ 85.791175758567789, 20.241468802479943 ], [ 85.791175758567789, 20.242007791650416 ], [ 85.791445253153029, 20.242007791650416 ] ] ] } },
{ "type": "Feature", "properties": { "zone_name": "Moderate Risk Zone 28", "risk_class": "Moderate Risk", "color": "#f59e0b", "area_m2": 3837.2559022530913, "centroid_lat": 20.241684400457235, "centroid_lon": 85.797077689928358 }, "geometry": { "type": "Polygon", "coordinates": [ [ [ 85.797374134028217, 20.241738297065179 ], [ 85.797374134028217, 20.240929813309471 ], [ 85.796835144857738, 20.240929813309471 ], [ 85.796835144857738, 20.242546780820888 ], [ 85.797374134028217, 20.242546780820888 ], [ 85.797374134028217, 20.242277286235652 ], [ 85.797104639442978, 20.242277286235652 ], [ 85.797104639442978, 20.241738297065179 ], [ 85.797374134028217, 20.241738297065179 ] ] ] } },
{ "type": "Feature", "properties": { "zone_name": "Moderate Risk Zone 29", "risk_class": "Moderate Risk", "color": "#f59e0b", "area_m2": 3837.2559022530913, "centroid_lat": 20.242046291396786, "centroid_lon": 85.792946722930196 }, "geometry": { "type": "Polygon", "coordinates": [ [ [ 85.793062220664439, 20.241738297065179 ], [ 85.793062220664439, 20.242007791650416 ], [ 85.792792726079199, 20.242007791650416 ], [ 85.792792726079199, 20.241738297065179 ], [ 85.792523231493973, 20.241738297065179 ], [ 85.792523231493973, 20.241468802479943 ], [ 85.792253736908734, 20.241468802479943 ], [ 85.792253736908734, 20.242546780820888 ], [ 85.792792726079199, 20.242546780820888 ], [ 85.792792726079199, 20.242277286235652 ], [ 85.793870704420144, 20.242277286235652 ], [ 85.793870704420144, 20.241738297065179 ], [ 85.793062220664439, 20.241738297065179 ] ] ] } },
{ "type": "Feature", "properties": { "zone_name": "Moderate Risk Zone 30", "risk_class": "Moderate Risk", "color": "#f59e0b", "area_m2": 3837.2559022530913, "centroid_lat": 20.24214253900146, "centroid_lon": 85.791580000445649 }, "geometry": { "type": "Polygon", "coordinates": [ [ [ 85.791714747738268, 20.242277286235652 ], [ 85.791714747738268, 20.242007791650416 ], [ 85.791445253153029, 20.242007791650416 ], [ 85.791445253153029, 20.242277286235652 ], [ 85.791714747738268, 20.242277286235652 ] ] ] } },
{ "type": "Feature", "properties": { "zone_name": "Moderate Risk Zone 31", "risk_class": "Moderate Risk", "color": "#f59e0b", "area_m2": 3837.2559022530913, "centroid_lat": 20.242412034024934, "centroid_lon": 85.790552552339435 }, "geometry": { "type": "Polygon", "coordinates": [ [ [ 85.791175758567789, 20.242816275406124 ], [ 85.791175758567789, 20.242546780820888 ], [ 85.791445253153029, 20.242546780820888 ], [ 85.791445253153029, 20.242277286235652 ], [ 85.791175758567789, 20.242277286235652 ], [ 85.791175758567789, 20.242007791650416 ], [ 85.789828285641605, 20.242007791650416 ], [ 85.789828285641605, 20.242816275406124 ], [ 85.791175758567789, 20.242816275406124 ] ] ] } },
{ "type": "Feature", "properties": { "zone_name": "Moderate Risk Zone 32", "risk_class": "Moderate Risk", "color": "#f59e0b", "area_m2": 3837.2559022530913, "centroid_lat": 20.243386361085204, "centroid_lon": 85.791538539640655 }, "geometry": { "type": "Polygon", "coordinates": [ [ [ 85.790906263982549, 20.243624759161829 ], [ 85.790906263982549, 20.243894253747065 ], [ 85.791984242323494, 20.243894253747065 ], [ 85.791984242323494, 20.242816275406124 ], [ 85.791175758567789, 20.242816275406124 ], [ 85.791175758567789, 20.243624759161829 ], [ 85.790906263982549, 20.243624759161829 ] ] ] } },
{ "type": "Feature", "properties": { "zone_name": "Moderate Risk Zone 33", "risk_class": "Moderate Risk", "color": "#f59e0b", "area_m2": 3837.2559022530913, "centroid_lat": 20.243512470681399, "centroid_lon": 85.794791477316934 }, "geometry": { "type": "Polygon", "coordinates": [ [ [ 85.794679188175863, 20.243085769991357 ], [ 85.794679188175863, 20.243355264576593 ], [ 85.794409693590623, 20.243355264576593 ], [ 85.794409693590623, 20.243085769991357 ], [ 85.794140199005383, 20.243085769991357 ], [ 85.794140199005383, 20.243624759161829 ], [ 85.794409693590623, 20.243624759161829 ], [ 85.794409693590623, 20.244163748332301 ], [ 85.794948682761088, 20.244163748332301 ], [ 85.794948682761088, 20.243355264576593 ], [ 85.795757166516793, 20.243355264576593 ], [ 85.795757166516793, 20.243085769991357 ], [ 85.794679188175863, 20.243085769991357 ] ] ] } },
{ "type": "Feature", "properties": { "zone_name": "Moderate Risk Zone 34", "risk_class": "Moderate Risk", "color": "#f59e0b", "area_m2": 3837.2559022530913, "centroid_lat": 20.246685449012194, "centroid_lon": 85.790476356370419 }, "geometry": { "type": "Polygon", "coordinates": [ [ [ 85.790906263982549, 20.246319705014187 ], [ 85.790906263982549, 20.246050210428955 ], [ 85.790097780226844, 20.246050210428955 ], [ 85.790097780226844, 20.246319705014187 ], [ 85.789289296471139, 20.246319705014187 ], [ 85.789289296471139, 20.24685869418466 ], [ 85.789558791056379, 20.24685869418466 ], [ 85.789558791056379, 20.246589199599423 ], [ 85.790097780226844, 20.246589199599423 ], [ 85.790097780226844, 20.24685869418466 ], [ 85.790367274812084, 20.24685869418466 ], [ 85.790367274812084, 20.247128188769896 ], [ 85.790636769397324, 20.247128188769896 ], [ 85.790636769397324, 20.247667177940368 ], [ 85.790906263982549, 20.247667177940368 ], [ 85.790906263982549, 20.247397683355132 ], [ 85.791175758567789, 20.247397683355132 ], [ 85.791175758567789, 20.246319705014187 ], [ 85.790906263982549, 20.246319705014187 ] ] ] } },
{ "type": "Feature", "properties": { "zone_name": "Moderate Risk Zone 35", "risk_class": "Moderate Risk", "color": "#f59e0b", "area_m2": 3837.2559022530913, "centroid_lat": 20.247728169623883, "centroid_lon": 85.797075194674278 }, "geometry": { "type": "Polygon", "coordinates": [ [ [ 85.795757166516793, 20.250631618377962 ], [ 85.796026661102033, 20.250631618377962 ], [ 85.796026661102033, 20.250362123792726 ], [ 85.797104639442978, 20.250362123792726 ], [ 85.797104639442978, 20.25009262920749 ], [ 85.797374134028217, 20.25009262920749 ], [ 85.797374134028217, 20.250362123792726 ], [ 85.798452112369162, 20.250362123792726 ], [ 85.798452112369162, 20.249823134622254 ], [ 85.798182617783922, 20.249823134622254 ], [ 85.798182617783922, 20.249284145451782 ], [ 85.797913123198683, 20.249284145451782 ], [ 85.797913123198683, 20.249014650866549 ], [ 85.798991101539627, 20.249014650866549 ], [ 85.798991101539627, 20.250362123792726 ], [ 85.799260596124867, 20.250362123792726 ], [ 85.799260596124867, 20.25009262920749 ], [ 85.799799585295332, 20.25009262920749 ], [ 85.799799585295332, 20.250362123792726 ], [ 85.800069079880572, 20.250362123792726 ], [ 85.800069079880572, 20.249823134622254 ], [ 85.800338574465812, 20.249823134622254 ], [ 85.800338574465812, 20.249284145451782 ], [ 85.800069079880572, 20.249284145451782 ], [ 85.800069079880572, 20.249553640037018 ], [ 85.799260596124867, 20.249553640037018 ], [ 85.799260596124867, 20.249014650866549 ], [ 85.799530090710107, 20.249014650866549 ], [ 85.799530090710107, 20.248745156281313 ], [ 85.799260596124867, 20.248745156281313 ], [ 85.799260596124867, 20.248475661696077 ], [ 85.798991101539627, 20.248475661696077 ], [ 85.798991101539627, 20.24820616711084 ], [ 85.799260596124867, 20.24820616711084 ], [ 85.799260596124867, 20.247936672525604 ], [ 85.799530090710107, 20.247936672525604 ], [ 85.799530090710107, 20.247667177940368 ], [ 85.799799585295332, 20.247667177940368 ], [ 85.799799585295332, 20.247128188769896 ], [ 85.799530090710107, 20.247128188769896 ], [ 85.799530090710107, 20.24685869418466 ], [ 85.799260596124867, 20.24685869418466 ], [ 85.799260596124867, 20.246589199599423 ], [ 85.799530090710107, 20.246589199599423 ], [ 85.799530090710107, 20.246050210428955 ], [ 85.799799585295332, 20.246050210428955 ], [ 85.799799585295332, 20.245780715843718 ], [ 85.800338574465812, 20.245780715843718 ], [ 85.800338574465812, 20.246050210428955 ], [ 85.800608069051052, 20.246050210428955 ], [ 85.800608069051052, 20.245511221258482 ], [ 85.801147058221517, 20.245511221258482 ], [ 85.801147058221517, 20.24497223208801 ], [ 85.800877563636277, 20.24497223208801 ], [ 85.800877563636277, 20.244702737502774 ], [ 85.800608069051052, 20.244702737502774 ], [ 85.800608069051052, 20.24497223208801 ], [ 85.800338574465812, 20.24497223208801 ], [ 85.800338574465812, 20.245241726673246 ], [ 85.799799585295332, 20.245241726673246 ], [ 85.799799585295332, 20.245511221258482 ], [ 85.799530090710107, 20.245511221258482 ], [ 85.799530090710107, 20.24497223208801 ], [ 85.798452112369162, 20.24497223208801 ], [ 85.798452112369162, 20.245241726673246 ], [ 85.797374134028217, 20.245241726673246 ], [ 85.797374134028217, 20.245511221258482 ], [ 85.796835144857738, 20.245511221258482 ], [ 85.796835144857738, 20.245780715843718 ], [ 85.796565650272512, 20.245780715843718 ], [ 85.796565650272512, 20.246050210428955 ], [ 85.796296155687273, 20.246050210428955 ], [ 85.796296155687273, 20.245241726673246 ], [ 85.796026661102033, 20.245241726673246 ], [ 85.796026661102033, 20.24497223208801 ], [ 85.796296155687273, 20.24497223208801 ], [ 85.796296155687273, 20.243894253747065 ], [ 85.796565650272512, 20.243894253747065 ], [ 85.796565650272512, 20.244163748332301 ], [ 85.796835144857738, 20.244163748332301 ], [ 85.796835144857738, 20.244433242917538 ], [ 85.797374134028217, 20.244433242917538 ], [ 85.797374134028217, 20.244163748332301 ], [ 85.797643628613457, 20.244163748332301 ], [ 85.797643628613457, 20.243894253747065 ], [ 85.797104639442978, 20.243894253747065 ], [ 85.797104639442978, 20.243355264576593 ], [ 85.795757166516793, 20.243355264576593 ], [ 85.795757166516793, 20.243624759161829 ], [ 85.795218177346328, 20.243624759161829 ], [ 85.795218177346328, 20.244433242917538 ], [ 85.795757166516793, 20.244433242917538 ], [ 85.795757166516793, 20.244702737502774 ], [ 85.794948682761088, 20.244702737502774 ], [ 85.794948682761088, 20.245241726673246 ], [ 85.795487671931568, 20.245241726673246 ], [ 85.795487671931568, 20.246050210428955 ], [ 85.795218177346328, 20.246050210428955 ], [ 85.795218177346328, 20.246589199599423 ], [ 85.795487671931568, 20.246589199599423 ], [ 85.795487671931568, 20.247667177940368 ], [ 85.795218177346328, 20.247667177940368 ], [ 85.795218177346328, 20.24820616711084 ], [ 85.794948682761088, 20.24820616711084 ], [ 85.794948682761088, 20.249014650866549 ], [ 85.795757166516793, 20.249014650866549 ], [ 85.795757166516793, 20.249823134622254 ], [ 85.795218177346328, 20.249823134622254 ], [ 85.795218177346328, 20.25009262920749 ], [ 85.793870704420144, 20.25009262920749 ], [ 85.793870704420144, 20.250631618377962 ], [ 85.793331715249678, 20.250631618377962 ], [ 85.793331715249678, 20.251170607548435 ], [ 85.793062220664439, 20.251170607548435 ], [ 85.793062220664439, 20.251709596718907 ], [ 85.792523231493973, 20.251709596718907 ], [ 85.792523231493973, 20.252248585889376 ], [ 85.792792726079199, 20.252248585889376 ], [ 85.792792726079199, 20.252518080474612 ], [ 85.793062220664439, 20.252518080474612 ], [ 85.793062220664439, 20.251979091304143 ], [ 85.793331715249678, 20.251979091304143 ], [ 85.793331715249678, 20.251440102133671 ], [ 85.794409693590623, 20.251440102133671 ], [ 85.794409693590623, 20.251170607548435 ], [ 85.794140199005383, 20.251170607548435 ], [ 85.794140199005383, 20.250901112963199 ], [ 85.794409693590623, 20.250901112963199 ], [ 85.794409693590623, 20.250631618377962 ], [ 85.794679188175863, 20.250631618377962 ], [ 85.794679188175863, 20.250901112963199 ], [ 85.794948682761088, 20.250901112963199 ], [ 85.794948682761088, 20.251170607548435 ], [ 85.795757166516793, 20.251170607548435 ], [ 85.795757166516793, 20.250631618377962 ] ], [ [ 85.794679188175863, 20.250362123792726 ], [ 85.794948682761088, 20.250362123792726 ], [ 85.794948682761088, 20.250631618377962 ], [ 85.794679188175863, 20.250631618377962 ], [ 85.794679188175863, 20.250362123792726 ] ], [ [ 85.797104639442978, 20.248745156281313 ], [ 85.797643628613457, 20.248745156281313 ], [ 85.797643628613457, 20.249014650866549 ], [ 85.797104639442978, 20.249014650866549 ], [ 85.797104639442978, 20.248745156281313 ] ], [ [ 85.797104639442978, 20.24820616711084 ], [ 85.797643628613457, 20.24820616711084 ], [ 85.797643628613457, 20.248475661696077 ], [ 85.797104639442978, 20.248475661696077 ], [ 85.797104639442978, 20.24820616711084 ] ], [ [ 85.796296155687273, 20.246319705014187 ], [ 85.796835144857738, 20.246319705014187 ], [ 85.796835144857738, 20.246589199599423 ], [ 85.797104639442978, 20.246589199599423 ], [ 85.797104639442978, 20.24685869418466 ], [ 85.797374134028217, 20.24685869418466 ], [ 85.797374134028217, 20.247397683355132 ], [ 85.797104639442978, 20.247397683355132 ], [ 85.797104639442978, 20.247667177940368 ], [ 85.796835144857738, 20.247667177940368 ], [ 85.796835144857738, 20.247936672525604 ], [ 85.796565650272512, 20.247936672525604 ], [ 85.796565650272512, 20.247667177940368 ], [ 85.796026661102033, 20.247667177940368 ], [ 85.796026661102033, 20.246589199599423 ], [ 85.796296155687273, 20.246589199599423 ], [ 85.796296155687273, 20.246319705014187 ] ], [ [ 85.798721606954388, 20.247667177940368 ], [ 85.798991101539627, 20.247667177940368 ], [ 85.798991101539627, 20.247936672525604 ], [ 85.798721606954388, 20.247936672525604 ], [ 85.798721606954388, 20.247667177940368 ] ], [ [ 85.798182617783922, 20.247397683355132 ], [ 85.798182617783922, 20.247667177940368 ], [ 85.797913123198683, 20.247667177940368 ], [ 85.797913123198683, 20.247397683355132 ], [ 85.798182617783922, 20.247397683355132 ] ], [ [ 85.797643628613457, 20.247397683355132 ], [ 85.797643628613457, 20.247128188769896 ], [ 85.797913123198683, 20.247128188769896 ], [ 85.797913123198683, 20.247397683355132 ], [ 85.797643628613457, 20.247397683355132 ] ], [ [ 85.797374134028217, 20.246589199599423 ], [ 85.797374134028217, 20.246050210428955 ], [ 85.797104639442978, 20.246050210428955 ], [ 85.797104639442978, 20.245780715843718 ], [ 85.797643628613457, 20.245780715843718 ], [ 85.797643628613457, 20.245511221258482 ], [ 85.798452112369162, 20.245511221258482 ], [ 85.798452112369162, 20.246050210428955 ], [ 85.798182617783922, 20.246050210428955 ], [ 85.798182617783922, 20.246319705014187 ], [ 85.797643628613457, 20.246319705014187 ], [ 85.797643628613457, 20.246589199599423 ], [ 85.797374134028217, 20.246589199599423 ] ], [ [ 85.798991101539627, 20.246050210428955 ], [ 85.798991101539627, 20.246319705014187 ], [ 85.798452112369162, 20.246319705014187 ], [ 85.798452112369162, 20.246050210428955 ], [ 85.798991101539627, 20.246050210428955 ] ] ] } },
{ "type": "Feature", "properties": { "zone_name": "Moderate Risk Zone 36", "risk_class": "Moderate Risk", "color": "#f59e0b", "area_m2": 3837.2559022530913, "centroid_lat": 20.249149398217607, "centroid_lon": 85.794005451712763 }, "geometry": { "type": "Polygon", "coordinates": [ [ [ 85.794140199005383, 20.249284145451782 ], [ 85.794140199005383, 20.249014650866549 ], [ 85.793870704420144, 20.249014650866549 ], [ 85.793870704420144, 20.249284145451782 ], [ 85.794140199005383, 20.249284145451782 ] ] ] } },
{ "type": "Feature", "properties": { "zone_name": "Moderate Risk Zone 37", "risk_class": "Moderate Risk", "color": "#f59e0b", "area_m2": 3837.2559022530913, "centroid_lat": 20.250227378429148, "centroid_lon": 85.789573762614026 }, "geometry": { "type": "Polygon", "coordinates": [ [ [ 85.790097780226844, 20.249823134622254 ], [ 85.790097780226844, 20.249553640037018 ], [ 85.789558791056379, 20.249553640037018 ], [ 85.789558791056379, 20.249823134622254 ], [ 85.789289296471139, 20.249823134622254 ], [ 85.789289296471139, 20.251170607548435 ], [ 85.789558791056379, 20.251170607548435 ], [ 85.789558791056379, 20.250362123792726 ], [ 85.789828285641605, 20.250362123792726 ], [ 85.789828285641605, 20.249823134622254 ], [ 85.790097780226844, 20.249823134622254 ] ] ] } },
{ "type": "Feature", "properties": { "zone_name": "Moderate Risk Zone 38", "risk_class": "Moderate Risk", "color": "#f59e0b", "area_m2": 3837.2559022530913, "centroid_lat": 20.250856197647163, "centroid_lon": 85.792613063048364 }, "geometry": { "type": "Polygon", "coordinates": [ [ [ 85.792523231493973, 20.250362123792726 ], [ 85.792523231493973, 20.250631618377962 ], [ 85.792253736908734, 20.250631618377962 ], [ 85.792253736908734, 20.251170607548435 ], [ 85.793062220664439, 20.251170607548435 ], [ 85.793062220664439, 20.250901112963199 ], [ 85.792792726079199, 20.250901112963199 ], [ 85.792792726079199, 20.250362123792726 ], [ 85.792523231493973, 20.250362123792726 ] ] ] } },
{ "type": "Feature", "properties": { "zone_name": "Moderate Risk Zone 39", "risk_class": "Moderate Risk", "color": "#f59e0b", "area_m2": 3837.2559022530913, "centroid_lat": 20.251305354899511, "centroid_lon": 85.791984242323494 }, "geometry": { "type": "Polygon", "coordinates": [ [ [ 85.791714747738268, 20.251170607548435 ], [ 85.791714747738268, 20.251440102133671 ], [ 85.792253736908734, 20.251440102133671 ], [ 85.792253736908734, 20.251170607548435 ], [ 85.791714747738268, 20.251170607548435 ] ] ] } },
{ "type": "Feature", "properties": { "zone_name": "Moderate Risk Zone 40", "risk_class": "Moderate Risk", "color": "#f59e0b", "area_m2": 3837.2559022530913, "centroid_lat": 20.252444935373671, "centroid_lon": 85.790240226519813 }, "geometry": { "type": "Polygon", "coordinates": [ [ [ 85.790097780226844, 20.252248585889376 ], [ 85.790906263982549, 20.252248585889376 ], [ 85.790906263982549, 20.252518080474612 ], [ 85.791175758567789, 20.252518080474612 ], [ 85.791175758567789, 20.252248585889376 ], [ 85.791445253153029, 20.252248585889376 ], [ 85.791445253153029, 20.251709596718907 ], [ 85.791714747738268, 20.251709596718907 ], [ 85.791714747738268, 20.251440102133671 ], [ 85.791175758567789, 20.251440102133671 ], [ 85.791175758567789, 20.251709596718907 ], [ 85.790367274812084, 20.251709596718907 ], [ 85.790367274812084, 20.251979091304143 ], [ 85.789828285641605, 20.251979091304143 ], [ 85.789828285641605, 20.251709596718907 ], [ 85.789558791056379, 20.251709596718907 ], [ 85.789558791056379, 20.251440102133671 ], [ 85.789289296471139, 20.251440102133671 ], [ 85.789289296471139, 20.252518080474612 ], [ 85.789558791056379, 20.252518080474612 ], [ 85.789558791056379, 20.253326564230321 ], [ 85.789289296471139, 20.253326564230321 ], [ 85.789289296471139, 20.253596058815557 ], [ 85.790097780226844, 20.253596058815557 ], [ 85.790097780226844, 20.253326564230321 ], [ 85.790906263982549, 20.253326564230321 ], [ 85.790906263982549, 20.253057069645084 ], [ 85.790636769397324, 20.253057069645084 ], [ 85.790636769397324, 20.252787575059848 ], [ 85.790097780226844, 20.252787575059848 ], [ 85.790097780226844, 20.252248585889376 ] ] ] } },
{ "type": "Feature", "properties": { "zone_name": "Moderate Risk Zone 41", "risk_class": "Moderate Risk", "color": "#f59e0b", "area_m2": 3837.2559022530913, "centroid_lat": 20.253259191124805, "centroid_lon": 85.792994847105845 }, "geometry": { "type": "Polygon", "coordinates": [ [ [ 85.792792726079199, 20.253596058815557 ], [ 85.793331715249678, 20.253596058815557 ], [ 85.793331715249678, 20.253326564230321 ], [ 85.793062220664439, 20.253326564230321 ], [ 85.793062220664439, 20.252787575059848 ], [ 85.792792726079199, 20.252787575059848 ], [ 85.792792726079199, 20.253596058815557 ] ] ] } },
{ "type": "Feature", "properties": { "zone_name": "Moderate Risk Zone 42", "risk_class": "Moderate Risk", "color": "#f59e0b", "area_m2": 3837.2559022530913, "centroid_lat": 20.25340741277661, "centroid_lon": 85.791472202574127 }, "geometry": { "type": "Polygon", "coordinates": [ [ [ 85.791445253153029, 20.253326564230321 ], [ 85.790906263982549, 20.253326564230321 ], [ 85.790906263982549, 20.253596058815557 ], [ 85.791984242323494, 20.253596058815557 ], [ 85.791984242323494, 20.253326564230321 ], [ 85.791714747738268, 20.253326564230321 ], [ 85.791714747738268, 20.253057069645084 ], [ 85.791445253153029, 20.253057069645084 ], [ 85.791445253153029, 20.253326564230321 ] ] ] } },
{ "type": "Feature", "properties": { "zone_name": "Moderate Risk Zone 43", "risk_class": "Moderate Risk", "color": "#f59e0b", "area_m2": 3837.2559022530913, "centroid_lat": 20.24117235866288, "centroid_lon": 85.798910253220129 }, "geometry": { "type": "Polygon", "coordinates": [ [ [ 85.798721606954388, 20.241199307894707 ], [ 85.798721606954388, 20.241468802479943 ], [ 85.799260596124867, 20.241468802479943 ], [ 85.799260596124867, 20.240929813309471 ], [ 85.798452112369162, 20.240929813309471 ], [ 85.798452112369162, 20.241199307894707 ], [ 85.798721606954388, 20.241199307894707 ] ] ] } },
{ "type": "Feature", "properties": { "zone_name": "Moderate Risk Zone 44", "risk_class": "Moderate Risk", "color": "#f59e0b", "area_m2": 3837.2559022530913, "centroid_lat": 20.241334055245755, "centroid_lon": 85.802764025732927 }, "geometry": { "type": "Polygon", "coordinates": [ [ [ 85.803033520318166, 20.241468802479943 ], [ 85.803033520318166, 20.241199307894707 ], [ 85.802494531147701, 20.241199307894707 ], [ 85.802494531147701, 20.241468802479943 ], [ 85.803033520318166, 20.241468802479943 ] ] ] } },
{ "type": "Feature", "properties": { "zone_name": "Moderate Risk Zone 45", "risk_class": "Moderate Risk", "color": "#f59e0b", "area_m2": 3837.2559022530913, "centroid_lat": 20.241603549830991, "centroid_lon": 85.798317365076542 }, "geometry": { "type": "Polygon", "coordinates": [ [ [ 85.798452112369162, 20.241738297065179 ], [ 85.798452112369162, 20.241468802479943 ], [ 85.798182617783922, 20.241468802479943 ], [ 85.798182617783922, 20.241738297065179 ], [ 85.798452112369162, 20.241738297065179 ] ] ] } },
{ "type": "Feature", "properties": { "zone_name": "Moderate Risk Zone 46", "risk_class": "Moderate Risk", "color": "#f59e0b", "area_m2": 3837.2559022530913, "centroid_lat": 20.241741294176055, "centroid_lon": 85.80840844047313 }, "geometry": { "type": "Polygon", "coordinates": [ [ [ 85.807075939096705, 20.240929813309471 ], [ 85.807075939096705, 20.241199307894707 ], [ 85.806806444511466, 20.241199307894707 ], [ 85.806806444511466, 20.241468802479943 ], [ 85.807614928267171, 20.241468802479943 ], [ 85.807614928267171, 20.242007791650416 ], [ 85.80788442285241, 20.242007791650416 ], [ 85.80788442285241, 20.242277286235652 ], [ 85.807614928267171, 20.242277286235652 ], [ 85.807614928267171, 20.242546780820888 ], [ 85.80788442285241, 20.242546780820888 ], [ 85.80788442285241, 20.242816275406124 ], [ 85.808692906608115, 20.242816275406124 ], [ 85.808692906608115, 20.242546780820888 ], [ 85.809501390363835, 20.242546780820888 ], [ 85.809501390363835, 20.240929813309471 ], [ 85.807075939096705, 20.240929813309471 ] ], [ [ 85.808962401193355, 20.242007791650416 ], [ 85.809231895778595, 20.242007791650416 ], [ 85.809231895778595, 20.242277286235652 ], [ 85.808962401193355, 20.242277286235652 ], [ 85.808962401193355, 20.242007791650416 ] ], [ [ 85.808692906608115, 20.241738297065179 ], [ 85.80815391743765, 20.241738297065179 ], [ 85.80815391743765, 20.241468802479943 ], [ 85.80842341202289, 20.241468802479943 ], [ 85.80842341202289, 20.241199307894707 ], [ 85.808692906608115, 20.241199307894707 ], [ 85.808692906608115, 20.241738297065179 ] ] ] } },
{ "type": "Feature", "properties": { "zone_name": "Moderate Risk Zone 47", "risk_class": "Moderate Risk", "color": "#f59e0b", "area_m2": 3837.2559022530913, "centroid_lat": 20.242007792351572, "centroid_lon": 85.806267455224116 }, "geometry": { "type": "Polygon", "coordinates": [ [ [ 85.806267455341001, 20.241468802479943 ], [ 85.806267455341001, 20.241738297065179 ], [ 85.805997960755761, 20.241738297065179 ], [ 85.805997960755761, 20.242546780820888 ], [ 85.806267455341001, 20.242546780820888 ], [ 85.806267455341001, 20.242277286235652 ], [ 85.80653694992624, 20.242277286235652 ], [ 85.80653694992624, 20.241468802479943 ], [ 85.806267455341001, 20.241468802479943 ] ] ] } },
{ "type": "Feature", "properties": { "zone_name": "Moderate Risk Zone 48", "risk_class": "Moderate Risk", "color": "#f59e0b", "area_m2": 3837.2559022530913, "centroid_lat": 20.243046139973167, "centroid_lon": 85.798158838644454 }, "geometry": { "type": "Polygon", "coordinates": [ [ [ 85.797913123198683, 20.243085769991357 ], [ 85.797913123198683, 20.243624759161829 ], [ 85.797643628613457, 20.243624759161829 ], [ 85.797643628613457, 20.243894253747065 ], [ 85.798182617783922, 20.243894253747065 ], [ 85.798182617783922, 20.243624759161829 ], [ 85.798452112369162, 20.243624759161829 ], [ 85.798452112369162, 20.243355264576593 ], [ 85.798721606954388, 20.243355264576593 ], [ 85.798721606954388, 20.242816275406124 ], [ 85.798991101539627, 20.242816275406124 ], [ 85.798991101539627, 20.242546780820888 ], [ 85.798721606954388, 20.242546780820888 ], [ 85.798721606954388, 20.242277286235652 ], [ 85.798452112369162, 20.242277286235652 ], [ 85.798452112369162, 20.242546780820888 ], [ 85.798182617783922, 20.242546780820888 ], [ 85.798182617783922, 20.242816275406124 ], [ 85.797913123198683, 20.242816275406124 ], [ 85.797913123198683, 20.242546780820888 ], [ 85.797374134028217, 20.242546780820888 ], [ 85.797374134028217, 20.243085769991357 ], [ 85.797913123198683, 20.243085769991357 ] ], [ [ 85.798452112369162, 20.242816275406124 ], [ 85.798452112369162, 20.243085769991357 ], [ 85.798182617783922, 20.243085769991357 ], [ 85.798182617783922, 20.242816275406124 ], [ 85.798452112369162, 20.242816275406124 ] ] ] } },
{ "type": "Feature", "properties": { "zone_name": "Moderate Risk Zone 49", "risk_class": "Moderate Risk", "color": "#f59e0b", "area_m2": 3837.2559022530913, "centroid_lat": 20.243310349026647, "centroid_lon": 85.808917485377208 }, "geometry": { "type": "Polygon", "coordinates": [ [ [ 85.808692906608115, 20.243085769991357 ], [ 85.808692906608115, 20.243624759161829 ], [ 85.808962401193355, 20.243624759161829 ], [ 85.808962401193355, 20.243355264576593 ], [ 85.809231895778595, 20.243355264576593 ], [ 85.809231895778595, 20.243085769991357 ], [ 85.808692906608115, 20.243085769991357 ] ] ] } },
{ "type": "Feature", "properties": { "zone_name": "Moderate Risk Zone 50", "risk_class": "Moderate Risk", "color": "#f59e0b", "area_m2": 3837.2559022530913, "centroid_lat": 20.244837484853829, "centroid_lon": 85.799934332587966 }, "geometry": { "type": "Polygon", "coordinates": [ [ [ 85.800338574465812, 20.24497223208801 ], [ 85.800338574465812, 20.244702737502774 ], [ 85.799530090710107, 20.244702737502774 ], [ 85.799530090710107, 20.24497223208801 ], [ 85.800338574465812, 20.24497223208801 ] ] ] } },
{ "type": "Feature", "properties": { "zone_name": "Moderate Risk Zone 51", "risk_class": "Moderate Risk", "color": "#f59e0b", "area_m2": 3837.2559022530913, "centroid_lat": 20.245780716077483, "centroid_lon": 85.801820794684602 }, "geometry": { "type": "Polygon", "coordinates": [ [ [ 85.801955541977222, 20.246050210428955 ], [ 85.801955541977222, 20.245511221258482 ], [ 85.801686047391982, 20.245511221258482 ], [ 85.801686047391982, 20.246050210428955 ], [ 85.801955541977222, 20.246050210428955 ] ] ] } },
{ "type": "Feature", "properties": { "zone_name": "Moderate Risk Zone 52", "risk_class": "Moderate Risk", "color": "#f59e0b", "area_m2": 3837.2559022530913, "centroid_lat": 20.24681113555053, "centroid_lon": 85.804476605314647 }, "geometry": { "type": "Polygon", "coordinates": [ [ [ 85.800608069051052, 20.249014650866549 ], [ 85.801147058221517, 20.249014650866549 ], [ 85.801147058221517, 20.248745156281313 ], [ 85.801416552806756, 20.248745156281313 ], [ 85.801416552806756, 20.248475661696077 ], [ 85.801955541977222, 20.248475661696077 ], [ 85.801955541977222, 20.249014650866549 ], [ 85.802225036562461, 20.249014650866549 ], [ 85.802225036562461, 20.249553640037018 ], [ 85.802494531147701, 20.249553640037018 ], [ 85.802494531147701, 20.25009262920749 ], [ 85.802764025732927, 20.25009262920749 ], [ 85.802764025732927, 20.250631618377962 ], [ 85.802225036562461, 20.250631618377962 ], [ 85.802225036562461, 20.250901112963199 ], [ 85.803842004073871, 20.250901112963199 ], [ 85.803842004073871, 20.253057069645084 ], [ 85.803572509488646, 20.253057069645084 ], [ 85.803572509488646, 20.253326564230321 ], [ 85.803303014903406, 20.253326564230321 ], [ 85.803303014903406, 20.253596058815557 ], [ 85.803842004073871, 20.253596058815557 ], [ 85.803842004073871, 20.253326564230321 ], [ 85.804919982414816, 20.253326564230321 ], [ 85.804919982414816, 20.253057069645084 ], [ 85.805728466170521, 20.253057069645084 ], [ 85.805728466170521, 20.252787575059848 ], [ 85.805997960755761, 20.252787575059848 ], [ 85.805997960755761, 20.251709596718907 ], [ 85.805458971585296, 20.251709596718907 ], [ 85.805458971585296, 20.252248585889376 ], [ 85.804650487829576, 20.252248585889376 ], [ 85.804650487829576, 20.251979091304143 ], [ 85.804919982414816, 20.251979091304143 ], [ 85.804919982414816, 20.251709596718907 ], [ 85.804650487829576, 20.251709596718907 ], [ 85.804650487829576, 20.251170607548435 ], [ 85.805189477000056, 20.251170607548435 ], [ 85.805189477000056, 20.250901112963199 ], [ 85.804380993244351, 20.250901112963199 ], [ 85.804380993244351, 20.249553640037018 ], [ 85.804111498659111, 20.249553640037018 ], [ 85.804111498659111, 20.249014650866549 ], [ 85.803842004073871, 20.249014650866549 ], [ 85.803842004073871, 20.248745156281313 ], [ 85.804111498659111, 20.248745156281313 ], [ 85.804111498659111, 20.24820616711084 ], [ 85.803842004073871, 20.24820616711084 ], [ 85.803842004073871, 20.247936672525604 ], [ 85.805189477000056, 20.247936672525604 ], [ 85.805189477000056, 20.24820616711084 ], [ 85.805458971585296, 20.24820616711084 ], [ 85.805458971585296, 20.249014650866549 ], [ 85.806267455341001, 20.249014650866549 ], [ 85.806267455341001, 20.248475661696077 ], [ 85.807614928267171, 20.248475661696077 ], [ 85.807614928267171, 20.24820616711084 ], [ 85.80653694992624, 20.24820616711084 ], [ 85.80653694992624, 20.247936672525604 ], [ 85.805997960755761, 20.247936672525604 ], [ 85.805997960755761, 20.24820616711084 ], [ 85.805728466170521, 20.24820616711084 ], [ 85.805728466170521, 20.247397683355132 ], [ 85.805458971585296, 20.247397683355132 ], [ 85.805458971585296, 20.24685869418466 ], [ 85.805997960755761, 20.24685869418466 ], [ 85.805997960755761, 20.246589199599423 ], [ 85.807345433681945, 20.246589199599423 ], [ 85.807345433681945, 20.246319705014187 ], [ 85.806806444511466, 20.246319705014187 ], [ 85.806806444511466, 20.246050210428955 ], [ 85.805458971585296, 20.246050210428955 ], [ 85.805458971585296, 20.245780715843718 ], [ 85.805728466170521, 20.245780715843718 ], [ 85.805728466170521, 20.245511221258482 ], [ 85.80653694992624, 20.245511221258482 ], [ 85.80653694992624, 20.245241726673246 ], [ 85.80815391743765, 20.245241726673246 ], [ 85.80815391743765, 20.245780715843718 ], [ 85.80788442285241, 20.245780715843718 ], [ 85.80788442285241, 20.246319705014187 ], [ 85.80815391743765, 20.246319705014187 ], [ 85.80815391743765, 20.246050210428955 ], [ 85.80842341202289, 20.246050210428955 ], [ 85.80842341202289, 20.246319705014187 ], [ 85.809231895778595, 20.246319705014187 ], [ 85.809231895778595, 20.244433242917538 ], [ 85.807614928267171, 20.244433242917538 ], [ 85.807614928267171, 20.244702737502774 ], [ 85.807345433681945, 20.244702737502774 ], [ 85.807345433681945, 20.244433242917538 ], [ 85.807075939096705, 20.244433242917538 ], [ 85.807075939096705, 20.244702737502774 ], [ 85.80653694992624, 20.244702737502774 ], [ 85.80653694992624, 20.24497223208801 ], [ 85.805728466170521, 20.24497223208801 ], [ 85.805728466170521, 20.244163748332301 ], [ 85.805458971585296, 20.244163748332301 ], [ 85.805458971585296, 20.243624759161829 ], [ 85.804919982414816, 20.243624759161829 ], [ 85.804919982414816, 20.243355264576593 ], [ 85.805458971585296, 20.243355264576593 ], [ 85.805458971585296, 20.242816275406124 ], [ 85.805189477000056, 20.242816275406124 ], [ 85.805189477000056, 20.242546780820888 ], [ 85.804919982414816, 20.242546780820888 ], [ 85.804919982414816, 20.242277286235652 ], [ 85.805458971585296, 20.242277286235652 ], [ 85.805458971585296, 20.242007791650416 ], [ 85.805189477000056, 20.242007791650416 ], [ 85.805189477000056, 20.241468802479943 ], [ 85.804919982414816, 20.241468802479943 ], [ 85.804919982414816, 20.241738297065179 ], [ 85.804380993244351, 20.241738297065179 ], [ 85.804380993244351, 20.241199307894707 ], [ 85.804650487829576, 20.241199307894707 ], [ 85.804650487829576, 20.240929813309471 ], [ 85.803303014903406, 20.240929813309471 ], [ 85.803303014903406, 20.241199307894707 ], [ 85.803572509488646, 20.241199307894707 ], [ 85.803572509488646, 20.241468802479943 ], [ 85.803303014903406, 20.241468802479943 ], [ 85.803303014903406, 20.241738297065179 ], [ 85.803033520318166, 20.241738297065179 ], [ 85.803033520318166, 20.242277286235652 ], [ 85.802764025732927, 20.242277286235652 ], [ 85.802764025732927, 20.242546780820888 ], [ 85.802494531147701, 20.242546780820888 ], [ 85.802494531147701, 20.242816275406124 ], [ 85.802225036562461, 20.242816275406124 ], [ 85.802225036562461, 20.243894253747065 ], [ 85.801955541977222, 20.243894253747065 ], [ 85.801955541977222, 20.24497223208801 ], [ 85.802225036562461, 20.24497223208801 ], [ 85.802225036562461, 20.244702737502774 ], [ 85.802494531147701, 20.244702737502774 ], [ 85.802494531147701, 20.24497223208801 ], [ 85.803842004073871, 20.24497223208801 ], [ 85.803842004073871, 20.246050210428955 ], [ 85.803572509488646, 20.246050210428955 ], [ 85.803572509488646, 20.246319705014187 ], [ 85.803842004073871, 20.246319705014187 ], [ 85.803842004073871, 20.247128188769896 ], [ 85.803033520318166, 20.247128188769896 ], [ 85.803033520318166, 20.247397683355132 ], [ 85.802764025732927, 20.247397683355132 ], [ 85.802764025732927, 20.24685869418466 ], [ 85.802494531147701, 20.24685869418466 ], [ 85.802494531147701, 20.246589199599423 ], [ 85.802764025732927, 20.246589199599423 ], [ 85.802764025732927, 20.246319705014187 ], [ 85.802494531147701, 20.246319705014187 ], [ 85.802494531147701, 20.246050210428955 ], [ 85.802225036562461, 20.246050210428955 ], [ 85.802225036562461, 20.246589199599423 ], [ 85.801955541977222, 20.246589199599423 ], [ 85.801955541977222, 20.24685869418466 ], [ 85.802225036562461, 20.24685869418466 ], [ 85.802225036562461, 20.247128188769896 ], [ 85.802494531147701, 20.247128188769896 ], [ 85.802494531147701, 20.247667177940368 ], [ 85.802764025732927, 20.247667177940368 ], [ 85.802764025732927, 20.247936672525604 ], [ 85.803572509488646, 20.247936672525604 ], [ 85.803572509488646, 20.248475661696077 ], [ 85.803303014903406, 20.248475661696077 ], [ 85.803303014903406, 20.24820616711084 ], [ 85.801955541977222, 20.24820616711084 ], [ 85.801955541977222, 20.247936672525604 ], [ 85.800877563636277, 20.247936672525604 ], [ 85.800877563636277, 20.247667177940368 ], [ 85.800069079880572, 20.247667177940368 ], [ 85.800069079880572, 20.248475661696077 ], [ 85.800608069051052, 20.248475661696077 ], [ 85.800608069051052, 20.249014650866549 ] ], [ [ 85.804650487829576, 20.252518080474612 ], [ 85.804380993244351, 20.252518080474612 ], [ 85.804380993244351, 20.252248585889376 ], [ 85.804650487829576, 20.252248585889376 ], [ 85.804650487829576, 20.252518080474612 ] ], [ [ 85.805189477000056, 20.24685869418466 ], [ 85.805189477000056, 20.246589199599423 ], [ 85.804650487829576, 20.246589199599423 ], [ 85.804650487829576, 20.246050210428955 ], [ 85.805189477000056, 20.246050210428955 ], [ 85.805189477000056, 20.246319705014187 ], [ 85.805458971585296, 20.246319705014187 ], [ 85.805458971585296, 20.24685869418466 ], [ 85.805189477000056, 20.24685869418466 ] ], [ [ 85.804111498659111, 20.247128188769896 ], [ 85.804111498659111, 20.247667177940368 ], [ 85.803842004073871, 20.247667177940368 ], [ 85.803842004073871, 20.247128188769896 ], [ 85.804111498659111, 20.247128188769896 ] ], [ [ 85.800877563636277, 20.24820616711084 ], [ 85.800608069051052, 20.24820616711084 ], [ 85.800608069051052, 20.247936672525604 ], [ 85.800877563636277, 20.247936672525604 ], [ 85.800877563636277, 20.24820616711084 ] ], [ [ 85.804111498659111, 20.251709596718907 ], [ 85.804380993244351, 20.251709596718907 ], [ 85.804380993244351, 20.251979091304143 ], [ 85.804111498659111, 20.251979091304143 ], [ 85.804111498659111, 20.251709596718907 ] ], [ [ 85.803842004073871, 20.242816275406124 ], [ 85.804380993244351, 20.242816275406124 ], [ 85.804380993244351, 20.244163748332301 ], [ 85.802494531147701, 20.244163748332301 ], [ 85.802494531147701, 20.243355264576593 ], [ 85.802764025732927, 20.243355264576593 ], [ 85.802764025732927, 20.243085769991357 ], [ 85.803842004073871, 20.243085769991357 ], [ 85.803842004073871, 20.242816275406124 ] ] ] } },
{ "type": "Feature", "properties": { "zone_name": "Moderate Risk Zone 53", "risk_class": "Moderate Risk", "color": "#f59e0b", "area_m2": 3837.2559022530913, "centroid_lat": 20.247917429034164, "centroid_lon": 85.808588959301645 }, "geometry": { "type": "Polygon", "coordinates": [ [ [ 85.808962401193355, 20.248745156281313 ], [ 85.808962401193355, 20.24820616711084 ], [ 85.809231895778595, 20.24820616711084 ], [ 85.809231895778595, 20.24685869418466 ], [ 85.808692906608115, 20.24685869418466 ], [ 85.808692906608115, 20.247128188769896 ], [ 85.80842341202289, 20.247128188769896 ], [ 85.80842341202289, 20.24685869418466 ], [ 85.80815391743765, 20.24685869418466 ], [ 85.80815391743765, 20.246589199599423 ], [ 85.80788442285241, 20.246589199599423 ], [ 85.80788442285241, 20.246319705014187 ], [ 85.807614928267171, 20.246319705014187 ], [ 85.807614928267171, 20.24685869418466 ], [ 85.80788442285241, 20.24685869418466 ], [ 85.80788442285241, 20.247128188769896 ], [ 85.80815391743765, 20.247128188769896 ], [ 85.80815391743765, 20.247667177940368 ], [ 85.80842341202289, 20.247667177940368 ], [ 85.80842341202289, 20.24820616711084 ], [ 85.80788442285241, 20.24820616711084 ], [ 85.80788442285241, 20.248475661696077 ], [ 85.80815391743765, 20.248475661696077 ], [ 85.80815391743765, 20.249014650866549 ], [ 85.80842341202289, 20.249014650866549 ], [ 85.80842341202289, 20.249284145451782 ], [ 85.808692906608115, 20.249284145451782 ], [ 85.808692906608115, 20.249553640037018 ], [ 85.808962401193355, 20.249553640037018 ], [ 85.808962401193355, 20.249014650866549 ], [ 85.809231895778595, 20.249014650866549 ], [ 85.809231895778595, 20.248745156281313 ], [ 85.808962401193355, 20.248745156281313 ] ] ] } },
{ "type": "Feature", "properties": { "zone_name": "Moderate Risk Zone 54", "risk_class": "Moderate Risk", "color": "#f59e0b", "area_m2": 3837.2559022530913, "centroid_lat": 20.249553640972273, "centroid_lon": 85.801820794684602 }, "geometry": { "type": "Polygon", "coordinates": [ [ [ 85.801955541977222, 20.25009262920749 ], [ 85.801955541977222, 20.249014650866549 ], [ 85.801686047391982, 20.249014650866549 ], [ 85.801686047391982, 20.25009262920749 ], [ 85.801955541977222, 20.25009262920749 ] ] ] } },
{ "type": "Feature", "properties": { "zone_name": "Moderate Risk Zone 55", "risk_class": "Moderate Risk", "color": "#f59e0b", "area_m2": 3837.2559022530913, "centroid_lat": 20.250874163731488, "centroid_lon": 85.808773754927572 }, "geometry": { "type": "Polygon", "coordinates": [ [ [ 85.80842341202289, 20.250631618377962 ], [ 85.80842341202289, 20.251170607548435 ], [ 85.808962401193355, 20.251170607548435 ], [ 85.808962401193355, 20.250901112963199 ], [ 85.809231895778595, 20.250901112963199 ], [ 85.809231895778595, 20.250631618377962 ], [ 85.80842341202289, 20.250631618377962 ] ] ] } },
{ "type": "Feature", "properties": { "zone_name": "Moderate Risk Zone 56", "risk_class": "Moderate Risk", "color": "#f59e0b", "area_m2": 3837.2559022530913, "centroid_lat": 20.251574849952419, "centroid_lon": 85.808288664730256 }, "geometry": { "type": "Polygon", "coordinates": [ [ [ 85.80815391743765, 20.251170607548435 ], [ 85.80815391743765, 20.251979091304143 ], [ 85.80842341202289, 20.251979091304143 ], [ 85.80842341202289, 20.251170607548435 ], [ 85.80815391743765, 20.251170607548435 ] ] ] } },
{ "type": "Feature", "properties": { "zone_name": "Moderate Risk Zone 57", "risk_class": "Moderate Risk", "color": "#f59e0b", "area_m2": 3837.2559022530913, "centroid_lat": 20.25223484245377, "centroid_lon": 85.801001310652623 }, "geometry": { "type": "Polygon", "coordinates": [ [ [ 85.801955541977222, 20.252787575059848 ], [ 85.802225036562461, 20.252787575059848 ], [ 85.802225036562461, 20.252518080474612 ], [ 85.802494531147701, 20.252518080474612 ], [ 85.802494531147701, 20.252248585889376 ], [ 85.802225036562461, 20.252248585889376 ], [ 85.802225036562461, 20.251979091304143 ], [ 85.802494531147701, 20.251979091304143 ], [ 85.802494531147701, 20.251170607548435 ], [ 85.802225036562461, 20.251170607548435 ], [ 85.802225036562461, 20.250901112963199 ], [ 85.801686047391982, 20.250901112963199 ], [ 85.801686047391982, 20.25009262920749 ], [ 85.801416552806756, 20.25009262920749 ], [ 85.801416552806756, 20.250362123792726 ], [ 85.801147058221517, 20.250362123792726 ], [ 85.801147058221517, 20.251170607548435 ], [ 85.799530090710107, 20.251170607548435 ], [ 85.799530090710107, 20.252518080474612 ], [ 85.798991101539627, 20.252518080474612 ], [ 85.798991101539627, 20.253057069645084 ], [ 85.799799585295332, 20.253057069645084 ], [ 85.799799585295332, 20.253326564230321 ], [ 85.800069079880572, 20.253326564230321 ], [ 85.800069079880572, 20.253596058815557 ], [ 85.802494531147701, 20.253596058815557 ], [ 85.802494531147701, 20.253057069645084 ], [ 85.801955541977222, 20.253057069645084 ], [ 85.801955541977222, 20.252787575059848 ] ], [ [ 85.802225036562461, 20.251440102133671 ], [ 85.801955541977222, 20.251440102133671 ], [ 85.801955541977222, 20.251170607548435 ], [ 85.802225036562461, 20.251170607548435 ], [ 85.802225036562461, 20.251440102133671 ] ], [ [ 85.800069079880572, 20.253057069645084 ], [ 85.800338574465812, 20.253057069645084 ], [ 85.800338574465812, 20.253326564230321 ], [ 85.800069079880572, 20.253326564230321 ], [ 85.800069079880572, 20.253057069645084 ] ], [ [ 85.800338574465812, 20.252248585889376 ], [ 85.800608069051052, 20.252248585889376 ], [ 85.800608069051052, 20.252787575059848 ], [ 85.800338574465812, 20.252787575059848 ], [ 85.800338574465812, 20.252248585889376 ] ], [ [ 85.800069079880572, 20.251440102133671 ], [ 85.800877563636277, 20.251440102133671 ], [ 85.800877563636277, 20.251709596718907 ], [ 85.800069079880572, 20.251709596718907 ], [ 85.800069079880572, 20.251440102133671 ] ] ] } },
{ "type": "Feature", "properties": { "zone_name": "Moderate Risk Zone 58", "risk_class": "Moderate Risk", "color": "#f59e0b", "area_m2": 3837.2559022530913, "centroid_lat": 20.252780484142775, "centroid_lon": 85.807607836125641 }, "geometry": { "type": "Polygon", "coordinates": [ [ [ 85.808692906608115, 20.252787575059848 ], [ 85.80788442285241, 20.252787575059848 ], [ 85.80788442285241, 20.252518080474612 ], [ 85.80815391743765, 20.252518080474612 ], [ 85.80815391743765, 20.251979091304143 ], [ 85.80788442285241, 20.251979091304143 ], [ 85.80788442285241, 20.252248585889376 ], [ 85.807075939096705, 20.252248585889376 ], [ 85.807075939096705, 20.252787575059848 ], [ 85.806806444511466, 20.252787575059848 ], [ 85.806806444511466, 20.253057069645084 ], [ 85.80653694992624, 20.253057069645084 ], [ 85.80653694992624, 20.253326564230321 ], [ 85.807345433681945, 20.253326564230321 ], [ 85.807345433681945, 20.253057069645084 ], [ 85.80842341202289, 20.253057069645084 ], [ 85.80842341202289, 20.253326564230321 ], [ 85.808692906608115, 20.253326564230321 ], [ 85.808692906608115, 20.252787575059848 ] ] ] } },
{ "type": "Feature", "properties": { "zone_name": "Moderate Risk Zone 59", "risk_class": "Moderate Risk", "color": "#f59e0b", "area_m2": 3837.2559022530913, "centroid_lat": 20.253461311581408, "centroid_lon": 85.798452112369148 }, "geometry": { "type": "Polygon", "coordinates": [ [ [ 85.798991101539627, 20.253326564230321 ], [ 85.797913123198683, 20.253326564230321 ], [ 85.797913123198683, 20.253596058815557 ], [ 85.798991101539627, 20.253596058815557 ], [ 85.798991101539627, 20.253326564230321 ] ] ] } },
{ "type": "Feature", "properties": { "zone_name": "High Risk Zone 60", "risk_class": "High Risk", "color": "#b91c1c", "area_m2": 2877.9419267493804, "centroid_lat": 20.24214253900146, "centroid_lon": 85.791310505860395 }, "geometry": { "type": "Polygon", "coordinates": [ [ [ 85.791175758567789, 20.242277286235652 ], [ 85.791445253153029, 20.242277286235652 ], [ 85.791445253153029, 20.242007791650416 ], [ 85.791175758567789, 20.242007791650416 ], [ 85.791175758567789, 20.242277286235652 ] ] ] } },
{ "type": "Feature", "properties": { "zone_name": "High Risk Zone 61", "risk_class": "High Risk", "color": "#b91c1c", "area_m2": 2877.9419267493804, "centroid_lat": 20.245960379523925, "centroid_lon": 85.797823291462464 }, "geometry": { "type": "Polygon", "coordinates": [ [ [ 85.798182617783922, 20.246050210428955 ], [ 85.798452112369162, 20.246050210428955 ], [ 85.798452112369162, 20.245511221258482 ], [ 85.797643628613457, 20.245511221258482 ], [ 85.797643628613457, 20.245780715843718 ], [ 85.797104639442978, 20.245780715843718 ], [ 85.797104639442978, 20.246050210428955 ], [ 85.797374134028217, 20.246050210428955 ], [ 85.797374134028217, 20.246589199599423 ], [ 85.797643628613457, 20.246589199599423 ], [ 85.797643628613457, 20.246319705014187 ], [ 85.798182617783922, 20.246319705014187 ], [ 85.798182617783922, 20.246050210428955 ] ] ] } },
{ "type": "Feature", "properties": { "zone_name": "High Risk Zone 62", "risk_class": "High Risk", "color": "#b91c1c", "area_m2": 2877.9419267493804, "centroid_lat": 20.245984281899727, "centroid_lon": 85.792656946539097 }, "geometry": { "type": "Polygon", "coordinates": [ [ [ 85.789289296471139, 20.246319705014187 ], [ 85.790097780226844, 20.246319705014187 ], [ 85.790097780226844, 20.246050210428955 ], [ 85.790906263982549, 20.246050210428955 ], [ 85.790906263982549, 20.246319705014187 ], [ 85.791175758567789, 20.246319705014187 ], [ 85.791175758567789, 20.247397683355132 ], [ 85.790906263982549, 20.247397683355132 ], [ 85.790906263982549, 20.247667177940368 ], [ 85.790636769397324, 20.247667177940368 ], [ 85.790636769397324, 20.247128188769896 ], [ 85.790367274812084, 20.247128188769896 ], [ 85.790367274812084, 20.24685869418466 ], [ 85.790097780226844, 20.24685869418466 ], [ 85.790097780226844, 20.246589199599423 ], [ 85.789558791056379, 20.246589199599423 ], [ 85.789558791056379, 20.24685869418466 ], [ 85.789289296471139, 20.24685869418466 ], [ 85.789289296471139, 20.249823134622254 ], [ 85.789558791056379, 20.249823134622254 ], [ 85.789558791056379, 20.249553640037018 ], [ 85.790097780226844, 20.249553640037018 ], [ 85.790097780226844, 20.249823134622254 ], [ 85.789828285641605, 20.249823134622254 ], [ 85.789828285641605, 20.250362123792726 ], [ 85.789558791056379, 20.250362123792726 ], [ 85.789558791056379, 20.251170607548435 ], [ 85.789289296471139, 20.251170607548435 ], [ 85.789289296471139, 20.251440102133671 ], [ 85.789558791056379, 20.251440102133671 ], [ 85.789558791056379, 20.251709596718907 ], [ 85.789828285641605, 20.251709596718907 ], [ 85.789828285641605, 20.251979091304143 ], [ 85.790367274812084, 20.251979091304143 ], [ 85.790367274812084, 20.251709596718907 ], [ 85.791175758567789, 20.251709596718907 ], [ 85.791175758567789, 20.251440102133671 ], [ 85.791714747738268, 20.251440102133671 ], [ 85.791714747738268, 20.251170607548435 ], [ 85.792253736908734, 20.251170607548435 ], [ 85.792253736908734, 20.250631618377962 ], [ 85.792523231493973, 20.250631618377962 ], [ 85.792523231493973, 20.250362123792726 ], [ 85.792792726079199, 20.250362123792726 ], [ 85.792792726079199, 20.250901112963199 ], [ 85.793062220664439, 20.250901112963199 ], [ 85.793062220664439, 20.251170607548435 ], [ 85.793331715249678, 20.251170607548435 ], [ 85.793331715249678, 20.250631618377962 ], [ 85.793870704420144, 20.250631618377962 ], [ 85.793870704420144, 20.25009262920749 ], [ 85.795218177346328, 20.25009262920749 ], [ 85.795218177346328, 20.249823134622254 ], [ 85.795757166516793, 20.249823134622254 ], [ 85.795757166516793, 20.249014650866549 ], [ 85.794948682761088, 20.249014650866549 ], [ 85.794948682761088, 20.24820616711084 ], [ 85.795218177346328, 20.24820616711084 ], [ 85.795218177346328, 20.247667177940368 ], [ 85.795487671931568, 20.247667177940368 ], [ 85.795487671931568, 20.246589199599423 ], [ 85.795218177346328, 20.246589199599423 ], [ 85.795218177346328, 20.246050210428955 ], [ 85.795487671931568, 20.246050210428955 ], [ 85.795487671931568, 20.245241726673246 ], [ 85.794948682761088, 20.245241726673246 ], [ 85.794948682761088, 20.244702737502774 ], [ 85.795757166516793, 20.244702737502774 ], [ 85.795757166516793, 20.244433242917538 ], [ 85.795218177346328, 20.244433242917538 ], [ 85.795218177346328, 20.243624759161829 ], [ 85.795757166516793, 20.243624759161829 ], [ 85.795757166516793, 20.243355264576593 ], [ 85.797104639442978, 20.243355264576593 ], [ 85.797104639442978, 20.243894253747065 ], [ 85.797643628613457, 20.243894253747065 ], [ 85.797643628613457, 20.243624759161829 ], [ 85.797913123198683, 20.243624759161829 ], [ 85.797913123198683, 20.243085769991357 ], [ 85.797374134028217, 20.243085769991357 ], [ 85.797374134028217, 20.242546780820888 ], [ 85.796835144857738, 20.242546780820888 ], [ 85.796835144857738, 20.240929813309471 ], [ 85.791175758567789, 20.240929813309471 ], [ 85.791175758567789, 20.241468802479943 ], [ 85.791445253153029, 20.241468802479943 ], [ 85.791445253153029, 20.242007791650416 ], [ 85.791714747738268, 20.242007791650416 ], [ 85.791714747738268, 20.242277286235652 ], [ 85.791445253153029, 20.242277286235652 ], [ 85.791445253153029, 20.242546780820888 ], [ 85.791175758567789, 20.242546780820888 ], [ 85.791175758567789, 20.242816275406124 ], [ 85.789828285641605, 20.242816275406124 ], [ 85.789828285641605, 20.240929813309471 ], [ 85.789289296471139, 20.240929813309471 ], [ 85.789289296471139, 20.246319705014187 ] ], [ [ 85.794948682761088, 20.243355264576593 ], [ 85.794948682761088, 20.244163748332301 ], [ 85.794409693590623, 20.244163748332301 ], [ 85.794409693590623, 20.243624759161829 ], [ 85.794140199005383, 20.243624759161829 ], [ 85.794140199005383, 20.243085769991357 ], [ 85.794409693590623, 20.243085769991357 ], [ 85.794409693590623, 20.243355264576593 ], [ 85.794679188175863, 20.243355264576593 ], [ 85.794679188175863, 20.243085769991357 ], [ 85.795757166516793, 20.243085769991357 ], [ 85.795757166516793, 20.243355264576593 ], [ 85.794948682761088, 20.243355264576593 ] ], [ [ 85.791984242323494, 20.242816275406124 ], [ 85.791984242323494, 20.243894253747065 ], [ 85.790906263982549, 20.243894253747065 ], [ 85.790906263982549, 20.243624759161829 ], [ 85.791175758567789, 20.243624759161829 ], [ 85.791175758567789, 20.242816275406124 ], [ 85.791984242323494, 20.242816275406124 ] ], [ [ 85.793870704420144, 20.249284145451782 ], [ 85.793870704420144, 20.249014650866549 ], [ 85.794140199005383, 20.249014650866549 ], [ 85.794140199005383, 20.249284145451782 ], [ 85.793870704420144, 20.249284145451782 ] ], [ [ 85.792792726079199, 20.241738297065179 ], [ 85.792792726079199, 20.242007791650416 ], [ 85.793062220664439, 20.242007791650416 ], [ 85.793062220664439, 20.241738297065179 ], [ 85.793870704420144, 20.241738297065179 ], [ 85.793870704420144, 20.242277286235652 ], [ 85.792792726079199, 20.242277286235652 ], [ 85.792792726079199, 20.242546780820888 ], [ 85.792253736908734, 20.242546780820888 ], [ 85.792253736908734, 20.241468802479943 ], [ 85.792523231493973, 20.241468802479943 ], [ 85.792523231493973, 20.241738297065179 ], [ 85.792792726079199, 20.241738297065179 ] ] ] } },
{ "type": "Feature", "properties": { "zone_name": "High Risk Zone 63", "risk_class": "High Risk", "color": "#b91c1c", "area_m2": 2877.9419267493804, "centroid_lat": 20.24709610744053, "centroid_lon": 85.796636232230071 }, "geometry": { "type": "Polygon", "coordinates": [ [ [ 85.797104639442978, 20.247397683355132 ], [ 85.797374134028217, 20.247397683355132 ], [ 85.797374134028217, 20.24685869418466 ], [ 85.797104639442978, 20.24685869418466 ], [ 85.797104639442978, 20.246589199599423 ], [ 85.796835144857738, 20.246589199599423 ], [ 85.796835144857738, 20.246319705014187 ], [ 85.796296155687273, 20.246319705014187 ], [ 85.796296155687273, 20.246589199599423 ], [ 85.796026661102033, 20.246589199599423 ], [ 85.796026661102033, 20.247667177940368 ], [ 85.796565650272512, 20.247667177940368 ], [ 85.796565650272512, 20.247936672525604 ], [ 85.796835144857738, 20.247936672525604 ], [ 85.796835144857738, 20.247667177940368 ], [ 85.797104639442978, 20.247667177940368 ], [ 85.797104639442978, 20.247397683355132 ] ] ] } },
{ "type": "Feature", "properties": { "zone_name": "High Risk Zone 64", "risk_class": "High Risk", "color": "#b91c1c", "area_m2": 2877.9419267493804, "centroid_lat": 20.248340914461902, "centroid_lon": 85.797374134028203 }, "geometry": { "type": "Polygon", "coordinates": [ [ [ 85.797104639442978, 20.248475661696077 ], [ 85.797643628613457, 20.248475661696077 ], [ 85.797643628613457, 20.24820616711084 ], [ 85.797104639442978, 20.24820616711084 ], [ 85.797104639442978, 20.248475661696077 ] ] ] } },
{ "type": "Feature", "properties": { "zone_name": "High Risk Zone 65", "risk_class": "High Risk", "color": "#b91c1c", "area_m2": 2877.9419267493804, "centroid_lat": 20.248340914461902, "centroid_lon": 85.799125848832247 }, "geometry": { "type": "Polygon", "coordinates": [ [ [ 85.798991101539627, 20.248475661696077 ], [ 85.799260596124867, 20.248475661696077 ], [ 85.799260596124867, 20.24820616711084 ], [ 85.798991101539627, 20.24820616711084 ], [ 85.798991101539627, 20.248475661696077 ] ] ] } },
{ "type": "Feature", "properties": { "zone_name": "High Risk Zone 66", "risk_class": "High Risk", "color": "#b91c1c", "area_m2": 2877.9419267493804, "centroid_lat": 20.248879903632378, "centroid_lon": 85.797374134028203 }, "geometry": { "type": "Polygon", "coordinates": [ [ [ 85.797104639442978, 20.249014650866549 ], [ 85.797643628613457, 20.249014650866549 ], [ 85.797643628613457, 20.248745156281313 ], [ 85.797104639442978, 20.248745156281313 ], [ 85.797104639442978, 20.249014650866549 ] ] ] } },
{ "type": "Feature", "properties": { "zone_name": "High Risk Zone 67", "risk_class": "High Risk", "color": "#b91c1c", "area_m2": 2877.9419267493804, "centroid_lat": 20.251574849484744, "centroid_lon": 85.800473321758403 }, "geometry": { "type": "Polygon", "coordinates": [ [ [ 85.800877563636277, 20.251709596718907 ], [ 85.800877563636277, 20.251440102133671 ], [ 85.800069079880572, 20.251440102133671 ], [ 85.800069079880572, 20.251709596718907 ], [ 85.800877563636277, 20.251709596718907 ] ] ] } },
{ "type": "Feature", "properties": { "zone_name": "High Risk Zone 68", "risk_class": "High Risk", "color": "#b91c1c", "area_m2": 2877.9419267493804, "centroid_lat": 20.2534613115814, "centroid_lon": 85.79050202210469 }, "geometry": { "type": "Polygon", "coordinates": [ [ [ 85.790906263982549, 20.253596058815557 ], [ 85.790906263982549, 20.253326564230321 ], [ 85.790097780226844, 20.253326564230321 ], [ 85.790097780226844, 20.253596058815557 ], [ 85.790906263982549, 20.253596058815557 ] ] ] } },
{ "type": "Feature", "properties": { "zone_name": "High Risk Zone 69", "risk_class": "High Risk", "color": "#b91c1c", "area_m2": 2877.9419267493804, "centroid_lat": 20.242978497661664, "centroid_lon": 85.806860517980468 }, "geometry": { "type": "Polygon", "coordinates": [ [ [ 85.808692906608115, 20.242816275406124 ], [ 85.80788442285241, 20.242816275406124 ], [ 85.80788442285241, 20.242546780820888 ], [ 85.807614928267171, 20.242546780820888 ], [ 85.807614928267171, 20.242277286235652 ], [ 85.80788442285241, 20.242277286235652 ], [ 85.80788442285241, 20.242007791650416 ], [ 85.807614928267171, 20.242007791650416 ], [ 85.807614928267171, 20.241468802479943 ], [ 85.806806444511466, 20.241468802479943 ], [ 85.806806444511466, 20.241199307894707 ], [ 85.807075939096705, 20.241199307894707 ], [ 85.807075939096705, 20.240929813309471 ], [ 85.804650487829576, 20.240929813309471 ], [ 85.804650487829576, 20.241199307894707 ], [ 85.804380993244351, 20.241199307894707 ], [ 85.804380993244351, 20.241738297065179 ], [ 85.804919982414816, 20.241738297065179 ], [ 85.804919982414816, 20.241468802479943 ], [ 85.805189477000056, 20.241468802479943 ], [ 85.805189477000056, 20.242007791650416 ], [ 85.805458971585296, 20.242007791650416 ], [ 85.805458971585296, 20.242277286235652 ], [ 85.804919982414816, 20.242277286235652 ], [ 85.804919982414816, 20.242546780820888 ], [ 85.805189477000056, 20.242546780820888 ], [ 85.805189477000056, 20.242816275406124 ], [ 85.805458971585296, 20.242816275406124 ], [ 85.805458971585296, 20.243355264576593 ], [ 85.804919982414816, 20.243355264576593 ], [ 85.804919982414816, 20.243624759161829 ], [ 85.805458971585296, 20.243624759161829 ], [ 85.805458971585296, 20.244163748332301 ], [ 85.805728466170521, 20.244163748332301 ], [ 85.805728466170521, 20.24497223208801 ], [ 85.80653694992624, 20.24497223208801 ], [ 85.80653694992624, 20.244702737502774 ], [ 85.807075939096705, 20.244702737502774 ], [ 85.807075939096705, 20.244433242917538 ], [ 85.807345433681945, 20.244433242917538 ], [ 85.807345433681945, 20.244702737502774 ], [ 85.807614928267171, 20.244702737502774 ], [ 85.807614928267171, 20.244433242917538 ], [ 85.809231895778595, 20.244433242917538 ], [ 85.809231895778595, 20.243355264576593 ], [ 85.809501390363835, 20.243355264576593 ], [ 85.809501390363835, 20.242546780820888 ], [ 85.808692906608115, 20.242546780820888 ], [ 85.808692906608115, 20.242816275406124 ] ], [ [ 85.808962401193355, 20.243355264576593 ], [ 85.808962401193355, 20.243624759161829 ], [ 85.808692906608115, 20.243624759161829 ], [ 85.808692906608115, 20.243085769991357 ], [ 85.809231895778595, 20.243085769991357 ], [ 85.809231895778595, 20.243355264576593 ], [ 85.808962401193355, 20.243355264576593 ] ], [ [ 85.80653694992624, 20.241468802479943 ], [ 85.80653694992624, 20.242277286235652 ], [ 85.806267455341001, 20.242277286235652 ], [ 85.806267455341001, 20.242546780820888 ], [ 85.805997960755761, 20.242546780820888 ], [ 85.805997960755761, 20.241738297065179 ], [ 85.806267455341001, 20.241738297065179 ], [ 85.806267455341001, 20.241468802479943 ], [ 85.80653694992624, 20.241468802479943 ] ] ] } },
{ "type": "Feature", "properties": { "zone_name": "High Risk Zone 70", "risk_class": "High Risk", "color": "#b91c1c", "area_m2": 2877.9419267493804, "centroid_lat": 20.243592235095626, "centroid_lon": 85.803512105271409 }, "geometry": { "type": "Polygon", "coordinates": [ [ [ 85.803842004073871, 20.243085769991357 ], [ 85.802764025732927, 20.243085769991357 ], [ 85.802764025732927, 20.243355264576593 ], [ 85.802494531147701, 20.243355264576593 ], [ 85.802494531147701, 20.244163748332301 ], [ 85.804380993244351, 20.244163748332301 ], [ 85.804380993244351, 20.242816275406124 ], [ 85.803842004073871, 20.242816275406124 ], [ 85.803842004073871, 20.243085769991357 ] ] ] } },
{ "type": "Feature", "properties": { "zone_name": "High Risk Zone 71", "risk_class": "High Risk", "color": "#b91c1c", "area_m2": 2877.9419267493804, "centroid_lat": 20.246409536932227, "centroid_lon": 85.805054729863301 }, "geometry": { "type": "Polygon", "coordinates": [ [ [ 85.805189477000056, 20.246050210428955 ], [ 85.804650487829576, 20.246050210428955 ], [ 85.804650487829576, 20.246589199599423 ], [ 85.805189477000056, 20.246589199599423 ], [ 85.805189477000056, 20.24685869418466 ], [ 85.805458971585296, 20.24685869418466 ], [ 85.805458971585296, 20.246319705014187 ], [ 85.805189477000056, 20.246319705014187 ], [ 85.805189477000056, 20.246050210428955 ] ] ] } },
{ "type": "Feature", "properties": { "zone_name": "High Risk Zone 72", "risk_class": "High Risk", "color": "#b91c1c", "area_m2": 2877.9419267493804, "centroid_lat": 20.247397683588915, "centroid_lon": 85.803976751366491 }, "geometry": { "type": "Polygon", "coordinates": [ [ [ 85.803842004073871, 20.247667177940368 ], [ 85.804111498659111, 20.247667177940368 ], [ 85.804111498659111, 20.247128188769896 ], [ 85.803842004073871, 20.247128188769896 ], [ 85.803842004073871, 20.247667177940368 ] ] ] } },
{ "type": "Feature", "properties": { "zone_name": "High Risk Zone 73", "risk_class": "High Risk", "color": "#b91c1c", "area_m2": 2877.9419267493804, "centroid_lat": 20.247445990972828, "centroid_lon": 85.806946277192665 }, "geometry": { "type": "Polygon", "coordinates": [ [ [ 85.80842341202289, 20.247667177940368 ], [ 85.80815391743765, 20.247667177940368 ], [ 85.80815391743765, 20.247128188769896 ], [ 85.80788442285241, 20.247128188769896 ], [ 85.80788442285241, 20.24685869418466 ], [ 85.807614928267171, 20.24685869418466 ], [ 85.807614928267171, 20.246589199599423 ], [ 85.805997960755761, 20.246589199599423 ], [ 85.805997960755761, 20.24685869418466 ], [ 85.805458971585296, 20.24685869418466 ], [ 85.805458971585296, 20.247397683355132 ], [ 85.805728466170521, 20.247397683355132 ], [ 85.805728466170521, 20.24820616711084 ], [ 85.805997960755761, 20.24820616711084 ], [ 85.805997960755761, 20.247936672525604 ], [ 85.80653694992624, 20.247936672525604 ], [ 85.80653694992624, 20.24820616711084 ], [ 85.807614928267171, 20.24820616711084 ], [ 85.807614928267171, 20.248475661696077 ], [ 85.80788442285241, 20.248475661696077 ], [ 85.80788442285241, 20.24820616711084 ], [ 85.80842341202289, 20.24820616711084 ], [ 85.80842341202289, 20.247667177940368 ] ] ] } },
{ "type": "Feature", "properties": { "zone_name": "High Risk Zone 74", "risk_class": "High Risk", "color": "#b91c1c", "area_m2": 2877.9419267493804, "centroid_lat": 20.24996387555818, "centroid_lon": 85.800862590161856 }, "geometry": { "type": "Polygon", "coordinates": [ [ [ 85.801416552806756, 20.25009262920749 ], [ 85.801686047391982, 20.25009262920749 ], [ 85.801686047391982, 20.249014650866549 ], [ 85.801955541977222, 20.249014650866549 ], [ 85.801955541977222, 20.248475661696077 ], [ 85.801416552806756, 20.248475661696077 ], [ 85.801416552806756, 20.248745156281313 ], [ 85.801147058221517, 20.248745156281313 ], [ 85.801147058221517, 20.249014650866549 ], [ 85.800608069051052, 20.249014650866549 ], [ 85.800608069051052, 20.249284145451782 ], [ 85.800338574465812, 20.249284145451782 ], [ 85.800338574465812, 20.249823134622254 ], [ 85.800069079880572, 20.249823134622254 ], [ 85.800069079880572, 20.250362123792726 ], [ 85.799799585295332, 20.250362123792726 ], [ 85.799799585295332, 20.251170607548435 ], [ 85.801147058221517, 20.251170607548435 ], [ 85.801147058221517, 20.250362123792726 ], [ 85.801416552806756, 20.250362123792726 ], [ 85.801416552806756, 20.25009262920749 ] ] ] } },
{ "type": "Feature", "properties": { "zone_name": "High Risk Zone 75", "risk_class": "High Risk", "color": "#b91c1c", "area_m2": 2877.9419267493804, "centroid_lat": 20.252173729735915, "centroid_lon": 85.80876776608234 }, "geometry": { "type": "Polygon", "coordinates": [ [ [ 85.808962401193355, 20.251170607548435 ], [ 85.80842341202289, 20.251170607548435 ], [ 85.80842341202289, 20.251979091304143 ], [ 85.80815391743765, 20.251979091304143 ], [ 85.80815391743765, 20.252518080474612 ], [ 85.80788442285241, 20.252518080474612 ], [ 85.80788442285241, 20.252787575059848 ], [ 85.808692906608115, 20.252787575059848 ], [ 85.808692906608115, 20.253326564230321 ], [ 85.809231895778595, 20.253326564230321 ], [ 85.809231895778595, 20.250901112963199 ], [ 85.808962401193355, 20.250901112963199 ], [ 85.808962401193355, 20.251170607548435 ] ] ] } },
{ "type": "Feature", "properties": { "zone_name": "High Risk Zone 76", "risk_class": "High Risk", "color": "#b91c1c", "area_m2": 2877.9419267493804, "centroid_lat": 20.252922322410928, "centroid_lon": 85.805863213463155 }, "geometry": { "type": "Polygon", "coordinates": [ [ [ 85.805997960755761, 20.253057069645084 ], [ 85.805997960755761, 20.252787575059848 ], [ 85.805728466170521, 20.252787575059848 ], [ 85.805728466170521, 20.253057069645084 ], [ 85.805997960755761, 20.253057069645084 ] ] ] } },
{ "type": "Feature", "properties": { "zone_name": "High Risk Zone 77", "risk_class": "High Risk", "color": "#b91c1c", "area_m2": 2877.9419267493804, "centroid_lat": 20.253461311581408, "centroid_lon": 85.804380993244365 }, "geometry": { "type": "Polygon", "coordinates": [ [ [ 85.804919982414816, 20.253596058815557 ], [ 85.804919982414816, 20.253326564230321 ], [ 85.803842004073871, 20.253326564230321 ], [ 85.803842004073871, 20.253596058815557 ], [ 85.804919982414816, 20.253596058815557 ] ] ] } }
]
}
