{
  "type": "FeatureCollection",
  "name": "Study_Area_Hospitals_and_Clinics",
  "crs": {
    "type": "name",
    "properties": {
      "name": "urn:ogc:def:crs:OGC:1.3:CRS84"
    }
  },
  "features": [
    {
      "type": "Feature",
      "properties": {
        "id": "soa_student_health_centre",
        "name": "SOA ITER Student Health Centre",
        "tier": "Level 1: University Student Health Service",
        "category": "On-Campus Student Health Centre (SOA ITER)",
        "capacity_beds": 8,
        "baseline_opd": 80,
        "baseline_emergency": 8,
        "baseline_heat_illness": 1,
        "dist_from_iter_km": 0.0,
        "drive_time_min": 0,
        "plus_code": "7Q2X+6X Bhubaneswar, Odisha",
        "coordinates": [
          85.799937,
          20.250562
        ],
        "address": "SOA ITER Campus 1, Jagamara, Bhubaneswar",
        "role": "On-campus primary dispensary exclusive to ITER students (free of cost); handles primary heat exhaustion, vitals, ORT, and coordinates 24/7 ambulance transfers for serious cases."
      },
      "geometry": {
        "type": "MultiPolygon",
        "coordinates": [
          [
            [
              [
                85.80027212,
                20.250562
              ],
              [
                85.8002607,
                20.25064338
              ],
              [
                85.80022723,
                20.2507192
              ],
              [
                85.80017397,
                20.25078432
              ],
              [
                85.80010456,
                20.25083429
              ],
              [
                85.80002374,
                20.2508657
              ],
              [
                85.799937,
                20.25087641
              ],
              [
                85.79985026,
                20.2508657
              ],
              [
                85.79976944,
                20.25083429
              ],
              [
                85.79970003,
                20.25078432
              ],
              [
                85.79964677,
                20.2507192
              ],
              [
                85.7996133,
                20.25064338
              ],
              [
                85.79960188,
                20.250562
              ],
              [
                85.7996133,
                20.25048062
              ],
              [
                85.79964677,
                20.2504048
              ],
              [
                85.79970003,
                20.25033968
              ],
              [
                85.79976944,
                20.25028971
              ],
              [
                85.79985026,
                20.2502583
              ],
              [
                85.799937,
                20.25024759
              ],
              [
                85.80002374,
                20.2502583
              ],
              [
                85.80010456,
                20.25028971
              ],
              [
                85.80017397,
                20.25033968
              ],
              [
                85.80022723,
                20.2504048
              ],
              [
                85.8002607,
                20.25048062
              ],
              [
                85.80027212,
                20.250562
              ]
            ]
          ]
        ]
      }
    },
    {
      "type": "Feature",
      "properties": {
        "id": "jagamara_uphc",
        "name": "Jagamara UPHC (Urban Primary Health Centre)",
        "tier": "Level 1: Govt. Urban Primary Health Centre",
        "category": "Neighborhood Public Primary Health Centre",
        "capacity_beds": 15,
        "baseline_opd": 160,
        "baseline_emergency": 18,
        "baseline_heat_illness": 2,
        "dist_from_iter_km": 0.5,
        "drive_time_min": 2,
        "plus_code": "6RX2+99 Bhubaneswar, Odisha",
        "coordinates": [
          85.80802,
          20.2462
        ],
        "address": "Jagamara Main Road, Khandagiri, Bhubaneswar 751030",
        "role": "Primary public health dispensary for 3km\u00b2 neighborhood residents & pedestrians; free ORS distribution, worker triage, and initial stabilization."
      },
      "geometry": {
        "type": "MultiPolygon",
        "coordinates": [
          [
            [
              [
                85.80845086,
                20.2462
              ],
              [
                85.80843618,
                20.24630463
              ],
              [
                85.80839314,
                20.24640212
              ],
              [
                85.80832466,
                20.24648584
              ],
              [
                85.80823543,
                20.24655008
              ],
              [
                85.80813152,
                20.24659047
              ],
              [
                85.80802,
                20.24660424
              ],
              [
                85.80790848,
                20.24659047
              ],
              [
                85.80780457,
                20.24655008
              ],
              [
                85.80771534,
                20.24648584
              ],
              [
                85.80764686,
                20.24640212
              ],
              [
                85.80760382,
                20.24630463
              ],
              [
                85.80758914,
                20.2462
              ],
              [
                85.80760382,
                20.24609537
              ],
              [
                85.80764686,
                20.24599788
              ],
              [
                85.80771534,
                20.24591416
              ],
              [
                85.80780457,
                20.24584992
              ],
              [
                85.80790848,
                20.24580953
              ],
              [
                85.80802,
                20.24579576
              ],
              [
                85.80813152,
                20.24580953
              ],
              [
                85.80823543,
                20.24584992
              ],
              [
                85.80832466,
                20.24591416
              ],
              [
                85.80839314,
                20.24599788
              ],
              [
                85.80843618,
                20.24609537
              ],
              [
                85.80845086,
                20.2462
              ]
            ]
          ]
        ]
      }
    },
    {
      "type": "Feature",
      "properties": {
        "id": "astang_ayurveda",
        "name": "Astang Ayurveda Hospital & Centre",
        "tier": "Level 1-2: State Ayurvedic Hospital & Centre",
        "category": "Ayurvedic Medical College & Health Centre",
        "capacity_beds": 30,
        "baseline_opd": 180,
        "baseline_emergency": 14,
        "baseline_heat_illness": 3,
        "dist_from_iter_km": 0.8,
        "drive_time_min": 3,
        "plus_code": "6RV2+RM Bhubaneswar, Odisha",
        "coordinates": [
          85.80613,
          20.24158
        ],
        "address": "Gandamunda, Jagamara-Sundarpada Road, Bhubaneswar 751030",
        "role": "Traditional heat illness & dehydration care centre; cooling herbal therapy, outpatient sunstroke triage, and community health post."
      },
      "geometry": {
        "type": "MultiPolygon",
        "coordinates": [
          [
            [
              [
                85.80660872,
                20.24158
              ],
              [
                85.80659241,
                20.24169625
              ],
              [
                85.80654458,
                20.24180458
              ],
              [
                85.80646851,
                20.2418976
              ],
              [
                85.80636936,
                20.24196898
              ],
              [
                85.8062539,
                20.24201385
              ],
              [
                85.80613,
                20.24202916
              ],
              [
                85.8060061,
                20.24201385
              ],
              [
                85.80589064,
                20.24196898
              ],
              [
                85.80579149,
                20.2418976
              ],
              [
                85.80571542,
                20.24180458
              ],
              [
                85.80566759,
                20.24169625
              ],
              [
                85.80565128,
                20.24158
              ],
              [
                85.80566759,
                20.24146375
              ],
              [
                85.80571542,
                20.24135542
              ],
              [
                85.80579149,
                20.2412624
              ],
              [
                85.80589064,
                20.24119102
              ],
              [
                85.8060061,
                20.24114615
              ],
              [
                85.80613,
                20.24113084
              ],
              [
                85.8062539,
                20.24114615
              ],
              [
                85.80636936,
                20.24119102
              ],
              [
                85.80646851,
                20.2412624
              ],
              [
                85.80654458,
                20.24135542
              ],
              [
                85.80659241,
                20.24146375
              ],
              [
                85.80660872,
                20.24158
              ]
            ]
          ]
        ]
      }
    },
    {
      "type": "Feature",
      "properties": {
        "id": "sum_hospital",
        "name": "IMS & SUM Hospital",
        "tier": "Level 3: Quaternary Medical College Hospital",
        "category": "Quaternary Referral Hospital (SOA Health Sciences)",
        "capacity_beds": 1750,
        "baseline_opd": 3200,
        "baseline_emergency": 210,
        "baseline_heat_illness": 6,
        "dist_from_iter_km": 4.8,
        "drive_time_min": 11,
        "plus_code": "7QM9+7W Bhubaneswar, Odisha",
        "coordinates": [
          85.769813,
          20.283187
        ],
        "address": "Kalinga Nagar, Ghatikia, Bhubaneswar, Odisha 751003",
        "role": "Primary quaternary referral centre receiving serious/acute cases transferred from ITER Campus via ambulance; dedicated Heat Stroke Unit (HSU), ICU, and hemodialysis (predicted with wider catchment variance)."
      },
      "geometry": {
        "type": "MultiPolygon",
        "coordinates": [
          [
            [
              [
                85.77096224,
                20.283187
              ],
              [
                85.77092308,
                20.283466
              ],
              [
                85.77080827,
                20.28372599
              ],
              [
                85.77062563,
                20.28394924
              ],
              [
                85.77038762,
                20.28412055
              ],
              [
                85.77011044,
                20.28422824
              ],
              [
                85.769813,
                20.28426497
              ],
              [
                85.76951556,
                20.28422824
              ],
              [
                85.76923838,
                20.28412055
              ],
              [
                85.76900037,
                20.28394924
              ],
              [
                85.76881773,
                20.28372599
              ],
              [
                85.76870292,
                20.283466
              ],
              [
                85.76866376,
                20.283187
              ],
              [
                85.76870292,
                20.282908
              ],
              [
                85.76881773,
                20.28264801
              ],
              [
                85.76900037,
                20.28242476
              ],
              [
                85.76923838,
                20.28225345
              ],
              [
                85.76951556,
                20.28214576
              ],
              [
                85.769813,
                20.28210903
              ],
              [
                85.77011044,
                20.28214576
              ],
              [
                85.77038762,
                20.28225345
              ],
              [
                85.77062563,
                20.28242476
              ],
              [
                85.77080827,
                20.28264801
              ],
              [
                85.77092308,
                20.282908
              ],
              [
                85.77096224,
                20.283187
              ]
            ]
          ]
        ]
      }
    }
  ]
}