{
  "type": "FeatureCollection",
  "features": [
    {
      "type": "Feature",
      "geometry": {
        "type": "Polygon",
        "coordinates": [
          [
            [
              85.8010001958501,
              20.24818186134086,
              0
            ],
            [
              85.80084912795121,
              20.24782579398439,
              0
            ],
            [
              85.8009602601622,
              20.24778340442098,
              0
            ],
            [
              85.80095161976332,
              20.24776383350038,
              0
            ],
            [
              85.8010914888608,
              20.24770749543102,
              0
            ],
            [
              85.80109530294261,
              20.247732723413097,
              0
            ],
            [
              85.80122054945366,
              20.24769119116746,
              0
            ],
            [
              85.80127046258475,
              20.24767313944144,
              0
            ],
            [
              85.80122990847123,
              20.24757977536006,
              0
            ],
            [
              85.8013597231431,
              20.24753143786091,
              0
            ],
            [
              85.80140741712596,
              20.24764396490644,
              0
            ],
            [
              85.80170575270951,
              20.24752666555382,
              0
            ],
            [
              85.80168631654456,
              20.24748849258081,
              0
            ],
            [
              85.80183829230155,
              20.24742662240413,
              0
            ],
            [
              85.80199866935412,
              20.24777957032547,
              0
            ],
            [
              85.80192901175351,
              20.24780338495521,
              0
            ],
            [
              85.80197116887037,
              20.24793037139978,
              0
            ],
            [
              85.8016056660006,
              20.24807624824399,
              0
            ],
            [
              85.80150897834629,
              20.247853417504608,
              0
            ],
            [
              85.80145379676135,
              20.24788046917966,
              0
            ],
            [
              85.80150121909571,
              20.24798741924542,
              0
            ],
            [
              85.8010001958501,
              20.24818186134086,
              0
            ]
          ]
        ]
      },
      "properties": {
        "name": "E block",
        "styleUrl": "#__managed_style_08B2D1B9FE413B51AEF4",
        "fill-opacity": 0,
        "fill": "#ffffff",
        "stroke-opacity": 1,
        "stroke": "#fbc02d",
        "stroke-width": 3.2,
        "icon-offset": [
          64,
          128
        ],
        "icon-offset-units": [
          "pixels",
          "insetPixels"
        ],
        "icon": "https://earth.google.com/earth/document/icon?color=1976d2&id=2000&scale=4"
      },
      "id": "09E21F5C9D413A89F09B"
    },
    {
      "type": "Feature",
      "geometry": {
        "type": "Polygon",
        "coordinates": [
          [
            [
              85.80180428975375,
              20.24894412575697,
              0
            ],
            [
              85.80176587149455,
              20.24865494179728,
              0
            ],
            [
              85.80235649401214,
              20.2485550890691,
              0
            ],
            [
              85.80237720904991,
              20.248747562780018,
              0
            ],
            [
              85.80194085354259,
              20.24880589458444,
              0
            ],
            [
              85.80195294114638,
              20.24892793423571,
              0
            ],
            [
              85.80180428975375,
              20.24894412575697,
              0
            ]
          ]
        ]
      },
      "properties": {
        "name": "L shape building",
        "styleUrl": "#__managed_style_08B2D1B9FE413B51AEF4",
        "fill-opacity": 0,
        "fill": "#ffffff",
        "stroke-opacity": 1,
        "stroke": "#fbc02d",
        "stroke-width": 3.2,
        "icon-offset": [
          64,
          128
        ],
        "icon-offset-units": [
          "pixels",
          "insetPixels"
        ],
        "icon": "https://earth.google.com/earth/document/icon?color=1976d2&id=2000&scale=4"
      },
      "id": "0CC9B4811A413B5E3ACF"
    },
    {
      "type": "Feature",
      "geometry": {
        "type": "Polygon",
        "coordinates": [
          [
            [
              85.80053779012906,
              20.24727580377547,
              0
            ],
            [
              85.80057876474753,
              20.24728701625384,
              0
            ],
            [
              85.80061780168923,
              20.24722468432145,
              0
            ],
            [
              85.80057494585353,
              20.24720072496012,
              0
            ],
            [
              85.80063999705962,
              20.247106102819508,
              0
            ],
            [
              85.80066912995642,
              20.247130097379998,
              0
            ],
            [
              85.80072720868654,
              20.247053186748428,
              0
            ],
            [
              85.80068092529588,
              20.24703079963981,
              0
            ],
            [
              85.80073904155749,
              20.24693783761886,
              0
            ],
            [
              85.80078393510435,
              20.24695225260203,
              0
            ],
            [
              85.80082466238767,
              20.24690898817543,
              0
            ],
            [
              85.80078364275153,
              20.24688334313444,
              0
            ],
            [
              85.8008401586767,
              20.246779188571498,
              0
            ],
            [
              85.8010347697077,
              20.24678397194413,
              0
            ],
            [
              85.80104111252257,
              20.24665071128554,
              0
            ],
            [
              85.80100014018777,
              20.24664592626199,
              0
            ],
            [
              85.8009970153732,
              20.246383255670988,
              0
            ],
            [
              85.80121353253546,
              20.2463898652975,
              0
            ],
            [
              85.80146591026639,
              20.24640377334844,
              0
            ],
            [
              85.80173745644457,
              20.2464096211052,
              0
            ],
            [
              85.80171480238484,
              20.24666825359164,
              0
            ],
            [
              85.80160530657727,
              20.24666948175756,
              0
            ],
            [
              85.80159843298641,
              20.24662582106977,
              0
            ],
            [
              85.8015229595313,
              20.24661445750052,
              0
            ],
            [
              85.80151960675528,
              20.24666292867993,
              0
            ],
            [
              85.80141163664229,
              20.24666132215769,
              0
            ],
            [
              85.80140979766355,
              20.24662094604105,
              0
            ],
            [
              85.80131375007187,
              20.24661288429702,
              0
            ],
            [
              85.80130882196187,
              20.24665490283966,
              0
            ],
            [
              85.80119780124349,
              20.24665353156006,
              0
            ],
            [
              85.80119407923321,
              20.24660994001568,
              0
            ],
            [
              85.80111750222905,
              20.24661026669675,
              0
            ],
            [
              85.80111766692173,
              20.24665210823187,
              0
            ],
            [
              85.80107869030478,
              20.2466571095418,
              0
            ],
            [
              85.8010787900795,
              20.24667319787104,
              0
            ],
            [
              85.80112458080328,
              20.24667782830624,
              0
            ],
            [
              85.80112159029112,
              20.246763038650588,
              0
            ],
            [
              85.80106722809134,
              20.24676473870423,
              0
            ],
            [
              85.80106381134013,
              20.24679519160359,
              0
            ],
            [
              85.80111146141107,
              20.24679514573423,
              0
            ],
            [
              85.80110886323561,
              20.24696823613743,
              0
            ],
            [
              85.80105592662815,
              20.24697464307583,
              0
            ],
            [
              85.8010579693336,
              20.24702581154747,
              0
            ],
            [
              85.8012082114835,
              20.24703216651681,
              0
            ],
            [
              85.80121424765625,
              20.246881752515808,
              0
            ],
            [
              85.80141187446124,
              20.24688369550384,
              0
            ],
            [
              85.80162130065695,
              20.246895824318788,
              0
            ],
            [
              85.80173714785704,
              20.24689888946535,
              0
            ],
            [
              85.8018148768197,
              20.246901485027788,
              0
            ],
            [
              85.80192868298572,
              20.24690446432676,
              0
            ],
            [
              85.80192953029328,
              20.24700682461054,
              0
            ],
            [
              85.8019184598266,
              20.247115178058728,
              0
            ],
            [
              85.80162766923478,
              20.247107347320238,
              0
            ],
            [
              85.80142489153367,
              20.247103099826408,
              0
            ],
            [
              85.8012397709103,
              20.24710414393488,
              0
            ],
            [
              85.80121805239054,
              20.24708841271699,
              0
            ],
            [
              85.80120136247716,
              20.247081058022278,
              0
            ],
            [
              85.80119592510727,
              20.2470558240645,
              0
            ],
            [
              85.80099502367567,
              20.24705257484584,
              0
            ],
            [
              85.80098384411981,
              20.24707987030492,
              0
            ],
            [
              85.80094699918229,
              20.247138488249778,
              0
            ],
            [
              85.80087215385659,
              20.24726004777957,
              0
            ],
            [
              85.8008171781449,
              20.24734615440516,
              0
            ],
            [
              85.8007869147242,
              20.247394494517938,
              0
            ],
            [
              85.80071598799833,
              20.24750310367734,
              0
            ],
            [
              85.80067358597867,
              20.247479782748368,
              0
            ],
            [
              85.80065453639274,
              20.247464012914048,
              0
            ],
            [
              85.80056527749635,
              20.24741422046096,
              0
            ],
            [
              85.80047875344718,
              20.247371698542658,
              0
            ],
            [
              85.80053779012906,
              20.24727580377547,
              0
            ]
          ]
        ]
      },
      "properties": {
        "name": "LH-1,2,4",
        "styleUrl": "#__managed_style_0CE6AACFE4413BB50E7F"
      },
      "id": "0B29EF7C53413BA1F17C"
    },
    {
      "type": "Feature",
      "geometry": {
        "type": "Polygon",
        "coordinates": [
          [
            [
              85.80182387630555,
              20.24660307904989,
              0
            ],
            [
              85.80183399943496,
              20.24637379201986,
              0
            ],
            [
              85.80188618959446,
              20.24636906857472,
              0
            ],
            [
              85.80189005834279,
              20.2463071614802,
              0
            ],
            [
              85.80183953049374,
              20.246303941424348,
              0
            ],
            [
              85.80184340706352,
              20.246187938988918,
              0
            ],
            [
              85.80202284045838,
              20.24618628757382,
              0
            ],
            [
              85.80201451374012,
              20.24634530534842,
              0
            ],
            [
              85.80207184576415,
              20.24635006652747,
              0
            ],
            [
              85.8020545186063,
              20.246645363745348,
              0
            ],
            [
              85.80204279729273,
              20.24686265297807,
              0
            ],
            [
              85.80182346912186,
              20.24686206564497,
              0
            ],
            [
              85.80182610713503,
              20.24674618318906,
              0
            ],
            [
              85.801864499032,
              20.24674607539182,
              0
            ],
            [
              85.80187018748748,
              20.2466738550791,
              0
            ],
            [
              85.80182668355184,
              20.24667707798398,
              0
            ],
            [
              85.80182038319033,
              20.24663146185971,
              0
            ],
            [
              85.80172149160967,
              20.2466252746822,
              0
            ],
            [
              85.80172333988432,
              20.24659845759071,
              0
            ],
            [
              85.80182387630555,
              20.24660307904989,
              0
            ]
          ]
        ]
      },
      "properties": {
        "name": "LH-3",
        "styleUrl": "#__managed_style_0E0B87352D413BB50E6B"
      },
      "id": "0B66EF3E41413BA3C4F4"
    },
    {
      "type": "Feature",
      "geometry": {
        "type": "Polygon",
        "coordinates": [
          [
            [
              85.80202711901318,
              20.2455343741638,
              0
            ],
            [
              85.80235289099143,
              20.24553819082882,
              0
            ],
            [
              85.8023558214847,
              20.24549554558497,
              0
            ],
            [
              85.80248061904439,
              20.24549665842505,
              0
            ],
            [
              85.80248451010644,
              20.245441798816127,
              0
            ],
            [
              85.8027887846059,
              20.245448704029258,
              0
            ],
            [
              85.80277482351141,
              20.24583777355726,
              0
            ],
            [
              85.80247423998094,
              20.24583094908435,
              0
            ],
            [
              85.80248253772186,
              20.24552212723381,
              0
            ],
            [
              85.80243572499224,
              20.24552175055798,
              0
            ],
            [
              85.80242854472336,
              20.24582461601516,
              0
            ],
            [
              85.802019460497,
              20.245817241840108,
              0
            ],
            [
              85.80202711901318,
              20.2455343741638,
              0
            ]
          ]
        ]
      },
      "properties": {
        "name": "BH-10"
      },
      "id": "01AD88541C413C0B45BE"
    },
    {
      "type": "Feature",
      "geometry": {
        "type": "Polygon",
        "coordinates": [
          [
            [
              85.80201689412597,
              20.245898735677,
              0
            ],
            [
              85.8027312941627,
              20.24591250489828,
              0
            ],
            [
              85.80272064681822,
              20.24612908285236,
              0
            ],
            [
              85.80200847991604,
              20.246115273662028,
              0
            ],
            [
              85.80201689412597,
              20.245898735677,
              0
            ]
          ]
        ]
      },
      "properties": {
        "name": "BH-5"
      },
      "id": "02F826C9F0413C0BBAD0"
    },
    {
      "type": "Feature",
      "geometry": {
        "type": "Polygon",
        "coordinates": [
          [
            [
              85.80213592236188,
              20.24678533830734,
              0
            ],
            [
              85.80218216453011,
              20.24678584429655,
              0
            ],
            [
              85.80218555441124,
              20.24671345404563,
              0
            ],
            [
              85.80213916210447,
              20.24671213839357,
              0
            ],
            [
              85.80214262056322,
              20.246599292645538,
              0
            ],
            [
              85.80218592919603,
              20.24660058240005,
              0
            ],
            [
              85.80218965874413,
              20.24651214603317,
              0
            ],
            [
              85.80214304709526,
              20.24650936115209,
              0
            ],
            [
              85.802149349832,
              20.24640068639197,
              0
            ],
            [
              85.80219532665359,
              20.24640427391165,
              0
            ],
            [
              85.80219552962475,
              20.24632701748234,
              0
            ],
            [
              85.8021520120262,
              20.246327163109868,
              0
            ],
            [
              85.80215797565096,
              20.24622001113486,
              0
            ],
            [
              85.80243222906665,
              20.24621731930348,
              0
            ],
            [
              85.80241187764364,
              20.2467765542485,
              0
            ],
            [
              85.80240768235662,
              20.24690554775268,
              0
            ],
            [
              85.80213298311511,
              20.246895907628858,
              0
            ],
            [
              85.80213592236188,
              20.24678533830734,
              0
            ]
          ]
        ]
      },
      "properties": {
        "name": "BH-6"
      },
      "id": "06546CD03C413C0D730F"
    },
    {
      "type": "Feature",
      "geometry": {
        "type": "Polygon",
        "coordinates": [
          [
            [
              85.80155115145293,
              20.24548330033026,
              0
            ],
            [
              85.80171569545865,
              20.245483525879,
              0
            ],
            [
              85.80171435381757,
              20.24564067039033,
              0
            ],
            [
              85.80174160130458,
              20.24563888594706,
              0
            ],
            [
              85.80174321381863,
              20.24558029513564,
              0
            ],
            [
              85.8019536686224,
              20.2455893464173,
              0
            ],
            [
              85.80195393255354,
              20.245726156948468,
              0
            ],
            [
              85.80174047761169,
              20.24572695742316,
              0
            ],
            [
              85.80174329193888,
              20.24566206063576,
              0
            ],
            [
              85.80171472305663,
              20.24566142141444,
              0
            ],
            [
              85.80170569425297,
              20.246001328484518,
              0
            ],
            [
              85.80173698268955,
              20.24600190143553,
              0
            ],
            [
              85.80174225781204,
              20.245945607593818,
              0
            ],
            [
              85.80195078262538,
              20.245949802677398,
              0
            ],
            [
              85.80194900856758,
              20.246096529362028,
              0
            ],
            [
              85.80174031456028,
              20.246089855869858,
              0
            ],
            [
              85.8017415950602,
              20.2460323662429,
              0
            ],
            [
              85.80170634081563,
              20.24602943052757,
              0
            ],
            [
              85.801702589634,
              20.24635328140035,
              0
            ],
            [
              85.8015588074259,
              20.2463479274079,
              0
            ],
            [
              85.80155408230758,
              20.24591005172195,
              0
            ],
            [
              85.80155115145293,
              20.24548330033026,
              0
            ]
          ]
        ]
      },
      "properties": {
        "name": "BH-12"
      },
      "id": "0ACCF68A86413C0A37AC"
    },
    {
      "type": "Feature",
      "geometry": {
        "type": "Polygon",
        "coordinates": [
          [
            [
              85.80252712770316,
              20.24621349108388,
              0
            ],
            [
              85.80267736370332,
              20.24621862011549,
              0
            ],
            [
              85.80267616308448,
              20.24623588984624,
              0
            ],
            [
              85.8027199134389,
              20.24623587300846,
              0
            ],
            [
              85.80271786567147,
              20.246286853823708,
              0
            ],
            [
              85.80273865426766,
              20.246293207588778,
              0
            ],
            [
              85.80273017417034,
              20.24650029077927,
              0
            ],
            [
              85.80269461858659,
              20.24654353188301,
              0
            ],
            [
              85.80266683673263,
              20.24654048932243,
              0
            ],
            [
              85.80266563238565,
              20.246559113536858,
              0
            ],
            [
              85.80251774194205,
              20.24656112912536,
              0
            ],
            [
              85.80252712770316,
              20.24621349108388,
              0
            ]
          ]
        ]
      },
      "properties": {
        "name": "BH-8"
      },
      "id": "0EF65DB172413C0DFE64"
    }
  ]
}