<?xml version="1.0" encoding="UTF-8"?>
<kml xmlns="http://www.opengis.net/kml/2.2" xmlns:gx="http://www.google.com/kml/ext/2.2" xmlns:kml="http://www.opengis.net/kml/2.2" xmlns:atom="http://www.w3.org/2005/Atom">
<Document id="KmlFile">
	<gx:CascadingStyle kml:id="__managed_style_08B2D1B9FE413B51AEF4_normal">
		<Style>
			<IconStyle>
				<Icon>
					<href>https://earth.google.com/earth/document/icon?color=1976d2&amp;id=2000&amp;scale=4</href>
				</Icon>
				<hotSpot x="64" y="128" xunits="pixels" yunits="insetPixels"/>
			</IconStyle>
			<LabelStyle>
			</LabelStyle>
			<LineStyle>
				<color>ff2dc0fb</color>
				<width>3.2</width>
			</LineStyle>
			<PolyStyle>
				<color>00ffffff</color>
			</PolyStyle>
			<BalloonStyle>
			</BalloonStyle>
		</Style>
	</gx:CascadingStyle>
	<gx:CascadingStyle kml:id="__managed_style_08B2D1B9FE413B51AEF4_highlight">
		<Style>
			<IconStyle>
				<scale>1.2</scale>
				<Icon>
					<href>https://earth.google.com/earth/document/icon?color=1976d2&amp;id=2000&amp;scale=4</href>
				</Icon>
				<hotSpot x="64" y="128" xunits="pixels" yunits="insetPixels"/>
			</IconStyle>
			<LabelStyle>
			</LabelStyle>
			<LineStyle>
				<color>ff2dc0fb</color>
				<width>4.8</width>
			</LineStyle>
			<PolyStyle>
				<color>00ffffff</color>
			</PolyStyle>
			<BalloonStyle>
			</BalloonStyle>
		</Style>
	</gx:CascadingStyle>
	<StyleMap id="__managed_style_08B2D1B9FE413B51AEF4">
		<Pair>
			<key>normal</key>
			<styleUrl>#__managed_style_08B2D1B9FE413B51AEF4_normal</styleUrl>
		</Pair>
		<Pair>
			<key>highlight</key>
			<styleUrl>#__managed_style_08B2D1B9FE413B51AEF4_highlight</styleUrl>
		</Pair>
	</StyleMap>
	<Placemark id="09E21F5C9D413A89F09B">
        <name>E block</name>
        <LookAt>
            <longitude>85.80124126992571</longitude>
            <latitude>20.24784883995542</latitude>
            <altitude>19.48707700320907</altitude>
            <heading>-150.7196427808575</heading>
            <tilt>40.44134500707248</tilt>
            <gx:fovy>30.00067058496611</gx:fovy>
            <range>209.4504241759064</range>
            <altitudeMode>absolute</altitudeMode>
        </LookAt>
        <styleUrl>#__managed_style_08B2D1B9FE413B51AEF4</styleUrl>
        <Polygon>
            <outerBoundaryIs>
                <LinearRing>
                    <coordinates>
                        85.80102919585009,20.24819986134086,0
                        85.80087812795121,20.24784379398439,0
                        85.8009892601622,20.24780140442098,0
                        85.80098061976332,20.24778183350038,0
                        85.8011204888608,20.24772549543102,0
                        85.80112430294261,20.2477507234131,0
                        85.80124954945366,20.24770919116746,0
                        85.80129946258475,20.24769113944144,0
                        85.80125890847123,20.24759777536006,0
                        85.80138872314309,20.24754943786091,0
                        85.80143641712596,20.24766196490644,0
                        85.80173475270951,20.24754466555382,0
                        85.80171531654456,20.24750649258081,0
                        85.80186729230155,20.24744462240413,0
                        85.80202766935412,20.24779757032547,0
                        85.80195801175351,20.24782138495521,0
                        85.80200016887036,20.24794837139978,0
                        85.80163466600059,20.24809424824399,0
                        85.80153797834629,20.24787141750461,0
                        85.80148279676135,20.24789846917966,0
                        85.80153021909571,20.24800541924542,0
                        85.80102919585009,20.24819986134086,0
                    </coordinates>
                </LinearRing>
            </outerBoundaryIs>
        </Polygon>
    </Placemark>

    <Placemark id="0CC9B4811A413B5E3ACF">
		<name>L shape building</name>
		<LookAt>
			<longitude>85.8024311003833</longitude>
			<latitude>20.24903432340029</latitude>
			<altitude>44.22977079084847</altitude>
			<heading>1.26733204369153</heading>
			<tilt>0.219570900159096</tilt>
			<gx:fovy>30.00000000048256</gx:fovy>
			<range>415.4935130540981</range>
			<altitudeMode>absolute</altitudeMode>
		</LookAt>
		<styleUrl>#__managed_style_08B2D1B9FE413B51AEF4</styleUrl>
		<Polygon>
			<outerBoundaryIs>
				<LinearRing>
					<coordinates>
						85.80183328975374,20.24896212575697,0 85.80179487149455,20.24867294179728,0 85.80238549401214,20.2485730890691,0 85.80240620904991,20.24876556278002,0 85.80196985354259,20.24882389458444,0 85.80198194114638,20.24894593423571,0 85.80183328975374,20.24896212575697,0 
					</coordinates>
				</LinearRing>
			</outerBoundaryIs>
		</Polygon>
	</Placemark>

    <Placemark id="0B29EF7C53413BA1F17C">
    <name>LH-1,2,4</name>
    <LookAt>
        <longitude>85.80122565800504</longitude>
        <latitude>20.24710421598694</latitude>
        <altitude>43.62829742038786</altitude>
        <heading>0</heading>
        <tilt>0</tilt>
        <gx:fovy>34.9999999777951</gx:fovy>
        <range>246.0010829615567</range>
        <altitudeMode>absolute</altitudeMode>
    </LookAt>
    <styleUrl>#__managed_style_0CE6AACFE4413BB50E7F</styleUrl>
    <Polygon>
        <outerBoundaryIs>
            <LinearRing>
                <coordinates>
                    85.80056679012906,20.24729380377547,0
                    85.80060776474753,20.24730501625384,0
                    85.80064680168922,20.24724268432145,0
                    85.80060394585353,20.24721872496012,0
                    85.80066899705961,20.24712410281951,0
                    85.80069812995641,20.24714809738,0
                    85.80075620868653,20.24707118674843,0
                    85.80070992529587,20.24704879963981,0
                    85.80076804155749,20.24695583761886,0
                    85.80081293510435,20.24697025260203,0
                    85.80085366238766,20.24692698817543,0
                    85.80081264275153,20.24690134313444,0
                    85.80086915867671,20.2467971885715,0
                    85.80106376970769,20.24680197194413,0
                    85.80107011252256,20.24666871128554,0
                    85.80102914018776,20.24666392626199,0
                    85.8010260153732,20.24640125567099,0
                    85.80124253253546,20.2464078652975,0
                    85.80149491026638,20.24642177334844,0
                    85.80176645644457,20.2464276211052,0
                    85.80174380238484,20.24668625359164,0
                    85.80163430657727,20.24668748175756,0
                    85.80162743298641,20.24664382106977,0
                    85.80155195953129,20.24663245750052,0
                    85.80154860675527,20.24668092867993,0
                    85.80144063664229,20.24667932215769,0
                    85.80143879766355,20.24663894604105,0
                    85.80134275007187,20.24663088429702,0
                    85.80133782196186,20.24667290283966,0
                    85.80122680124349,20.24667153156006,0
                    85.80122307923321,20.24662794001568,0
                    85.80114650222904,20.24662826669675,0
                    85.80114666692173,20.24667010823187,0
                    85.80110769030478,20.2466751095418,0
                    85.8011077900795,20.24669119787104,0
                    85.80115358080328,20.24669582830624,0
                    85.80115059029111,20.24678103865059,0
                    85.80109622809134,20.24678273870423,0
                    85.80109281134012,20.24681319160359,0
                    85.80114046141107,20.24681314573423,0
                    85.80113786323561,20.24698623613743,0
                    85.80108492662815,20.24699264307583,0
                    85.80108696933359,20.24704381154747,0
                    85.80123721148349,20.24705016651681,0
                    85.80124324765625,20.24689975251581,0
                    85.80144087446123,20.24690169550384,0
                    85.80165030065694,20.24691382431879,0
                    85.80176614785704,20.24691688946535,0
                    85.80184387681971,20.24691948502779,0
                    85.80195768298571,20.24692246432676,0
                    85.80195853029328,20.24702482461054,0
                    85.8019474598266,20.24713317805873,0
                    85.80165666923478,20.24712534732024,0
                    85.80145389153367,20.24712109982641,0
                    85.8012687709103,20.24712214393488,0
                    85.80124705239053,20.24710641271699,0
                    85.80123036247715,20.24709905802228,0
                    85.80122492510727,20.2470738240645,0
                    85.80102402367567,20.24707057484584,0
                    85.80101284411981,20.24709787030492,0
                    85.80097599918229,20.24715648824978,0
                    85.80090115385658,20.24727804777957,0
                    85.8008461781449,20.24736415440516,0
                    85.8008159147242,20.24741249451794,0
                    85.80074498799833,20.24752110367734,0
                    85.80070258597867,20.24749778274837,0
                    85.80068353639274,20.24748201291405,0
                    85.80059427749635,20.24743222046096,0
                    85.80050775344718,20.24738969854266,0
                    85.80056679012906,20.24729380377547,0
                </coordinates>
            </LinearRing>
        </outerBoundaryIs>
    </Polygon>
</Placemark>

<Placemark id="0B66EF3E41413BA3C4F4">
    <name>LH-3</name>
    <LookAt>
        <longitude>85.80138236281852</longitude>
        <latitude>20.24646240366057</latitude>
        <altitude>41.45560149675756</altitude>
        <heading>0</heading>
        <tilt>0</tilt>
        <gx:fovy>34.9999999777951</gx:fovy>
        <range>244.0598431271792</range>
        <altitudeMode>absolute</altitudeMode>
    </LookAt>
    <styleUrl>#__managed_style_0E0B87352D413BB50E6B</styleUrl>
    <Polygon>
        <outerBoundaryIs>
            <LinearRing>
                <coordinates>
                    85.80185287630555,20.24662107904989,0
                    85.80186299943496,20.24639179201986,0
                    85.80191518959446,20.24638706857472,0
                    85.80191905834279,20.2463251614802,0
                    85.80186853049374,20.24632194142435,0
                    85.80187240706352,20.24620593898892,0
                    85.80205184045837,20.24620428757382,0
                    85.80204351374011,20.24636330534842,0
                    85.80210084576415,20.24636806652747,0
                    85.8020835186063,20.24666336374535,0
                    85.80207179729273,20.24688065297807,0
                    85.80185246912186,20.24688006564497,0
                    85.80185510713503,20.24676418318906,0
                    85.80189349903201,20.24676407539182,0
                    85.80189918748748,20.2466918550791,0
                    85.80185568355183,20.24669507798398,0
                    85.80184938319033,20.24664946185971,0
                    85.80175049160967,20.2466432746822,0
                    85.80175233988432,20.24661645759071,0
                    85.80185287630555,20.24662107904989,0
                </coordinates>
            </LinearRing>
        </outerBoundaryIs>
    </Polygon>
</Placemark>
    <Placemark id="01AD88541C413C0B45BE">
    <name>BH-10</name>
    <Polygon>
        <outerBoundaryIs>
            <LinearRing>
                <coordinates>
                    85.80205611901318,20.2455523741638,0
                    85.80238189099142,20.24555619082882,0
                    85.80238482148469,20.24551354558497,0
                    85.80250961904438,20.24551465842505,0
                    85.80251351010643,20.24545979881613,0
                    85.80281778460589,20.24546670402926,0
                    85.80280382351141,20.24585577355726,0
                    85.80250323998094,20.24584894908435,0
                    85.80251153772185,20.24554012723381,0
                    85.80246472499224,20.24553975055798,0
                    85.80245754472335,20.24584261601516,0
                    85.80204846049699,20.24583524184011,0
                    85.80205611901318,20.2455523741638,0
                </coordinates>
            </LinearRing>
        </outerBoundaryIs>
    </Polygon>
</Placemark>

<Placemark id="02F826C9F0413C0BBAD0">
    <name>BH-5</name>
    <Polygon>
        <outerBoundaryIs>
            <LinearRing>
                <coordinates>
                    85.80204589412597,20.245916735677,0
                    85.80276029416269,20.24593050489828,0
                    85.80274964681822,20.24614708285236,0
                    85.80203747991604,20.24613327366203,0
                    85.80204589412597,20.245916735677,0
                </coordinates>
            </LinearRing>
        </outerBoundaryIs>
    </Polygon>
</Placemark>

<Placemark id="06546CD03C413C0D730F">
    <name>BH-6</name>
    <Polygon>
        <outerBoundaryIs>
            <LinearRing>
                <coordinates>
                    85.80216492236188,20.24680333830734,0
                    85.8022111645301,20.24680384429655,0
                    85.80221455441123,20.24673145404563,0
                    85.80216816210447,20.24673013839357,0
                    85.80217162056321,20.24661729264554,0
                    85.80221492919603,20.24661858240005,0
                    85.80221865874412,20.24653014603317,0
                    85.80217204709525,20.24652736115209,0
                    85.80217834983201,20.24641868639197,0
                    85.80222432665358,20.24642227391165,0
                    85.80222452962475,20.24634501748234,0
                    85.8021810120262,20.24634516310987,0
                    85.80218697565095,20.24623801113486,0
                    85.80246122906665,20.24623531930348,0
                    85.80244087764364,20.2467945542485,0
                    85.80243668235661,20.24692354775268,0
                    85.80216198311511,20.24691390762886,0
                    85.80216492236188,20.24680333830734,0
                </coordinates>
            </LinearRing>
        </outerBoundaryIs>
    </Polygon>
</Placemark>

<Placemark id="0ACCF68A86413C0A37AC">
    <name>BH-12</name>
    <Polygon>
        <outerBoundaryIs>
            <LinearRing>
                <coordinates>
                    85.80158015145292,20.24550130033026,0
                    85.80174469545865,20.245501525879,0
                    85.80174335381757,20.24565867039033,0
                    85.80177060130458,20.24565688594706,0
                    85.80177221381863,20.24559829513564,0
                    85.8019826686224,20.2456073464173,0
                    85.80198293255354,20.24574415694847,0
                    85.80176947761169,20.24574495742316,0
                    85.80177229193888,20.24568006063576,0
                    85.80174372305663,20.24567942141444,0
                    85.80173469425297,20.24601932848452,0
                    85.80176598268954,20.24601990143553,0
                    85.80177125781204,20.24596360759382,0
                    85.80197978262538,20.2459678026774,0
                    85.80197800856758,20.24611452936203,0
                    85.80176931456028,20.24610785586986,0
                    85.80177059506019,20.2460503662429,0
                    85.80173534081562,20.24604743052757,0
                    85.801731589634,20.24637128140035,0
                    85.80158780742591,20.2463659274079,0
                    85.80158308230757,20.24592805172195,0
                    85.80158015145292,20.24550130033026,0
                </coordinates>
            </LinearRing>
        </outerBoundaryIs>
    </Polygon>
</Placemark>

<Placemark id="0EF65DB172413C0DFE64">
    <name>BH-8</name>
    <Polygon>
        <outerBoundaryIs>
            <LinearRing>
                <coordinates>
                    85.80255612770316,20.24623149108388,0
                    85.80270636370332,20.24623662011549,0
                    85.80270516308448,20.24625388984624,0
                    85.80274891343891,20.24625387300846,0
                    85.80274686567147,20.24630485382371,0
                    85.80276765426765,20.24631120758878,0
                    85.80275917417034,20.24651829077927,0
                    85.80272361858658,20.24656153188301,0
                    85.80269583673263,20.24655848932243,0
                    85.80269463238565,20.24657711353686,0
                    85.80254674194205,20.24657912912536,0
                    85.80255612770316,20.24623149108388,0
                </coordinates>
            </LinearRing>
        </outerBoundaryIs>
    </Polygon>
</Placemark>
</Document>
</kml>
<?earth data="CqgHCqUHCv0GChQwOUUyMUY1QzlENDEzQTg5RjA5QhL3BRJOChIZIUGHbnI_NEAhW3lTW0dzVUARqmoXFLF8M0AYASG9EkxQB9diwCmK0EH-fThEQDEPG_bfaS5qQEGmf4zyKwA-QEkzjtHFufuzPVABGAEiBkVibG9ja0ACSpgFEpUFGpIFCosFCh0KEhkDoLBviT80QCFVq9LhQ3NVQCkAAAAAAAAAAAodChIZTvneGXI_NEAhe78yaEFzVUApAAAAAAAAAAAKHQoSGXIvsVJvPzRAIQgNUjpDc1VAKQAAAAAAAAAACh0KEhmuuFgKbj80QCFGfhQWQ3NVQCkAAAAAAAAAAAodChIZU44mWWo_NEAhCcu7YEVzVUApAAAAAAAAAAAKHQoSGffpZwBsPzRAIdwhu3BFc1VAKQAAAAAAAAAACh0KEhn2RpxHaT80QCGrjA1-R3NVQCkAAAAAAAAAAAodChIZTLTAGGg_NEAhrF1nT0hzVUApAAAAAAAAAAAKHQoSGTYHXfphPzRAIdS3TqVHc1VAKQAAAAAAAAAACh0KEhnUDGXPXj80QCEfKcrFSXNVQCkAAAAAAAAAAAodChIZ1QdJL2Y_NEAhTi_VjUpzVUApAAAAAAAAAAAKHQoSGbElVH9ePzRAIRSUJHFPc1VAKQAAAAAAAAAACh0KEhkBeuT-Wz80QCG9J58fT3NVQCkAAAAAAAAAAAodChIZVhfi8Fc_NEAhuuENnVFzVUApAAAAAAAAAAAKHQoSGdjeXRJvPzRAIUJuuT1Uc1VAKQAAAAAAAAAACh0KEhkp7eihcD80QCHNJo8ZU3NVQCkAAAAAAAAAAAodChIZiY1j9Hg_NEAh2AJhylNzVUApAAAAAAAAAAAKHQoSGfXTy4OCPzRAIQVLWc1Nc1VAKQAAAAAAAAAACh0KEhn9FlHpcz80QCH6ts83THNVQCkAAAAAAAAAAAodChIZQyYrr3U_NEAhaPBcUEtzVUApAAAAAAAAAAAKHQoSGSgvfrF8PzRAIWtIRBdMc1VAKQAAAAAAAAAAEAIYADJrCiQKIAoDCNAPGgcI0u1lEP8BIQAAAAAAAPA_KQAAAAAAAAAAGAASDwoICK2A7wcQ_wEQoB8YABoaCgcI____BxAAEggIrYDvBxD_ARigHyAAKAAiAggCKhIIARIFCP___wcZAAAAAAAA8D8SABohMUZqb3ZVWFlXaVdnSmp3b25Rem5tSDdJR3J3VVpsSV9G"?>
