{
"type": "FeatureCollection",
"name": " final path",
"crs": { "type": "name", "properties": { "name": "urn:ogc:def:crs:OGC:1.3:CRS84" } },
"features": [
{"type":"Feature","properties":{"fid":1},"geometry":{"type":"LineString","coordinates":[[85.800497288566618,20.248728391876259],[85.801606257933187,20.24849476945143]]}},
{"type":"Feature","properties":{"fid":2},"geometry":{"type":"LineString","coordinates":[[85.801051593608733,20.248613361070653],[85.800989696811143,20.24830309272394],[85.801007381610432,20.248276545670837],[85.801565697487618,20.24816101633667]]}},
{"type":"Feature","properties":{"fid":3},"geometry":{"type":"LineString","coordinates":[[85.801608478133176,20.248493183481354],[85.80163060605328,20.248489031396435],[85.80163060605328,20.248489031396435]]}},
{"type":"Feature","properties":{"fid":4},"geometry":{"type":"LineString","coordinates":[[85.80096085333453,20.248627038724443],[85.800877902909804,20.248125098137994],[85.800708405210614,20.247795026725907]]}},
{"type":"Feature","properties":{"fid":5},"geometry":{"type":"LineString","coordinates":[[85.800989612941706,20.24830455815885],[85.800906038741161,20.248287261956396]]}},
{"type":"Feature","properties":{"fid":6},"geometry":{"type":"LineString","coordinates":[[85.800440098820076,20.248599933848961],[85.800440098820076,20.248599933848961],[85.800486344193317,20.248497381779703],[85.800522079254449,20.248379052384887],[85.800551508128308,20.248223251877555],[85.800564120502813,20.248102950113068],[85.800568324627648,20.247990536904666],[85.800564120502813,20.247872207123724]]}},
{"type":"Feature","properties":{"fid":7},"geometry":{"type":"LineString","coordinates":[[85.801171023743436,20.248974407941599],[85.801171023743436,20.248974407941599],[85.80111573139861,20.24859518230706],[85.80111573139861,20.24859518230706]]}},
{"type":"Feature","properties":{"fid":8},"geometry":{"type":"LineString","coordinates":[[85.801665018198946,20.248656514255941],[85.801665018198946,20.248656514255941],[85.801938376447282,20.248618235958887]]}},
{"type":"Feature","properties":{"fid":9},"geometry":{"type":"LineString","coordinates":[[85.801558632392485,20.246714752390311],[85.801558632392485,20.246714752390311],[85.801543101929553,20.246892031011988]]}},
{"type":"Feature","properties":{"fid":10},"geometry":{"type":"LineString","coordinates":[[85.801056073853701,20.246994214340173],[85.801056073853701,20.246994214340173],[85.801125028823392,20.2469847004859],[85.801147337784187,20.246697381812186],[85.801147337784187,20.246697381812186]]}},
{"type":"Feature","properties":{"fid":11},"geometry":{"type":"LineString","coordinates":[[85.80197498464959,20.24586345893638],[85.80197498464959,20.24586345893638],[85.801957096919224,20.246146664388316],[85.802127030357781,20.246146664388316]]}}
]
}
