{
  "type": "FeatureCollection",
  "features": [
    {
      "type": "Feature",
      "geometry": {
        "type": "LineString",
        "coordinates": [
          [
            85.80120169999843,
            20.24674479263848,
            0
          ],
          [
            85.8011901485514,
            20.24701215471035,
            0
          ],
          [
            85.80113988966282,
            20.24701347564954,
            0
          ]
        ]
      },
      "properties": {
        "id": "P001",
        "type": "path",
        "name": "path 8",
        "access": [
          "walk"
        ]
      },
      "id": "005742DF4C4140382E90"
    },
    {
      "type": "Feature",
      "geometry": {
        "type": "LineString",
        "coordinates": [
          [
            85.80213756321507,
            20.24792811986667,
            0
          ],
          [
            85.80245291584387,
            20.24800353618667,
            0
          ],
          [
            85.8027521791119,
            20.24796103839841,
            0
          ]
        ]
      },
      "properties": {
        "id": "R001",
        "type": "road",
        "name": "road 5",
        "access": [
          "walk",
          "vehicle"
        ]
      },
      "id": "0074610670413F646ACE"
    },
    {
      "type": "Feature",
      "geometry": {
        "type": "LineString",
        "coordinates": [
          [
            85.80121617520915,
            20.24900791794441,
            0
          ],
          [
            85.80115038457272,
            20.24861086497876,
            0
          ]
        ]
      },
      "properties": {
        "id": "P002",
        "type": "path",
        "name": "path 6",
        "access": [
          "walk"
        ]
      },
      "id": "00B2AAE7F6413F71D3E3"
    },
    {
      "type": "Feature",
      "geometry": {
        "type": "LineString",
        "coordinates": [
          [
            85.80085646091526,
            20.24671690891153,
            0
          ],
          [
            85.80089495910624,
            20.24637945371532,
            0
          ],
          [
            85.80123670973703,
            20.2463865893254,
            0
          ]
        ]
      },
      "properties": {
        "id": "R002",
        "type": "road",
        "name": "road 10",
        "access": [
          "walk",
          "vehicle"
        ]
      },
      "id": "0149A9D20641403495DC"
    },
    {
      "type": "Feature",
      "geometry": {
        "type": "LineString",
        "coordinates": [
          [
            85.802453276066,
            20.24614115248191,
            0
          ],
          [
            85.80272479932361,
            20.24612610317758,
            0
          ]
        ]
      },
      "properties": {
        "id": "R003",
        "type": "road",
        "name": "road 8",
        "access": [
          "walk",
          "vehicle"
        ]
      },
      "id": "01DF37C6D0413F70D6BC"
    },
    {
      "type": "Feature",
      "geometry": {
        "type": "LineString",
        "coordinates": [
          [
            85.80031151523397,
            20.24863662454283,
            0
          ],
          [
            85.80031478704595,
            20.24872525182532,
            0
          ]
        ]
      },
      "properties": {
        "id": "R004",
        "type": "road",
        "name": "road 12",
        "access": [
          "walk",
          "vehicle"
        ]
      },
      "id": "025D6740484140AB1EEF"
    },
    {
      "type": "Feature",
      "geometry": {
        "type": "LineString",
        "coordinates": [
          [
            85.80278233154412,
            20.24582520515899,
            0
          ],
          [
            85.80198919143633,
            20.24581819447764,
            0
          ],
          [
            85.80203451579742,
            20.24546035859297,
            0
          ]
        ]
      },
      "properties": {
        "id": "R005",
        "type": "road",
        "name": "road 4",
        "access": [
          "walk",
          "vehicle"
        ]
      },
      "id": "02D2B5AFB2413F63C1F8"
    },
    {
      "type": "Feature",
      "geometry": {
        "type": "LineString",
        "coordinates": [
          [
            85.80005859590787,
            20.25050320883252,
            0
          ],
          [
            85.80004371985139,
            20.25037988683907,
            0
          ],
          [
            85.80009009055254,
            20.25033663817747,
            0
          ],
          [
            85.80016798825926,
            20.2496250307884,
            0
          ],
          [
            85.80054227917519,
            20.2490550974176,
            0
          ]
        ]
      },
      "properties": {
        "id": "R006",
        "type": "road",
        "name": "road 2",
        "access": [
          "walk",
          "vehicle"
        ]
      },
      "id": "0610D74C7D413F608946"
    },
    {
      "type": "Feature",
      "geometry": {
        "type": "LineString",
        "coordinates": [
          [
            85.80004379774755,
            20.25037168700124,
            0
          ],
          [
            85.80002028855107,
            20.25030654981229,
            0
          ],
          [
            85.8001060541198,
            20.24958999987415,
            0
          ],
          [
            85.80042459591114,
            20.24891818825304,
            0
          ],
          [
            85.8003954700036,
            20.24874665853844,
            0
          ],
          [
            85.80031732410805,
            20.24871564685618,
            0
          ],
          [
            85.79998274758913,
            20.24858488239922,
            0
          ],
          [
            85.79990822905502,
            20.24851891510512,
            0
          ],
          [
            85.79987820725233,
            20.24837699033625,
            0
          ],
          [
            85.79997622849386,
            20.24820361033749,
            0
          ],
          [
            85.80014383889278,
            20.24790527379846,
            0
          ],
          [
            85.80024421440308,
            20.2476593315798,
            0
          ],
          [
            85.80033390527997,
            20.24762830552534,
            0
          ],
          [
            85.8006129363158,
            20.24775742770934,
            0
          ],
          [
            85.80088787291832,
            20.24732386633104,
            0
          ],
          [
            85.80113810716041,
            20.24730617254193,
            0
          ],
          [
            85.80122811079453,
            20.24725750059772,
            0
          ],
          [
            85.80129586296641,
            20.24718541922602,
            0
          ],
          [
            85.80199605629377,
            20.24721048770114,
            0
          ],
          [
            85.80206832028736,
            20.24715678441471,
            0
          ],
          [
            85.80208569764915,
            20.24614946909293,
            0
          ],
          [
            85.80246775575381,
            20.24614117376108,
            0
          ],
          [
            85.80247749787438,
            20.24678498217692,
            0
          ],
          [
            85.80266098323106,
            20.24668490371789,
            0
          ],
          [
            85.80275270408707,
            20.24654190352341,
            0
          ],
          [
            85.80275434225452,
            20.24632421329919,
            0
          ],
          [
            85.80272084322357,
            20.24609169489421,
            0
          ],
          [
            85.80279077669158,
            20.24580150476359,
            0
          ],
          [
            85.80282312007527,
            20.24545205911356,
            0
          ],
          [
            85.80272527876576,
            20.2453631802461,
            0
          ],
          [
            85.80248454980196,
            20.24536231009308,
            0
          ],
          [
            85.80234107642994,
            20.24544054238218,
            0
          ],
          [
            85.80200536096655,
            20.24546368115322,
            0
          ],
          [
            85.80189526724101,
            20.24548671326221,
            0
          ],
          [
            85.80186213018995,
            20.24540592383523,
            0
          ],
          [
            85.80150995944454,
            20.24540632763717,
            0
          ],
          [
            85.80147569074944,
            20.24570996101628,
            0
          ]
        ]
      },
      "properties": {
        "id": "R007",
        "type": "road",
        "name": "Road 3",
        "access": [
          "walk",
          "vehicle"
        ]
      },
      "id": "06213670F2413F62DAF3"
    },
    {
      "type": "Feature",
      "geometry": {
        "type": "LineString",
        "coordinates": [
          [
            85.80065906582595,
            20.24777346590473,
            0
          ],
          [
            85.80104120206234,
            20.24828592397727,
            0
          ]
        ]
      },
      "properties": {
        "id": "P003",
        "type": "path",
        "name": "path 1",
        "access": [
          "walk"
        ]
      },
      "id": "0651A2FFB6413F68F860"
    },
    {
      "type": "Feature",
      "geometry": {
        "type": "LineString",
        "coordinates": [
          [
            85.80162580179939,
            20.24853119222233,
            0
          ],
          [
            85.80164840437382,
            20.24867006616946,
            0
          ],
          [
            85.80195221255268,
            20.24862382611101,
            0
          ]
        ]
      },
      "properties": {
        "id": "P004",
        "type": "path",
        "name": "path 7",
        "access": [
          "walk"
        ]
      },
      "id": "07B0BAC0EC414029FA7B"
    },
    {
      "type": "Feature",
      "geometry": {
        "type": "LineString",
        "coordinates": [
          [
            85.80040129135287,
            20.24875076461956,
            0
          ],
          [
            85.80045000800627,
            20.24869140774011,
            0
          ]
        ]
      },
      "properties": {
        "id": "R008",
        "type": "road",
        "name": "road 13",
        "access": [
          "walk",
          "vehicle"
        ]
      },
      "id": "08543655E44140AB7B76"
    },
    {
      "type": "Feature",
      "geometry": {
        "type": "LineString",
        "coordinates": [
          [
            85.80199034882594,
            20.24581955106689,
            0
          ],
          [
            85.80195551449867,
            20.24610891823746,
            0
          ],
          [
            85.80208722190551,
            20.24615721281372,
            0
          ]
        ]
      },
      "properties": {
        "id": "P005",
        "type": "path",
        "name": "path 5",
        "access": [
          "walk"
        ]
      },
      "id": "0893C461D5413F707157"
    },
    {
      "type": "Feature",
      "geometry": {
        "type": "LineString",
        "coordinates": [
          [
            85.8009323858564,
            20.24944849493584,
            0
          ],
          [
            85.80146569029358,
            20.2492908774003,
            0
          ],
          [
            85.801364717746,
            20.24896238473743,
            0
          ],
          [
            85.80076990710653,
            20.24915681650865,
            0
          ]
        ]
      },
      "properties": {
        "id": "R009",
        "type": "road",
        "name": "road 6",
        "access": [
          "walk",
          "vehicle"
        ]
      },
      "id": "08A28FDDFA413F64F65C"
    },
    {
      "type": "Feature",
      "geometry": {
        "type": "LineString",
        "coordinates": [
          [
            85.80167995137784,
            20.24677980744521,
            0
          ],
          [
            85.80175397931933,
            20.24675548473881,
            0
          ],
          [
            85.80177611137596,
            20.24649670076957,
            0
          ]
        ]
      },
      "properties": {
        "id": "R010",
        "type": "road",
        "name": "road 11",
        "access": [
          "walk",
          "vehicle"
        ]
      },
      "id": "09C8548E9841403F086F"
    },
    {
      "type": "Feature",
      "geometry": {
        "type": "LineString",
        "coordinates": [
          [
            85.80056509691767,
            20.24983791159516,
            0
          ],
          [
            85.80021731969694,
            20.24954455482281,
            0
          ]
        ]
      },
      "properties": {
        "id": "P006",
        "type": "path",
        "name": "path 3",
        "access": [
          "walk"
        ]
      },
      "id": "0B048386E0413F6ECD33"
    },
    {
      "type": "Feature",
      "geometry": {
        "type": "LineString",
        "coordinates": [
          [
            85.80012250150385,
            20.25070095285718,
            0
          ],
          [
            85.80006141844376,
            20.25049503583386,
            0
          ],
          [
            85.80023670086482,
            20.25047931359328,
            0
          ],
          [
            85.80024770287172,
            20.25016926940927,
            0
          ],
          [
            85.80039797636175,
            20.25015109386954,
            0
          ],
          [
            85.80051263727071,
            20.24987070003344,
            0
          ],
          [
            85.80064362497136,
            20.24979324194648,
            0
          ],
          [
            85.80079901375946,
            20.24972333491137,
            0
          ],
          [
            85.8009011127331,
            20.24961227974527,
            0
          ],
          [
            85.80093420044479,
            20.24950641254268,
            0
          ],
          [
            85.80092877037609,
            20.24939805600407,
            0
          ],
          [
            85.80088197913109,
            20.24929213622516,
            0
          ],
          [
            85.80079409723247,
            20.24917108912305,
            0
          ],
          [
            85.80066961622134,
            20.24909255066904,
            0
          ],
          [
            85.80053617216313,
            20.2490678206522,
            0
          ],
          [
            85.80056115760986,
            20.24898277777047,
            0
          ],
          [
            85.80045957032733,
            20.24872739234074,
            0
          ],
          [
            85.80043678304885,
            20.24863870367321,
            0
          ],
          [
            85.80036043034853,
            20.24861793088922,
            0
          ],
          [
            85.80028751882199,
            20.2486413901502,
            0
          ],
          [
            85.79996849255147,
            20.24851601051779,
            0
          ],
          [
            85.799952413139,
            20.24841407372918,
            0
          ],
          [
            85.80003080494588,
            20.24822353492342,
            0
          ],
          [
            85.80010492019595,
            20.24809942090537,
            0
          ],
          [
            85.8001605708229,
            20.24799961179605,
            0
          ],
          [
            85.80023599896968,
            20.24785087543748,
            0
          ],
          [
            85.80031324112863,
            20.24767409687206,
            0
          ],
          [
            85.8006155685959,
            20.24780669312293,
            0
          ],
          [
            85.80077677307827,
            20.24765828743917,
            0
          ],
          [
            85.80095782437053,
            20.2473856290527,
            0
          ],
          [
            85.80116575742205,
            20.24737801760774,
            0
          ],
          [
            85.80131259549346,
            20.24730293044661,
            0
          ],
          [
            85.80185728726603,
            20.24731425103151,
            0
          ],
          [
            85.80215362866635,
            20.24792336305386,
            0
          ],
          [
            85.80203028421461,
            20.24801228407429,
            0
          ],
          [
            85.80160025671785,
            20.24818832152069,
            0
          ],
          [
            85.80162548878415,
            20.24852585996453,
            0
          ],
          [
            85.80110379734457,
            20.24862257538594,
            0
          ],
          [
            85.80104211587907,
            20.24827975055802,
            0
          ],
          [
            85.80161394753837,
            20.24817787611709,
            0
          ]
        ]
      },
      "properties": {
        "id": "R011",
        "type": "road",
        "name": "road 1",
        "access": [
          "walk",
          "vehicle"
        ]
      },
      "id": "0BF881744C413F5F7E90"
    },
    {
      "type": "Feature",
      "geometry": {
        "type": "LineString",
        "coordinates": [
          [
            85.80164615844906,
            20.24677864908733,
            0
          ],
          [
            85.80164215640453,
            20.24690929920886,
            0
          ]
        ]
      },
      "properties": {
        "id": "P007",
        "type": "path",
        "name": "path 10",
        "access": [
          "walk"
        ]
      },
      "id": "0CD369158441403AD28C"
    },
    {
      "type": "Feature",
      "geometry": {
        "type": "LineString",
        "coordinates": [
          [
            85.80042523616773,
            20.24863897680741,
            0
          ],
          [
            85.80056130390545,
            20.2477846472466,
            0
          ]
        ]
      },
      "properties": {
        "id": "P008",
        "type": "path",
        "name": "path 4",
        "access": [
          "walk"
        ]
      },
      "id": "0D10D6DB33413F6F2D99"
    },
    {
      "type": "Feature",
      "geometry": {
        "type": "LineString",
        "coordinates": [
          [
            85.80040465447463,
            20.2501546116045,
            0
          ],
          [
            85.8010989502731,
            20.25014796166183,
            0
          ],
          [
            85.80110427822935,
            20.25046914362257,
            0
          ],
          [
            85.80109245832642,
            20.24992632736922,
            0
          ]
        ]
      },
      "properties": {
        "id": "R012",
        "type": "road",
        "name": "road 7",
        "access": [
          "walk",
          "vehicle"
        ]
      },
      "id": "0D83EB4A1E413F65B9A9"
    },
    {
      "type": "Feature",
      "geometry": {
        "type": "LineString",
        "coordinates": [
          [
            85.8002378949686,
            20.24765582599978,
            0
          ],
          [
            85.80063764274543,
            20.24674993859289,
            0
          ],
          [
            85.80079293095804,
            20.24670958653364,
            0
          ],
          [
            85.80170478321412,
            20.2467820778304,
            0
          ]
        ]
      },
      "properties": {
        "id": "R013",
        "type": "road",
        "name": "road 9",
        "access": [
          "walk",
          "vehicle"
        ]
      },
      "id": "0F255076BB4140336514"
    },
    {
      "type": "Feature",
      "geometry": {
        "type": "LineString",
        "coordinates": [
          [
            85.8004726538877,
            20.2487609744453,
            0
          ],
          [
            85.80110413217469,
            20.24862052600754,
            0
          ]
        ]
      },
      "properties": {
        "id": "P009",
        "type": "path",
        "name": "path 2",
        "access": [
          "walk"
        ]
      },
      "id": "0F8F8F95F7413F69C416"
    }
  ]
}