<?xml version="1.0" encoding="UTF-8"?>
<kml xmlns="http://www.opengis.net/kml/2.2" xmlns:gx="http://www.google.com/kml/ext/2.2" xmlns:kml="http://www.opengis.net/kml/2.2" xmlns:atom="http://www.w3.org/2005/Atom">
<Document id="KmlFile">
	<gx:CascadingStyle kml:id="__managed_style_0D505CD1934141A881B4_highlight">
		<Style>
			<IconStyle>
				<scale>1.2</scale>
				<Icon>
					<href>https://earth.google.com/earth/document/icon?color=1976d2&amp;id=2000&amp;scale=4</href>
				</Icon>
				<hotSpot x="64" y="128" xunits="pixels" yunits="insetPixels"/>
			</IconStyle>
			<LabelStyle>
			</LabelStyle>
			<LineStyle>
				<color>ff2dc0fb</color>
				<width>4.8</width>
			</LineStyle>
			<PolyStyle>
				<color>40ffffff</color>
			</PolyStyle>
			<BalloonStyle>
			</BalloonStyle>
		</Style>
	</gx:CascadingStyle>
	<gx:CascadingStyle kml:id="__managed_style_0D505CD1934141A881B4_normal">
		<Style>
			<IconStyle>
				<Icon>
					<href>https://earth.google.com/earth/document/icon?color=1976d2&amp;id=2000&amp;scale=4</href>
				</Icon>
				<hotSpot x="64" y="128" xunits="pixels" yunits="insetPixels"/>
			</IconStyle>
			<LabelStyle>
			</LabelStyle>
			<LineStyle>
				<color>ff2dc0fb</color>
				<width>3.2</width>
			</LineStyle>
			<PolyStyle>
				<color>40ffffff</color>
			</PolyStyle>
			<BalloonStyle>
			</BalloonStyle>
		</Style>
	</gx:CascadingStyle>
	<StyleMap id="__managed_style_0D505CD1934141A881B4">
		<Pair>
			<key>normal</key>
			<styleUrl>#__managed_style_0D505CD1934141A881B4_normal</styleUrl>
		</Pair>
		<Pair>
			<key>highlight</key>
			<styleUrl>#__managed_style_0D505CD1934141A881B4_highlight</styleUrl>
		</Pair>
	</StyleMap>
	<gx:CascadingStyle kml:id="__managed_style_0A75C8110F4141A881B6_highlight">
		<Style>
			<IconStyle>
				<scale>1.2</scale>
				<Icon>
					<href>https://earth.google.com/earth/document/icon?color=1976d2&amp;id=2000&amp;scale=4</href>
				</Icon>
				<hotSpot x="64" y="128" xunits="pixels" yunits="insetPixels"/>
			</IconStyle>
			<LabelStyle>
			</LabelStyle>
			<LineStyle>
				<color>fff5a542</color>
				<width>4.8</width>
			</LineStyle>
			<PolyStyle>
				<color>40ffffff</color>
			</PolyStyle>
			<BalloonStyle>
			</BalloonStyle>
		</Style>
	</gx:CascadingStyle>
	<gx:CascadingStyle kml:id="__managed_style_0A75C8110F4141A881B6_normal">
		<Style>
			<IconStyle>
				<Icon>
					<href>https://earth.google.com/earth/document/icon?color=1976d2&amp;id=2000&amp;scale=4</href>
				</Icon>
				<hotSpot x="64" y="128" xunits="pixels" yunits="insetPixels"/>
			</IconStyle>
			<LabelStyle>
			</LabelStyle>
			<LineStyle>
				<color>fff5a542</color>
				<width>3.2</width>
			</LineStyle>
			<PolyStyle>
				<color>40ffffff</color>
			</PolyStyle>
			<BalloonStyle>
			</BalloonStyle>
		</Style>
	</gx:CascadingStyle>
	<StyleMap id="__managed_style_0A75C8110F4141A881B6">
		<Pair>
			<key>normal</key>
			<styleUrl>#__managed_style_0A75C8110F4141A881B6_normal</styleUrl>
		</Pair>
		<Pair>
			<key>highlight</key>
			<styleUrl>#__managed_style_0A75C8110F4141A881B6_highlight</styleUrl>
		</Pair>
	</StyleMap>
	<Placemark id="005742DF4C4140382E90">
		<name>path 8</name>
		<LookAt>
			<longitude>85.80188846943734</longitude>
			<latitude>20.24653532837014</latitude>
			<altitude>42.30112301630714</altitude>
			<heading>-14.19089045480749</heading>
			<tilt>0.166994777660722</tilt>
			<gx:fovy>35</gx:fovy>
			<range>352.4773983435807</range>
			<altitudeMode>absolute</altitudeMode>
		</LookAt>
		<styleUrl>#__managed_style_0A75C8110F4141A881B6</styleUrl>
		<LineString>
			<coordinates>
				85.80120169999843,20.24674479263848,0 85.8011901485514,20.24701215471035,0 85.80113988966282,20.24701347564954,0 
			</coordinates>
		</LineString>
	</Placemark>
	<Placemark id="0074610670413F646ACE">
		<name>road 5</name>
		<LookAt>
			<longitude>85.80186620239316</longitude>
			<latitude>20.24779809686587</latitude>
			<altitude>44.60822611448119</altitude>
			<heading>-9.338479127888029</heading>
			<tilt>5.828694399188657</tilt>
			<gx:fovy>35</gx:fovy>
			<range>396.9446193520708</range>
			<altitudeMode>absolute</altitudeMode>
		</LookAt>
		<styleUrl>#__managed_style_0D505CD1934141A881B4</styleUrl>
		<LineString>
			<coordinates>
				85.80213756321507,20.24792811986667,0 85.80245291584387,20.24800353618667,0 85.80275217911191,20.24796103839841,0 
			</coordinates>
		</LineString>
	</Placemark>
	<Placemark id="00B2AAE7F6413F71D3E3">
		<name>path 6</name>
		<LookAt>
			<longitude>85.8016071214652</longitude>
			<latitude>20.24884271115275</latitude>
			<altitude>43.427651937541</altitude>
			<heading>350.6611198087075</heading>
			<tilt>0</tilt>
			<gx:fovy>35</gx:fovy>
			<range>342.0388102095239</range>
			<altitudeMode>absolute</altitudeMode>
		</LookAt>
		<styleUrl>#__managed_style_0A75C8110F4141A881B6</styleUrl>
		<LineString>
			<coordinates>
				85.80121617520915,20.24900791794441,0 85.80115038457272,20.24861086497876,0 
			</coordinates>
		</LineString>
	</Placemark>
	<Placemark id="0149A9D20641403495DC">
		<name>road 10</name>
		<LookAt>
			<longitude>85.80162731136858</longitude>
			<latitude>20.24611814830825</latitude>
			<altitude>40.95672594417756</altitude>
			<heading>358.4850210923587</heading>
			<tilt>0</tilt>
			<gx:fovy>35</gx:fovy>
			<range>349.6324407325665</range>
			<altitudeMode>absolute</altitudeMode>
		</LookAt>
		<styleUrl>#__managed_style_0D505CD1934141A881B4</styleUrl>
		<LineString>
			<coordinates>
				85.80085646091526,20.24671690891153,0 85.80089495910624,20.24637945371532,0 85.80123670973703,20.2463865893254,0 
			</coordinates>
		</LineString>
	</Placemark>
	<Placemark id="01DF37C6D0413F70D6BC">
		<name>road 8</name>
		<LookAt>
			<longitude>85.80224994600681</longitude>
			<latitude>20.24638645912319</latitude>
			<altitude>41.89643623947499</altitude>
			<heading>350.6613905351179</heading>
			<tilt>0</tilt>
			<gx:fovy>35</gx:fovy>
			<range>343.5700383112271</range>
			<altitudeMode>absolute</altitudeMode>
		</LookAt>
		<styleUrl>#__managed_style_0D505CD1934141A881B4</styleUrl>
		<LineString>
			<coordinates>
				85.802453276066,20.24614115248191,0 85.80272479932361,20.24612610317758,0 
			</coordinates>
		</LineString>
	</Placemark>
	<Placemark id="025D6740484140AB1EEF">
		<name>road 12</name>
		<LookAt>
			<longitude>85.80107805249349</longitude>
			<latitude>20.24929718710895</latitude>
			<altitude>46.1533892738922</altitude>
			<heading>-4.147858214696855</heading>
			<tilt>0.06871123023359348</tilt>
			<gx:fovy>30.0000000009058</gx:fovy>
			<range>597.3418054773357</range>
			<altitudeMode>absolute</altitudeMode>
		</LookAt>
		<styleUrl>#__managed_style_0D505CD1934141A881B4</styleUrl>
		<LineString>
			<coordinates>
				85.80031151523397,20.24863662454283,0 85.80031478704595,20.24872525182532,0 
			</coordinates>
		</LineString>
	</Placemark>
	<Placemark id="02D2B5AFB2413F63C1F8">
		<name>road 4</name>
		<LookAt>
			<longitude>85.8030021204475</longitude>
			<latitude>20.24609731112485</latitude>
			<altitude>43.10285268427908</altitude>
			<heading>1.788015521680242</heading>
			<tilt>1.366530248720397</tilt>
			<gx:fovy>35</gx:fovy>
			<range>400.5884624578175</range>
			<altitudeMode>absolute</altitudeMode>
		</LookAt>
		<styleUrl>#__managed_style_0D505CD1934141A881B4</styleUrl>
		<LineString>
			<coordinates>
				85.80278233154412,20.24582520515899,0 85.80198919143633,20.24581819447764,0 85.80203451579742,20.24546035859297,0 
			</coordinates>
		</LineString>
	</Placemark>
	<Placemark id="0610D74C7D413F608946">
		<name>road 2</name>
		<LookAt>
			<longitude>85.80107223878863</longitude>
			<latitude>20.24937864088315</latitude>
			<altitude>46.17622176977518</altitude>
			<heading>-0.009183156512949433</heading>
			<tilt>14.77735566226011</tilt>
			<gx:fovy>35</gx:fovy>
			<range>405.4557583233692</range>
			<altitudeMode>absolute</altitudeMode>
		</LookAt>
		<styleUrl>#__managed_style_0D505CD1934141A881B4</styleUrl>
		<LineString>
			<coordinates>
				85.80005859590787,20.25050320883252,0 85.80004371985139,20.25037988683907,0 85.80009009055254,20.25033663817747,0 85.80016798825926,20.2496250307884,0 85.80054227917519,20.2490550974176,0 
			</coordinates>
		</LineString>
	</Placemark>
	<Placemark id="06213670F2413F62DAF3">
		<name>Road 3</name>
		<LookAt>
			<longitude>85.80279396932403</longitude>
			<latitude>20.24543743977894</latitude>
			<altitude>42.23983817293282</altitude>
			<heading>1.788015524617335</heading>
			<tilt>1.366530434886969</tilt>
			<gx:fovy>35</gx:fovy>
			<range>401.4516889683728</range>
			<altitudeMode>absolute</altitudeMode>
		</LookAt>
		<styleUrl>#__managed_style_0D505CD1934141A881B4</styleUrl>
		<LineString>
			<coordinates>
				85.80004379774755,20.25037168700124,0 85.80002028855107,20.25030654981229,0 85.80010605411979,20.24958999987415,0 85.80042459591114,20.24891818825304,0 85.80039547000359,20.24874665853844,0 85.80031732410805,20.24871564685618,0 85.79998274758913,20.24858488239922,0 85.79990822905502,20.24851891510512,0 85.79987820725233,20.24837699033625,0 85.79997622849386,20.24820361033749,0 85.80014383889278,20.24790527379846,0 85.80024421440308,20.2476593315798,0 85.80033390527997,20.24762830552534,0 85.8006129363158,20.24775742770934,0 85.80088787291832,20.24732386633104,0 85.80113810716041,20.24730617254193,0 85.80122811079453,20.24725750059772,0 85.80129586296641,20.24718541922602,0 85.80199605629377,20.24721048770114,0 85.80206832028736,20.24715678441471,0 85.80208569764915,20.24614946909293,0 85.80246775575381,20.24614117376108,0 85.80247749787438,20.24678498217692,0 85.80266098323106,20.24668490371789,0 85.80275270408707,20.24654190352341,0 85.80275434225452,20.24632421329919,0 85.80272084322357,20.24609169489421,0 85.80279077669158,20.24580150476359,0 85.80282312007527,20.24545205911356,0 85.80272527876576,20.2453631802461,0 85.80248454980196,20.24536231009308,0 85.80234107642994,20.24544054238218,0 85.80200536096655,20.24546368115322,0 85.80189526724101,20.24548671326221,0 85.80186213018995,20.24540592383523,0 85.80150995944454,20.24540632763717,0 85.80147569074944,20.24570996101628,0 
			</coordinates>
		</LineString>
	</Placemark>
	<Placemark id="0651A2FFB6413F68F860">
		<name>path 1</name>
		<LookAt>
			<longitude>85.80127032116359</longitude>
			<latitude>20.24778739364386</latitude>
			<altitude>42.72490834437971</altitude>
			<heading>350.6611612776478</heading>
			<tilt>0</tilt>
			<gx:fovy>35</gx:fovy>
			<range>398.8227929385903</range>
			<altitudeMode>absolute</altitudeMode>
		</LookAt>
		<styleUrl>#__managed_style_0A75C8110F4141A881B6</styleUrl>
		<LineString>
			<coordinates>
				85.80065906582595,20.24777346590473,0 85.80104120206234,20.24828592397727,0 
			</coordinates>
		</LineString>
	</Placemark>
	<Placemark id="07B0BAC0EC414029FA7B">
		<name>path 7</name>
		<LookAt>
			<longitude>85.80210754427708</longitude>
			<latitude>20.24863670366402</latitude>
			<altitude>44.46805977333052</altitude>
			<heading>350.6611079213839</heading>
			<tilt>0</tilt>
			<gx:fovy>35</gx:fovy>
			<range>337.615620325305</range>
			<altitudeMode>absolute</altitudeMode>
		</LookAt>
		<styleUrl>#__managed_style_0A75C8110F4141A881B6</styleUrl>
		<LineString>
			<coordinates>
				85.80162580179939,20.24853119222233,0 85.80164840437382,20.24867006616946,0 85.80195221255268,20.24862382611101,0 
			</coordinates>
		</LineString>
	</Placemark>
	<Placemark id="08543655E44140AB7B76">
		<name>road 13</name>
		<LookAt>
			<longitude>85.80107805249349</longitude>
			<latitude>20.24929718710895</latitude>
			<altitude>46.1533892738922</altitude>
			<heading>-4.147858214696855</heading>
			<tilt>0.06871123023359348</tilt>
			<gx:fovy>30.0000000009058</gx:fovy>
			<range>597.3418054773357</range>
			<altitudeMode>absolute</altitudeMode>
		</LookAt>
		<styleUrl>#__managed_style_0D505CD1934141A881B4</styleUrl>
		<LineString>
			<coordinates>
				85.80040129135287,20.24875076461956,0 85.80045000800627,20.24869140774011,0 
			</coordinates>
		</LineString>
	</Placemark>
	<Placemark id="0893C461D5413F707157">
		<name>path 5</name>
		<LookAt>
			<longitude>85.80258136207955</longitude>
			<latitude>20.24622861260146</latitude>
			<altitude>42.0642629687577</altitude>
			<heading>350.6615220849237</heading>
			<tilt>0</tilt>
			<gx:fovy>35</gx:fovy>
			<range>343.402209314263</range>
			<altitudeMode>absolute</altitudeMode>
		</LookAt>
		<styleUrl>#__managed_style_0A75C8110F4141A881B6</styleUrl>
		<LineString>
			<coordinates>
				85.80199034882594,20.24581955106689,0 85.80195551449867,20.24610891823746,0 85.80208722190551,20.24615721281372,0 
			</coordinates>
		</LineString>
	</Placemark>
	<Placemark id="08A28FDDFA413F64F65C">
		<name>road 6</name>
		<LookAt>
			<longitude>85.80115531730648</longitude>
			<latitude>20.24895370792304</latitude>
			<altitude>45.97384073544325</altitude>
			<heading>-9.338725156659512</heading>
			<tilt>5.828693145062368</tilt>
			<gx:fovy>35</gx:fovy>
			<range>395.571902852389</range>
			<altitudeMode>absolute</altitudeMode>
		</LookAt>
		<styleUrl>#__managed_style_0D505CD1934141A881B4</styleUrl>
		<LineString>
			<coordinates>
				85.8009323858564,20.24944849493584,0 85.80146569029358,20.2492908774003,0 85.801364717746,20.24896238473743,0 85.80076990710653,20.24915681650865,0 
			</coordinates>
		</LineString>
	</Placemark>
	<Placemark id="09C8548E9841403F086F">
		<name>road 11</name>
		<LookAt>
			<longitude>85.80202395488021</longitude>
			<latitude>20.24613054206934</latitude>
			<altitude>41.058982868575</altitude>
			<heading>0</heading>
			<tilt>0</tilt>
			<gx:fovy>30.00000001286377</gx:fovy>
			<range>577.222119511498</range>
			<altitudeMode>absolute</altitudeMode>
		</LookAt>
		<styleUrl>#__managed_style_0D505CD1934141A881B4</styleUrl>
		<LineString>
			<coordinates>
				85.80167995137784,20.24677980744521,0 85.80175397931933,20.24675548473881,0 85.80177611137596,20.24649670076957,0 
			</coordinates>
		</LineString>
	</Placemark>
	<Placemark id="0B048386E0413F6ECD33">
		<name>path 3</name>
		<LookAt>
			<longitude>85.80057263492856</longitude>
			<latitude>20.24953463791968</latitude>
			<altitude>12.13991024890912</altitude>
			<heading>350.6609394615039</heading>
			<tilt>0</tilt>
			<gx:fovy>35</gx:fovy>
			<range>330.4471170481129</range>
			<altitudeMode>absolute</altitudeMode>
		</LookAt>
		<styleUrl>#__managed_style_0A75C8110F4141A881B6</styleUrl>
		<LineString>
			<coordinates>
				85.80056509691767,20.24983791159516,0 85.80021731969694,20.24954455482281,0 
			</coordinates>
		</LineString>
	</Placemark>
	<Placemark id="0BF881744C413F5F7E90">
		<name>road 1</name>
		<LookAt>
			<longitude>85.80199366963159</longitude>
			<latitude>20.2480642420575</latitude>
			<altitude>44.88216602613372</altitude>
			<heading>-0.009183156784627135</heading>
			<tilt>14.77735873250004</tilt>
			<gx:fovy>35</gx:fovy>
			<range>406.7940792656009</range>
			<altitudeMode>absolute</altitudeMode>
		</LookAt>
		<styleUrl>#__managed_style_0D505CD1934141A881B4</styleUrl>
		<LineString>
			<coordinates>
				85.80012250150385,20.25070095285718,0 85.80006141844376,20.25049503583386,0 85.80023670086482,20.25047931359328,0 85.80024770287172,20.25016926940927,0 85.80039797636175,20.25015109386954,0 85.80051263727071,20.24987070003344,0 85.80064362497136,20.24979324194648,0 85.80079901375946,20.24972333491137,0 85.8009011127331,20.24961227974527,0 85.80093420044479,20.24950641254268,0 85.80092877037609,20.24939805600407,0 85.80088197913109,20.24929213622516,0 85.80079409723247,20.24917108912305,0 85.80066961622134,20.24909255066904,0 85.80053617216313,20.2490678206522,0 85.80056115760986,20.24898277777047,0 85.80045957032733,20.24872739234074,0 85.80043678304885,20.24863870367321,0 85.80036043034853,20.24861793088922,0 85.80028751882199,20.2486413901502,0 85.79996849255147,20.24851601051779,0 85.799952413139,20.24841407372918,0 85.80003080494588,20.24822353492342,0 85.80010492019595,20.24809942090537,0 85.8001605708229,20.24799961179605,0 85.80023599896968,20.24785087543748,0 85.80031324112863,20.24767409687206,0 85.8006155685959,20.24780669312293,0 85.80077677307827,20.24765828743917,0 85.80095782437053,20.2473856290527,0 85.80116575742205,20.24737801760774,0 85.80131259549346,20.24730293044661,0 85.80185728726603,20.24731425103151,0 85.80215362866635,20.24792336305386,0 85.80203028421461,20.24801228407429,0 85.80160025671785,20.24818832152069,0 85.80162548878415,20.24852585996453,0 85.80110379734457,20.24862257538594,0 85.80104211587907,20.24827975055802,0 85.80161394753837,20.24817787611709,0 
			</coordinates>
		</LineString>
	</Placemark>
	<Placemark id="0CD369158441403AD28C">
		<name>path 10</name>
		<LookAt>
			<longitude>85.80189144751317</longitude>
			<latitude>20.24648000456714</latitude>
			<altitude>42.10907285083555</altitude>
			<heading>-14.19088942535941</heading>
			<tilt>0.1669947824011006</tilt>
			<gx:fovy>35</gx:fovy>
			<range>352.6694479318758</range>
			<altitudeMode>absolute</altitudeMode>
		</LookAt>
		<styleUrl>#__managed_style_0A75C8110F4141A881B6</styleUrl>
		<LineString>
			<coordinates>
				85.80164615844906,20.24677864908733,0 85.80164215640453,20.24690929920886,0 
			</coordinates>
		</LineString>
	</Placemark>
	<Placemark id="0D10D6DB33413F6F2D99">
		<name>path 4</name>
		<LookAt>
			<longitude>85.80102901328037</longitude>
			<latitude>20.24853898602952</latitude>
			<altitude>0</altitude>
			<heading>350.6610868429074</heading>
			<tilt>0</tilt>
			<gx:fovy>35</gx:fovy>
			<range>342.5870272931577</range>
			<altitudeMode>absolute</altitudeMode>
		</LookAt>
		<styleUrl>#__managed_style_0A75C8110F4141A881B6</styleUrl>
		<LineString>
			<coordinates>
				85.80042523616773,20.24863897680741,0 85.80056130390545,20.2477846472466,0 
			</coordinates>
		</LineString>
	</Placemark>
	<Placemark id="0D83EB4A1E413F65B9A9">
		<name>road 7</name>
		<LookAt>
			<longitude>85.8013400313541</longitude>
			<latitude>20.25002875561158</latitude>
			<altitude>45.58751585857635</altitude>
			<heading>-9.33866123107901</heading>
			<tilt>5.828693499150201</tilt>
			<gx:fovy>35</gx:fovy>
			<range>395.9602203520626</range>
			<altitudeMode>absolute</altitudeMode>
		</LookAt>
		<styleUrl>#__managed_style_0D505CD1934141A881B4</styleUrl>
		<LineString>
			<coordinates>
				85.80040465447463,20.2501546116045,0 85.8010989502731,20.25014796166183,0 85.80110427822935,20.25046914362257,0 85.80109245832642,20.24992632736922,0 
			</coordinates>
		</LineString>
	</Placemark>
	<Placemark id="0F255076BB4140336514">
		<name>road 9</name>
		<LookAt>
			<longitude>85.80166715593211</longitude>
			<latitude>20.24633220448152</latitude>
			<altitude>41.36290513404524</altitude>
			<heading>358.4850227538958</heading>
			<tilt>0</tilt>
			<gx:fovy>35</gx:fovy>
			<range>349.2262996589853</range>
			<altitudeMode>absolute</altitudeMode>
		</LookAt>
		<styleUrl>#__managed_style_0D505CD1934141A881B4</styleUrl>
		<LineString>
			<coordinates>
				85.8002378949686,20.24765582599978,0 85.80063764274543,20.24674993859289,0 85.80079293095804,20.24670958653364,0 85.80170478321412,20.2467820778304,0 
			</coordinates>
		</LineString>
	</Placemark>
	<Placemark id="0F8F8F95F7413F69C416">
		<name>path 2</name>
		<LookAt>
			<longitude>85.80154316792745</longitude>
			<latitude>20.248528169009</latitude>
			<altitude>43.87048092708147</altitude>
			<heading>350.6612380177689</heading>
			<tilt>0</tilt>
			<gx:fovy>35</gx:fovy>
			<range>397.6772632678332</range>
			<altitudeMode>absolute</altitudeMode>
		</LookAt>
		<styleUrl>#__managed_style_0A75C8110F4141A881B6</styleUrl>
		<LineString>
			<coordinates>
				85.8004726538877,20.2487609744453,0 85.80110413217469,20.24862052600754,0 
			</coordinates>
		</LineString>
	</Placemark>
</Document>
</kml>
<?earth data="CvYCCvMCCssCChQwMDU3NDJERjRDNDE0MDM4MkU5MBLFARJOChIZjKh08Bw_NEAhd9EDJFJzVUARWI7xMosmRUAYASGSCMlkvGEswCly6lO6FWDFPzGADXJsowd2QEEAAAAAAIBBQEkAAAAAAAAAgFABGAEiBnBhdGggOEACSmcSZRJjCh0KEhkw166qKj80QCGLv37jRnNVQCkAAAAAAAAAAAodChIZCTJGMDw_NEAh9nkLs0ZzVUApAAAAAAAAAAAKHQoSGQiWb0Y8PzRAId1nPuBFc1VAKQAAAAAAAAAAEAIYACAAMmsKJAogCgMI0A8aBwjS7WUQ_wEhAAAAAAAA8D8pAAAAAAAAAAAYABIPCggI9cuKAhD_ARCgHxgAGhoKBwj___8HEEASCAj1y4oCEP8BGKAfIAAoACICCAIqEggBEgUI____BxkAAAAAAADwPxIAGiExRmpvdlVYWVdpV2dKandvblF6bm1IN0lHcndVWmxJX0YK9gIK8wIKywIKFDAwNzQ2MTA2NzA0MTNGNjQ2QUNFEsUBEk4KEhnLDDKybz80QCH3wp7GUXNVQBGLInNa2k1GQBgBIbxQ4SJNrSLAKRmTu0OVUBdAMQKFLikdz3hAQQAAAAAAgEFASQAAAAAAAAAAUAEYASIGcm9hZCA1QAJKZxJlEmMKHQoSGQyWnjd4PzRAIbg5yjhWc1VAKQAAAAAAAAAACh0KEhnPNuUofT80QCFGiHljW3NVQCkAAAAAAAAAAAodChIZdprmX3o_NEAhBAWtSmBzVUApAAAAAAAAAAAQAhgAIAAyawokCiAKAwjQDxoHCNLtZRD_ASEAAAAAAADwPykAAAAAAAAAABgAEg8KCAitgO8HEP8BEKAfGAAaGgoHCP___wcQQBIICK2A7wcQ_wEYoB8gACgAIgIIAioSCAESBQj___8HGQAAAAAAAPA_EgAaITFGam92VVhZV2lXZ0pqd29uUXpubUg3SUdyd1VabElfRgrXAgrUAgqsAgoUMDBCMkFBRTdGNjQxM0Y3MUQzRTMSpgESTgoSGcA_6ie0PzRAIcK79IdNc1VAEaLndky9tkVAGAEhL1Jd8pPqdUApAAAAAAAAAAAxgEp0955gdUBBAAAAAACAQUBJAAAAAAAAAABQARgBIgZwYXRoIDZAAkpIEkYSRAodChIZKwSg-74_NEAhK2M1IEdzVUApAAAAAAAAAAAKHQoSGZmDLvakPzRAIbs6QwxGc1VAKQAAAAAAAAAAEAIYACAAMmsKJAogCgMI0A8aBwjS7WUQ_wEhAAAAAAAA8D8pAAAAAAAAAAAYABIPCggI9cuKAhD_ARCgHxgAGhoKBwj___8HEEASCAj1y4oCEP8BGKAfIAAoACICCAIqEggBEgUI____BxkAAAAAAADwPxIAGiExRmpvdlVYWVdpV2dKandvblF6bm1IN0lHcndVWmxJX0YK9wIK9AIKzAIKFDAxNDlBOUQyMDY0MTQwMzQ5NURDEsYBEk4KEhme71WZAT80QCEkeqPcTXNVQBEZvej-dXpEQBgBIdAYeqXCZ3ZAKQAAAAAAAAAAMYBwLHoe2nVAQQAAAAAAgEFASQAAAAAAAAAAUAEYASIHcm9hZCAxMEACSmcSZRJjCh0KEhkuJd_WKD80QCH3GnU7QXNVQCkAAAAAAAAAAAodChIZGR1QuRI_NEAhIDnu3EFzVUApAAAAAAAAAAAKHQoSGVlTBzETPzRAITYrVnZHc1VAKQAAAAAAAAAAEAIYACAAMmsKJAogCgMI0A8aBwjS7WUQ_wEhAAAAAAAA8D8pAAAAAAAAAAAYABIPCggIrYDvBxD_ARCgHxgAGhoKBwj___8HEEASCAitgO8HEP8BGKAfIAAoACICCAIqEggBEgUI____BxkAAAAAAADwPxIAGiExRmpvdlVYWVdpV2dKandvblF6bm1IN0lHcndVWmxJX0YK1wIK1AIKrAIKFDAxREYzN0M2RDA0MTNGNzBENkJDEqYBEk4KEhmBHNguEz80QCFKVCgQWHNVQBFGvzVsvvJEQBgBIXLjPQ6V6nVAKQAAAAAAAAAAMQADfuAeeXVAQQAAAAAAgEFASQAAAAAAAAAAUAEYASIGcm9hZCA4QAJKSBJGEkQKHQoSGQwcSBsDPzRAIWFR_GRbc1VAKQAAAAAAAAAACh0KEhny1sseAj80QCEeMtbXX3NVQCkAAAAAAAAAABACGAAgADJrCiQKIAoDCNAPGgcI0u1lEP8BIQAAAAAAAPA_KQAAAAAAAAAAGAASDwoICK2A7wcQ_wEQoB8YABoaCgcI____BxBAEggIrYDvBxD_ARigHyAAKAAiAggCKhIIARIFCP___wcZAAAAAAAA8D8SABohMUZqb3ZVWFlXaVdnSmp3b25Rem5tSDdJR3J3VVpsSV9GCtgCCtUCCq0CChQwMjVENjc0MDQ4NDE0MEFCMUVFRhKnARJOChIZJZ7B8NE_NEAhMEDh3ERzVUARTHZ9QqITR0AYASGSRdIkaJcQwCk_obgmD5exPzEBloIEvKqCQEHw4wMAAAA-QEkAAAAAAAAAAFABGAEiB3JvYWQgMTJAAkpIEkYSRAodChIZ0f9apqY_NEAhsiLKTThzVUApAAAAAAAAAAAKHQoSGXNHRnWsPzRAIYY3g1s4c1VAKQAAAAAAAAAAEAIYACAAMmsKJAogCgMI0A8aBwjS7WUQ_wEhAAAAAAAA8D8pAAAAAAAAAAAYABIPCggIrYDvBxD_ARCgHxgAGhoKBwj___8HEEASCAitgO8HEP8BGKAfIAAoACICCAIqEggBEgUI____BxkAAAAAAADwPxIAGiExRmpvdlVYWVdpV2dKandvblF6bm1IN0lHcndVWmxJX0YK9gIK8wIKywIKFDAyRDJCNUFGQjI0MTNGNjNDMUY4EsUBEk4KEhku6r47AD80QCE0fAFjZHNVQBFppNlGKo1FQBgBIVm25Sm2m_w_KUr7c9JO3fU_MQA0nFdqCXlAQQAAAAAAgEFASQAAAAAAAACAUAEYASIGcm9hZCA0QAJKZxJlEmMKHQoSGbqwkGbuPjRAIXnyJMlgc1VAKQAAAAAAAAAACh0KEhkQC_Lw7T40QCG7PXnKU3NVQCkAAAAAAAAAAAodChIZCZ90fdY-NEAhPeeTiFRzVUApAAAAAAAAAAAQAhgAIAAyawokCiAKAwjQDxoHCNLtZRD_ASEAAAAAAADwPykAAAAAAAAAABgAEg8KCAitgO8HEP8BEKAfGAAaGgoHCP___wcQQBIICK2A7wcQ_wEYoB8gACgAIgIIAioSCAESBQj___8HGQAAAAAAAPA_EgAaITFGam92VVhZV2lXZ0pqd29uUXpubUg3SUdyd1VabElfRgq3Awq0AwqMAwoUMDYxMEQ3NEM3RDQxM0Y2MDg5NDYShgISTgoSGf_pUkfXPzRAISrVfsREc1VAEYkDWW-OFkdAGAEhAWYtZ57Ogr8pBIm1jwGOLUAxAlw9yUpXeUBBAAAAAACAQUBJAAAAAAAAAABQARgBIgZyb2FkIDJAAkqnARKkARKhAQodChIZjnpx-iBANEAhthP4KDRzVUApAAAAAAAAAAAKHQoSGcyMceUYQDRAIXEIk-ozc1VAKQAAAAAAAAAACh0KEhl69tkPFkA0QCG4MRGtNHNVQCkAAAAAAAAAAAodChIZy38Pbec_NEAhTDjL8zVzVUApAAAAAAAAAAAKHQoSGYhPKhPCPzRAIdsHrxU8c1VAKQAAAAAAAAAAEAIYACAAMmsKJAogCgMI0A8aBwjS7WUQ_wEhAAAAAAAA8D8pAAAAAAAAAAAYABIPCggIrYDvBxD_ARCgHxgAGhoKBwj___8HEEASCAitgO8HEP8BGKAfIAAoACICCAIqEggBEgUI____BxkAAAAAAADwPxIAGiExRmpvdlVYWVdpV2dKandvblF6bm1IN0lHcndVWmxJX0YKlwsKlAsK7AoKFDA2MjEzNjcwRjI0MTNGNjJEQUYzEuYJEk4KEhmDEPH81D40QCEO6_T5YHNVQBEYimoEsx5FQBgBITyMryq2m_w_KUNAbQRP3fU_MQAyNh46F3lAQQAAAAAAgEFASQAAAAAAAAAAUAEYASIGUm9hZCAzQAJKhwkShAkSgQkKHQoSGcKD31sYQDRAIWCs5uozc1VAKQAAAAAAAAAACh0KEhkcaw0XFEA0QCGn3UuIM3NVQCkAAAAAAAAAAAodChIZPt5WIeU_NEAhrPEF8DRzVUApAAAAAAAAAAAKHQoSGSjtNRq5PzRAIY2WFSg6c1VAKQAAAAAAAAAACh0KEhlwaWvcrT80QCEM4uutOXNVQCkAAAAAAAAAAAodChIZMkAh1Ks_NEAh2F0nZjhzVUApAAAAAAAAAAAKHQoSGUYvREKjPzRAIZyQ1uoyc1VAKQAAAAAAAAAACh0KEhlb0ITvnj80QCHt5UiyMXNVQCkAAAAAAAAAAAodChIZtpJqopU_NEAhpDtdNDFzVUApAAAAAAAAAAAKHQoSGQ4mlUWKPzRAIVm9fs8yc1VAKQAAAAAAAAAACh0KEhlleFO4dj80QCH8CIGONXNVQCkAAAAAAAAAAAodChIZOa8ZmmY_NEAhKmuCMzdzVUApAAAAAAAAAAAKHQoSGZXLkZFkPzRAIa1Ds6s4c1VAKQAAAAAAAAAACh0KEhlLWuEHbT80QCHHjgo-PXNVQCkAAAAAAAAAAAodChIZf2ntnVA_NEAhn3w1v0FzVUApAAAAAAAAAAAKHQoSGaIqE3VPPzRAIVV1xNhFc1VAKQAAAAAAAAAACh0KEhkHwn5ETD80QCHlH0VSR3NVQCkAAAAAAAAAAAodChIZsZ8ri0c_NEAhGHdxbkhzVUApAAAAAAAAAAAKHQoSGZTnvy9JPzRAIWBTROdTc1VAKQAAAAAAAAAACh0KEhm0C8KqRT80QCGuMl0WVXNVQCkAAAAAAAAAAAodChIZkK7PpgM_NEAhhP8_X1VzVUApAAAAAAAAAAAKHQoSGb6AoxsDPzRAIajDt6Fbc1VAKQAAAAAAAAAACh0KEhkDmPNMLT80QCFeSZTKW3NVQCkAAAAAAAAAAAodChIZoOLpvSY_NEAhKzAszF5zVUApAAAAAAAAAAAKHQoSGQa6xF4dPzRAIRe14Exgc1VAKQAAAAAAAAAACh0KEhk7VYgaDz80QCEhrb9TYHNVQCkAAAAAAAAAAAodChIZSWOF3f8-NEAhnl0-x19zVUApAAAAAAAAAAAKHQoSGWdE8NjsPjRAIe7akOxgc1VAKQAAAAAAAAAACh0KEhnroDby1T40QCGLTDl0YXNVQCkAAAAAAAAAAAodChIZr8wSH9A-NEAhLP7Y2V9zVUApAAAAAAAAAAAKHQoSGVKFeRDQPjRAIXY8KOhbc1VAKQAAAAAAAAAACh0KEhncpP4w1T40QCFC4GKOWXNVQCkAAAAAAAAAAAodChIZq-gytdY-NEAhWiRLDlRzVUApAAAAAAAAAAAKHQoSGU8QnTfYPjRAIYLnhkBSc1VAKQAAAAAAAAAACh0KEhnxHTHs0j40QCFFRIq1UXNVQCkAAAAAAAAAAAodChIZ4G738tI-NEAh485t8EtzVUApAAAAAAAAAAAKHQoSGcvdFtnmPjRAIbQTsmBLc1VAKQAAAAAAAAAAEAIYACAAMmsKJAogCgMI0A8aBwjS7WUQ_wEhAAAAAAAA8D8pAAAAAAAAAAAYABIPCggIrYDvBxD_ARCgHxgAGhoKBwj___8HEEASCAitgO8HEP8BGKAfIAAoACICCAIqEggBEgUI____BxkAAAAAAADwPxIAGiExRmpvdlVYWVdpV2dKandvblF6bm1IN0lHcndVWmxJX0YK1wIK1AIKrAIKFDA2NTFBMkZGQjY0MTNGNjhGODYwEqYBEk4KEhm8D6D-bj80QCHLKVADSHNVQBGs2u_LyVxFQBgBIQ8O2R2U6nVAKQAAAAAAAAAAMQCq7Sgq7XhAQQAAAAAAgEFASQAAAAAAAAAAUAEYASIGcGF0aCAxQAJKSBJGEkQKHQoSGZzg9BRuPzRAIfq9hf89c1VAKQAAAAAAAAAACh0KEhkeipOqjz80QCHNZlFCRHNVQCkAAAAAAAAAABACGAAgADJrCiQKIAoDCNAPGgcI0u1lEP8BIQAAAAAAAPA_KQAAAAAAAAAAGAASDwoICPXLigIQ_wEQoB8YABoaCgcI____BxBAEggI9cuKAhD_ARigHyAAKAAiAggCKhIIARIFCP___wcZAAAAAAAA8D8SABohMUZqb3ZVWFlXaVdnSmp3b25Rem5tSDdJR3J3VVpsSV9GCvYCCvMCCssCChQwN0IwQkFDMEVDNDE0MDI5RkE3QhLFARJOChIZe9Kup6Y_NEAh4KLhulVzVUARjYP1Yek7RkAYASGHV-blk-p1QCkAAAAAAAAAADEBv7KU2Rl1QEEAAAAAAIBBQEkAAAAAAAAAAFABGAEiBnBhdGggN0ACSmcSZRJjCh0KEhl9oX69nz80QCHslk7WTXNVQCkAAAAAAAAAAAodChIZJrFp16g_NEAhRusbNU5zVUApAAAAAAAAAAAKHQoSGTgnos-lPzRAIZd3Xy9Tc1VAKQAAAAAAAAAAEAIYACAAMmsKJAogCgMI0A8aBwjS7WUQ_wEhAAAAAAAA8D8pAAAAAAAAAAAYABIPCggI9cuKAhD_ARCgHxgAGhoKBwj___8HEEASCAj1y4oCEP8BGKAfIAAoACICCAIqEggBEgUI____BxkAAAAAAADwPxIAGiExRmpvdlVYWVdpV2dKandvblF6bm1IN0lHcndVWmxJX0YK2AIK1QIKrQIKFDA4NTQzNjU1RTQ0MTQwQUI3Qjc2EqcBEk4KEhklnsHw0T80QCEwQOHcRHNVQBFMdn1CohNHQBgBIZJF0iRolxDAKT-huCYPl7E_MQGWggS8qoJAQfDjAwAAAD5ASQAAAAAAAAAAUAEYASIHcm9hZCAxM0ACSkgSRhJECh0KEhlh5U4hrj80QCFaglbGOXNVQCkAAAAAAAAAAAodChIZPQp3Pao_NEAhEp6rkjpzVUApAAAAAAAAAAAQAhgAIAAyawokCiAKAwjQDxoHCNLtZRD_ASEAAAAAAADwPykAAAAAAAAAABgAEg8KCAitgO8HEP8BEKAfGAAaGgoHCP___wcQQBIICK2A7wcQ_wEYoB8gACgAIgIIAioSCAESBQj___8HGQAAAAAAAPA_EgAaITFGam92VVhZV2lXZ0pqd29uUXpubUg3SUdyd1VabElfRgr2AgrzAgrLAgoUMDg5M0M0NjFENTQxM0Y3MDcxNTcSxQESTgoSGXR2ntYIPzRAIbGgN35dc1VAEUCU2sQ5CEVAGAEhRIUumJXqdUApAAAAAAAAAAAxgK4Ic292dUBBAAAAAACAQUBJAAAAAAAAAABQARgBIgZwYXRoIDVAAkpnEmUSYwodChIZuoy0B-4-NEAhkPpTz1NzVUApAAAAAAAAAAAKHQoSGXYVe_4APzRAIZjnOD1Tc1VAKQAAAAAAAAAACh0KEhmdtbooBD80QCHqp6RlVXNVQCkAAAAAAAAAABACGAAgADJrCiQKIAoDCNAPGgcI0u1lEP8BIQAAAAAAAPA_KQAAAAAAAAAAGAASDwoICPXLigIQ_wEQoB8YABoaCgcI____BxBAEggI9cuKAhD_ARigHyAAKAAiAggCKhIIARIFCP___wcZAAAAAAAA8D8SABohMUZqb3ZVWFlXaVdnSmp3b25Rem5tSDdJR3J3VVpsSV9GCpgDCpUDCu0CChQwOEEyOEZEREZBNDEzRjY0RjY1QxLnARJOChIZVr8hbrs_NEAhQ7bzIEZzVUAR5B4v0Kb8RkAYASHDXjxiba0iwClZ2ZHvlFAXQDEA-JqDJrl4QEEAAAAAAIBBQEkAAAAAAAAAgFABGAEiBnJvYWQgNkACSogBEoUBEoIBCh0KEhkvyUfb2z80QCHf4-h5QnNVQCkAAAAAAAAAAAodChIZHaDlhtE_NEAhVCvANktzVUApAAAAAAAAAAAKHQoSGaVhtP-7PzRAIcq4PY9Jc1VAKQAAAAAAAAAACh0KEhnperq9yD80QCEvqWzQP3NVQCkAAAAAAAAAABACGAAgADJrCiQKIAoDCNAPGgcI0u1lEP8BIQAAAAAAAPA_KQAAAAAAAAAAGAASDwoICK2A7wcQ_wEQoB8YABoaCgcI____BxBAEggIrYDvBxD_ARigHyAAKAAiAggCKhIIARIFCP___wcZAAAAAAAA8D8SABohMUZqb3ZVWFlXaVdnSmp3b25Rem5tSDdJR3J3VVpsSV9GCvcCCvQCCswCChQwOUM4NTQ4RTk4NDE0MDNGMDg2RhLGARJOChIZDLxEaQI_NEAhbDRIXFRzVUAR5sYpwIyHREAYASEAAAAAAAAAACkAAAAAAAAAADGALZjmxgmCQEHdPzcAAAA-QEkAAAAAAAAAAFABGAEiB3JvYWQgMTFAAkpnEmUSYwodChIZVUoi9iw_NEAhtUFtuU5zVUApAAAAAAAAAAAKHQoSGdQPEV4rPzRAIVIn7O9Pc1VAKQAAAAAAAAAACh0KEhmQYGRoGj80QCG5RMBMUHNVQCkAAAAAAAAAABACGAAgADJrCiQKIAoDCNAPGgcI0u1lEP8BIQAAAAAAAPA_KQAAAAAAAAAAGAASDwoICK2A7wcQ_wEQoB8YABoaCgcI____BxBAEggIrYDvBxD_ARigHyAAKAAiAggCKhIIARIFCP___wcZAAAAAAAA8D8SABohMUZqb3ZVWFlXaVdnSmp3b25Rem5tSDdJR3J3VVpsSV9GCtcCCtQCCqwCChQwQjA0ODM4NkUwNDEzRjZFQ0QzMxKmARJOChIZkRWFgOE_NEAhzkUBlTxzVUARN-HuUKJHKEAYASG5vEE1k-p1QCkAAAAAAAAAADEQsjRkJ6d0QEEAAAAAAIBBQEkAAAAAAAAAAFABGAEiBnBhdGggM0ACSkgSRhJECh0KEhknmptg9T80QCEmZWN1PHNVQCkAAAAAAAAAAAodChIZ3tvlJuI_NEAhonK0wjZzVUApAAAAAAAAAAAQAhgAIAAyawokCiAKAwjQDxoHCNLtZRD_ASEAAAAAAADwPykAAAAAAAAAABgAEg8KCAj1y4oCEP8BEKAfGAAaGgoHCP___wcQQBIICPXLigIQ_wEYoB8gACgAIgIIAioSCAESBQj___8HGQAAAAAAAPA_EgAaITFGam92VVhZV2lXZ0pqd29uUXpubUg3SUdyd1VabElfRgr0CwrxCwrJCwoUMEJGODgxNzQ0QzQxM0Y1RjdFOTASwwoSTgoSGarxXiOBPzRAIauqQd1Tc1VAEX3x-9DqcEZAGAEhzhmDcJ7Ogr8pBbK69gGOLUAxAMN1jLRseUBBAAAAAACAQUBJ0P3WryM9ez1QARgBIgZyb2FkIDFAAkrkCRLhCRLeCQodChIZ_5gJ8C1ANEAhLTACNTVzVUApAAAAAAAAAAAKHQoSGYC3UnEgQDRAIXjAzjQ0c1VAKQAAAAAAAAAACh0KEhkqNYxpH0A0QCF-0f4TN3NVQCkAAAAAAAAAAAodChIZuJPeFwtANEAhHyIkQjdzVUApAAAAAAAAAAAKHQoSGXI67-YJQDRAIYgQb7g5c1VAKQAAAAAAAAAACh0KEhlM37SG9z80QCEyR1uZO3NVQCkAAAAAAAAAAAodChIZBOwsc_I_NEAhL0DCvj1zVUApAAAAAAAAAAAKHQoSGQ1-VN7tPzRAIQWxgUpAc1VAKQAAAAAAAAAACh0KEhmbLyKX5j80QCEyob32QXNVQCkAAAAAAAAAAAodChIZWQP6pt8_NEAhIUqFgUJzVUApAAAAAAAAAAAKHQoSGTU5Do3YPzRAITbMvmpCc1VAKQAAAAAAAAAACh0KEhmuPASc0T80QCG5FH2mQXNVQCkAAAAAAAAAAAodChIZZuQurck_NEAhX5ziNUBzVUApAAAAAAAAAAAKHQoSGf3MhofEPzRAIZQkxis-c1VAKQAAAAAAAAAACh0KEhnrL6Dowj80QCEqrRH8O3NVQCkAAAAAAAAAAAodChIZmsrXVb0_NEAhd5jdZDxzVUApAAAAAAAAAAAKHQoSGQ25L5msPzRAId8Ux7o6c1VAKQAAAAAAAAAACh0KEhnZyzzJpj80QCF1bTNbOnNVQCkAAAAAAAAAAAodChIZT166bKU_NEAhAVf0GjlzVUApAAAAAAAAAAAKHQoSGYogT_amPzRAITIvJOk3c1VAKQAAAAAAAAAACh0KEhnRtMm-nj80QCGyVQyvMnNVQCkAAAAAAAAAAAodChIZcYiSEJg_NEAhczKbazJzVUApAAAAAAAAAAAKHQoSGfaX3JOLPzRAIT_CZ7Qzc1VAKQAAAAAAAAAACh0KEhny8ZJxgz80QCEPZ0TrNHNVQCkAAAAAAAAAAAodChIZsBUO53w_NEAh6s6u1DVzVUApAAAAAAAAAAAKHQoSGflJrCdzPzRAIQcqDRE3c1VAKQAAAAAAAAAACh0KEhm_IdKRZz80QCECTQdVOHNVQCkAAAAAAAAAAAodChIZYrFqQnA_NEAhbPIUST1zVUApAAAAAAAAAAAKHQoSGXUilYhmPzRAISDxOO0_c1VAKQAAAAAAAAAACh0KEhkgSCKqVD80QCFkSZvkQnNVQCkAAAAAAAAAAAodChIZ5F9vKlQ_NEAhYbO9TEZzVUApAAAAAAAAAAAKHQoSGSF5rj5PPzRAIRvhn7RIc1VAKQAAAAAAAAAACh0KEhnbA5z8Tz80QCF7NzqhUXNVQCkAAAAAAAAAAAodChIZDDvQ53c_NEAhV18sfFZzVUApAAAAAAAAAAAKHQoSGfgaqbt9PzRAIZ1G1HZUc1VAKQAAAAAAAAAACh0KEhk1LhRFiT80QCFgxClrTXNVQCkAAAAAAAAAAAodChIZCMIIZJ8_NEAh833-1E1zVUApAAAAAAAAAAAKHQoSGXZUprqlPzRAIfeS3EhFc1VAKQAAAAAAAAAACh0KEhnd5wBDjz80QCHVmiZGRHNVQCkAAAAAAAAAAAodChIZf4PVlYg_NEAhdyyWpE1zVUApAAAAAAAAAAAQAhgAIAAyawokCiAKAwjQDxoHCNLtZRD_ASEAAAAAAADwPykAAAAAAAAAABgAEg8KCAitgO8HEP8BEKAfGAAaGgoHCP___wcQQBIICK2A7wcQ_wEYoB8gACgAIgIIAioSCAESBQj___8HGQAAAAAAAPA_EgAaITFGam92VVhZV2lXZ0pqd29uUXpubUg3SUdyd1VabElfRgrYAgrVAgqtAgoUMENEMzY5MTU4NDQxNDAzQUQyOEMSpwESTgoSGdq7RlAZPzRAIbeAgTBSc1VAES-cYxn2DUVAGAEhTyQ-QrxhLMApb_eBxBVgxT8xgdwID7YKdkBBAAAAAACAQUBJAAAAAAAAAABQARgBIgdwYXRoIDEwQAJKSBJGEkQKHQoSGWAus-IsPzRAIS1gsCtOc1VAKQAAAAAAAAAACh0KEhkqLqVyNT80QCGNNucaTnNVQCkAAAAAAAAAABACGAAgADJrCiQKIAoDCNAPGgcI0u1lEP8BIQAAAAAAAPA_KQAAAAAAAAAAGAASDwoICPXLigIQ_wEQoB8YABoaCgcI____BxBAEggI9cuKAhD_ARigHyAAKAAiAggCKhIIARIFCP___wcZAAAAAAAA8D8SABohMUZqb3ZVWFlXaVdnSmp3b25Rem5tSDdJR3J3VVpsSV9GCtcCCtQCCqwCChQwRDEwRDZEQjMzNDEzRjZGMkQ5ORKmARJOChIZHcdAQKA_NEAh7csxD0RzVUARAAAAAAAAAAAYASGnIczPk-p1QCkAAAAAAAAAADGMH7t2ZGl1QEEAAAAAAIBBQEkAAAAAAAAAAFABGAEiBnBhdGggNEACSkgSRhJECh0KEhkS5tHNpj80QCHxDsUqOnNVQCkAAAAAAAAAAAodChIZA2CM0G4_NEAh5K16ZTxzVUApAAAAAAAAAAAQAhgAIAAyawokCiAKAwjQDxoHCNLtZRD_ASEAAAAAAADwPykAAAAAAAAAABgAEg8KCAj1y4oCEP8BEKAfGAAaGgoHCP___wcQQBIICPXLigIQ_wEYoB8gACgAIgIIAioSCAESBQj___8HGQAAAAAAAPA_EgAaITFGam92VVhZV2lXZ0pqd29uUXpubUg3SUdyd1VabElfRgqYAwqVAwrtAgoUMEQ4M0VCNEExRTQxM0Y2NUI5QTkS5wESTgoSGUtpcOIBQDRAIQ7psidJc1VAEb87O7gzy0ZAGAEhndA_AWWtIsApGwhVB5VQF0AxABEEEF2_eEBBAAAAAACAQUBJAAAAAAAAAABQARgBIgZyb2FkIDdAAkqIARKFARKCAQodChIZ78jzIQpANEAhOaJx1DlzVUApAAAAAAAAAAAKHQoSGaZ_YrIJQDRAIRsSiDRFc1VAKQAAAAAAAAAACh0KEhkchOy-HkA0QCGR6-BKRXNVQCkAAAAAAAAAAAodChIZz3X6K_s_NEAhZGVNGUVzVUApAAAAAAAAAAAQAhgAIAAyawokCiAKAwjQDxoHCNLtZRD_ASEAAAAAAADwPykAAAAAAAAAABgAEg8KCAitgO8HEP8BEKAfGAAaGgoHCP___wcQQBIICK2A7wcQ_wEYoB8gACgAIgIIAioSCAESBQj___8HGQAAAAAAAPA_EgAaITFGam92VVhZV2lXZ0pqd29uUXpubUg3SUdyd1VabElfRgqYAwqVAwrtAgoUMEYyNTUwNzZCQjQxNDAzMzY1MTQS5wESTgoSGR8zmqAPPzRAIV5AwoNOc1VAES0j6axzrkRAGAEhxhw4p8JndkApAAAAAAAAAAAxASdk7J7TdUBBAAAAAACAQUBJAAAAAAAAAABQARgBIgZyb2FkIDlAAkqIARKFARKCAQodChIZOlVJX2Y_NEAhPvoAGTdzVUApAAAAAAAAAAAKHQoSGeWLBAErPzRAIXHiqqU9c1VAKQAAAAAAAAAACh0KEhmNxQVcKD80QCFMVf4wQHNVQCkAAAAAAAAAAAodChIZPoU5HC0_NEAh5DyUIU9zVUApAAAAAAAAAAAQAhgAIAAyawokCiAKAwjQDxoHCNLtZRD_ASEAAAAAAADwPykAAAAAAAAAABgAEg8KCAitgO8HEP8BEKAfGAAaGgoHCP___wcQQBIICK2A7wcQ_wEYoB8gACgAIgIIAioSCAESBQj___8HGQAAAAAAAPA_EgAaITFGam92VVhZV2lXZ0pqd29uUXpubUg3SUdyd1VabElfRgrXAgrUAgqsAgoUMEY4RjhGOTVGNzQxM0Y2OUM0MTYSpgESTgoSGUUHxoqfPzRAISklt3tMc1VAEajNROtr70VAGAEhCNNQbpTqdUApAAAAAAAAAAAxAiICEtbaeEBBAAAAAACAQUBJAAAAAAAAAABQARgBIgZwYXRoIDJAAkpIEkYSRAodChIZf8OZzK4_NEAhj3Kn8TpzVUApAAAAAAAAAAAKHQoSGRNRRJilPzRAIV4YREpFc1VAKQAAAAAAAAAAEAIYACAAMmsKJAogCgMI0A8aBwjS7WUQ_wEhAAAAAAAA8D8pAAAAAAAAAAAYABIPCggI9cuKAhD_ARCgHxgAGhoKBwj___8HEEASCAj1y4oCEP8BGKAfIAAoACICCAIqEggBEgUI____BxkAAAAAAADwPxIAGiExRmpvdlVYWVdpV2dKandvblF6bm1IN0lHcndVWmxJX0Y"?>
