{
"type": "FeatureCollection",
"name": "soa_infrastructure",
"crs": { "type": "name", "properties": { "name": "urn:ogc:def:crs:OGC:1.3:CRS84" } },
"features": [
{"type":"Feature","properties":{},"geometry":{"type":"MultiPolygon","coordinates":[[[[85.802255346281285,20.24539346751153],[85.802632223037719,20.245224780853999],[85.802542325829776,20.24503338615536],[85.802168906658238,20.245218292901971],[85.802255346281285,20.24539346751153]]]]}},
{"type":"Feature","properties":{"fid":1},"geometry":{"type":"MultiPolygon","coordinates":[[[[85.800221523048009,20.250621276551492],[85.800510978246734,20.250624996596279],[85.800508995676893,20.250180450612451],[85.800213592768571,20.250184170667808],[85.800221523048009,20.250621276551492]]]]}},
{"type":"Feature","properties":{"fid":2},"geometry":{"type":"MultiPolygon","coordinates":[[[[85.80062200215859,20.250435274198164],[85.801010585850037,20.250438994247411],[85.80101851612946,20.250212071080114],[85.800625967298302,20.250204630970654],[85.80062200215859,20.250435274198164]]]]}},
{"type":"Feature","properties":{"fid":3},"geometry":{"type":"MultiPolygon","coordinates":[[[[85.800625967298302,20.250133949913014],[85.800982829872083,20.250139529997682],[85.800984812441925,20.250050248618944],[85.801036359258148,20.250046528560379],[85.80103834182799,20.249912606392822],[85.800978864732372,20.249914466423721],[85.800978864732372,20.249825184915593],[85.800631915007855,20.249832625043233],[85.800625967298302,20.250133949913014]]]]}},
{"type":"Feature","properties":{"fid":4},"geometry":{"type":"MultiPolygon","coordinates":[[[[85.800164941128003,20.249932165460315],[85.80036772098461,20.249970214733185],[85.800432133409615,20.249681487664862],[85.800224582262302,20.249645676518192],[85.800164941128003,20.249932165460315]]]]}},
{"type":"Feature","properties":{"fid":5},"geometry":{"type":"MultiPolygon","coordinates":[[[[85.8006563840746,20.24975534812878],[85.800362949693863,20.249596436178049],[85.800327165013286,20.249480049857461],[85.800513245352278,20.249173416249086],[85.800701711336671,20.249287564597388],[85.800768509407078,20.249222656723347],[85.800863935221926,20.249341281438149],[85.800880634739542,20.249544957623929],[85.800820993605242,20.249531528433089],[85.8006563840746,20.24975534812878]]]]}},
{"type":"Feature","properties":{"fid":6},"geometry":{"type":"MultiPolygon","coordinates":[[[[85.801277453219001,20.249536608139366],[85.801522153965095,20.249521828516031],[85.801513752222732,20.249377973442122],[85.801484346124496,20.24935629663862],[85.801291106050343,20.249369105659238],[85.801263800387673,20.249395709006386],[85.801277453219001,20.249536608139366]]]]}},
{"type":"Feature","properties":{"fid":7},"geometry":{"type":"MultiPolygon","coordinates":[[[[85.800939283089235,20.249360237875834],[85.801371972820505,20.249238059475299],[85.801294256703727,20.248989761139352],[85.800858416319045,20.249119822221967],[85.800939283089235,20.249360237875834]]]]}},
{"type":"Feature","properties":{"fid":8},"geometry":{"type":"MultiPolygon","coordinates":[[[[85.80163589023779,20.249495426207506],[85.801641548358589,20.249509581985965],[85.801803747821779,20.249486578845307],[85.80180563386206,20.249337943085042],[85.801637776278056,20.248874340157148],[85.801449172251097,20.24891857713747],[85.80163589023779,20.249495426207506]]]]}},
{"type":"Feature","properties":{"fid":9},"geometry":{"type":"MultiPolygon","coordinates":[[[[85.800726635246647,20.24904983146352],[85.800878633613749,20.249028704880828],[85.800878633613749,20.248983810883054],[85.801010928488807,20.248960043467214],[85.801005298919662,20.248891382023245],[85.801362776560794,20.248806875588993],[85.801376850483663,20.248872896244677],[85.801526034066185,20.248838565507228],[85.80153166363533,20.24887553707033],[85.801663958510403,20.248849128811866],[85.801593588895997,20.24852958852868],[85.801452849667214,20.248563919334423],[85.801458479236373,20.248600890962905],[85.801314925222997,20.248637862582576],[85.801314925222997,20.248661630047717],[85.801286777377214,20.248669552535283],[85.801278333023504,20.248624658433698],[85.801160112071315,20.248648425900861],[85.801168556425054,20.248685397509217],[85.801115075518112,20.248698601652936],[85.801112260733547,20.248661630047717],[85.801010928488807,20.248682756680342],[85.801022187627112,20.248732932421312],[85.800968706720155,20.248743495733137],[85.800957447581865,20.248719728280523],[85.800819523137662,20.248743495733137],[85.800808263999329,20.248719728280523],[85.800659080416835,20.248751418216546],[85.800726635246647,20.24904983146352]]]]}},
{"type":"Feature","properties":{"fid":10},"geometry":{"type":"MultiPolygon","coordinates":[[[[85.801075668534054,20.248545433516885],[85.801523219281577,20.248458286061727],[85.801466923590098,20.248202125077079],[85.801025002411691,20.248299836017967],[85.801075668534054,20.248545433516885]]]]}},
{"type":"Feature","properties":{"fid":11},"geometry":{"type":"MultiPolygon","coordinates":[[[[85.801694921140751,20.248606172623401],[85.802080546627607,20.248571841826983],[85.802043954428143,20.248283991004708],[85.801663958510403,20.248328885204753],[85.801694921140751,20.248606172623401]]]]}},
{"type":"Feature","properties":{"fid":12},"geometry":{"type":"MultiPolygon","coordinates":[[[[85.801661143725823,20.248297195182534],[85.802001732659477,20.248260223481775],[85.801993288305781,20.248149308326681],[85.801647069802954,20.248194202565667],[85.801661143725823,20.248297195182534]]]]}},
{"type":"Feature","properties":{"fid":13},"geometry":{"type":"MultiPolygon","coordinates":[[[[85.802148101457433,20.248149308326681],[85.802609726127869,20.248328885204753],[85.802657577465652,20.24818892089117],[85.802193138010637,20.248001421330027],[85.802148101457433,20.248149308326681]]]]}},
{"type":"Feature","properties":{"fid":14},"geometry":{"type":"MultiPolygon","coordinates":[[[[85.800546489033792,20.248558637672495],[85.800543674249212,20.248342089378777],[85.800518341188038,20.248342089378777],[85.800507082049748,20.248149308326681],[85.800706931754618,20.248141385812577],[85.800709746539198,20.248215329261878],[85.800763227446112,20.248215329261878],[85.800768857015299,20.248180998379073],[85.800881448398314,20.248173075866585],[85.800875818829155,20.248236455955215],[85.800822337922227,20.248239096791675],[85.800822337922227,20.248260223481775],[85.800878633613749,20.248260223481775],[85.800875818829155,20.24834473021345],[85.800763227446112,20.248342089378777],[85.800763227446112,20.248363216054866],[85.800878633613749,20.248363216054866],[85.800875818829155,20.248426596065908],[85.800819523137662,20.248426596065908],[85.800822337922227,20.248468849392225],[85.800903966674909,20.248463567727072],[85.800887077967488,20.248563919334423],[85.800546489033792,20.248558637672495]]]]}},
{"type":"Feature","properties":{"fid":15},"geometry":{"type":"MultiPolygon","coordinates":[[[[85.800324121052313,20.24856127850348],[85.80041137937414,20.248413391899071],[85.800425453297009,20.248426596065908],[85.800459230711922,20.248392265229811],[85.800422638512472,20.248379061060056],[85.800442342004473,20.248342089378777],[85.800377601959255,20.248328885204753],[85.80048174898856,20.248165153353689],[85.800487378557705,20.248014625531876],[85.800287528852806,20.247908991885609],[85.80012708613198,20.248268145989826],[85.800180567038936,20.248289272675979],[85.800073605225066,20.248442441064622],[85.800324121052313,20.24856127850348]]]]}},
{"type":"Feature","properties":{"fid":16},"geometry":{"type":"MultiPolygon","coordinates":[[[[85.800338075637498,20.247619859695],[85.800550390476488,20.247743803197963],[85.800618803035718,20.247737163369962],[85.800699010863809,20.247588873803799],[85.800418283465561,20.247445010656563],[85.800338075637498,20.247619859695]]]]}},
{"type":"Feature","properties":{"fid":17},"geometry":{"type":"MultiPolygon","coordinates":[[[[85.799851489090699,20.248284025856261],[85.799765049467652,20.24828726976828],[85.799733931203392,20.248238611080826],[85.799720100863695,20.248160757149197],[85.799782337392287,20.248102366674864],[85.799896437694699,20.248027756592393],[85.800076232110612,20.247495753226296],[85.800152298978858,20.247453582149824],[85.800173044488417,20.247401679270748],[85.800249111356692,20.247421142852438],[85.799851489090699,20.248284025856261]]]]}}
]
}
