{
  "type": "FeatureCollection",
  "features": [
    {
      "type": "Feature",
      "geometry": {
        "type": "Polygon",
        "coordinates": [
          [
            [
              85.7998984272089,
              20.25046374941283,
              0
            ],
            [
              85.79983261226532,
              20.25030336193153,
              0
            ],
            [
              85.79979707777369,
              20.25017649063931,
              0
            ],
            [
              85.7997497308335,
              20.250064272417198,
              0
            ],
            [
              85.79969053757732,
              20.24994458430432,
              0
            ],
            [
              85.79956863996935,
              20.24973376843433,
              0
            ],
            [
              85.79957443241098,
              20.24955094780212,
              0
            ],
            [
              85.79965146964282,
              20.24943869567275,
              0
            ],
            [
              85.79974149378181,
              20.249306227608958,
              0
            ],
            [
              85.79982821713051,
              20.24921021827245,
              0
            ],
            [
              85.79986751942396,
              20.24915912345044,
              0
            ],
            [
              85.79980493935508,
              20.24897133479628,
              0
            ],
            [
              85.7996491413445,
              20.24886879705089,
              0
            ],
            [
              85.79957650575206,
              20.248782333116228,
              0
            ],
            [
              85.79959557573092,
              20.24864926340528,
              0
            ],
            [
              85.79947458372251,
              20.24862608415261,
              0
            ],
            [
              85.79939820831306,
              20.24841866688914,
              0
            ],
            [
              85.79940569134025,
              20.248276603936958,
              0
            ],
            [
              85.79934479093059,
              20.24822683973465,
              0
            ],
            [
              85.79934788548255,
              20.24814633803553,
              0
            ],
            [
              85.79941537112873,
              20.24806650951799,
              0
            ],
            [
              85.79947471382496,
              20.24804764267967,
              0
            ],
            [
              85.79953989944639,
              20.24797439773684,
              0
            ],
            [
              85.79957828629425,
              20.24788910080747,
              0
            ],
            [
              85.79966623709281,
              20.24786025183036,
              0
            ],
            [
              85.79971280063866,
              20.24780729571823,
              0
            ],
            [
              85.79978027342084,
              20.24778985123522,
              0
            ],
            [
              85.79981178436455,
              20.247779356287058,
              0
            ],
            [
              85.79985095435217,
              20.24770241638058,
              0
            ],
            [
              85.79979446591919,
              20.247661241275818,
              0
            ],
            [
              85.79972547594518,
              20.24764464101121,
              0
            ],
            [
              85.79972892296381,
              20.24760065591482,
              0
            ],
            [
              85.79975330638916,
              20.24757381380185,
              0
            ],
            [
              85.79974958686718,
              20.247544029787658,
              0
            ],
            [
              85.79983504787448,
              20.24756790494726,
              0
            ],
            [
              85.79987942185234,
              20.24757706801455,
              0
            ],
            [
              85.79991975906205,
              20.247526201536928,
              0
            ],
            [
              85.79994068860306,
              20.24748685881124,
              0
            ],
            [
              85.79999663394473,
              20.24740513119995,
              0
            ],
            [
              85.80003524218823,
              20.24735100948137,
              0
            ],
            [
              85.80004512140518,
              20.24729634088429,
              0
            ],
            [
              85.80007125932616,
              20.24724835177938,
              0
            ],
            [
              85.80007399766548,
              20.24718582474542,
              0
            ],
            [
              85.80010768322542,
              20.24716024790483,
              0
            ],
            [
              85.80012767968643,
              20.247055040653798,
              0
            ],
            [
              85.80015194629708,
              20.24698595404326,
              0
            ],
            [
              85.80017314868813,
              20.24692464240156,
              0
            ],
            [
              85.8002002692797,
              20.24686105648854,
              0
            ],
            [
              85.80015213736665,
              20.246837086903778,
              0
            ],
            [
              85.80015910636666,
              20.24674804355641,
              0
            ],
            [
              85.80006133405053,
              20.24671986736011,
              0
            ],
            [
              85.80007518256508,
              20.24666673598934,
              0
            ],
            [
              85.80018050958472,
              20.2466679879172,
              0
            ],
            [
              85.80025596758914,
              20.24666836970778,
              0
            ],
            [
              85.80027657005421,
              20.24658733584356,
              0
            ],
            [
              85.8003255722714,
              20.246582773179128,
              0
            ],
            [
              85.80037372294673,
              20.2465691424986,
              0
            ],
            [
              85.80041499376505,
              20.246547065321558,
              0
            ],
            [
              85.8004369804491,
              20.24643422349919,
              0
            ],
            [
              85.80047120802269,
              20.24641404548003,
              0
            ],
            [
              85.80049990901611,
              20.24633793951028,
              0
            ],
            [
              85.8005168643403,
              20.246287937394968,
              0
            ],
            [
              85.80053638793551,
              20.24628425660008,
              0
            ],
            [
              85.80061125607742,
              20.24631444455534,
              0
            ],
            [
              85.80061918322278,
              20.24635109515013,
              0
            ],
            [
              85.80075442979448,
              20.24632714903386,
              0
            ],
            [
              85.80081656717967,
              20.24629526581303,
              0
            ],
            [
              85.80077900742809,
              20.24611495935864,
              0
            ],
            [
              85.8008210350011,
              20.24605630260102,
              0
            ],
            [
              85.80091093076992,
              20.24602163865826,
              0
            ],
            [
              85.80092659251945,
              20.245924584017768,
              0
            ],
            [
              85.80091879548249,
              20.24585683565669,
              0
            ],
            [
              85.80111862627079,
              20.24589486525638,
              0
            ],
            [
              85.80123727551766,
              20.245898106559387,
              0
            ],
            [
              85.80125828414972,
              20.24580862036902,
              0
            ],
            [
              85.80125150365723,
              20.24570449919743,
              0
            ],
            [
              85.80125073188874,
              20.24542884384352,
              0
            ],
            [
              85.80145270924257,
              20.245296373262168,
              0
            ],
            [
              85.80158749105019,
              20.24526750638966,
              0
            ],
            [
              85.80179012007267,
              20.245299961824678,
              0
            ],
            [
              85.8019164759241,
              20.24532345658513,
              0
            ],
            [
              85.80205826863677,
              20.24520923721232,
              0
            ],
            [
              85.80218560976644,
              20.245084233548578,
              0
            ],
            [
              85.80232539446006,
              20.24496096151432,
              0
            ],
            [
              85.80247171213804,
              20.24480065642247,
              0
            ],
            [
              85.80257536702047,
              20.2448347265054,
              0
            ],
            [
              85.80266830688998,
              20.24492959153769,
              0
            ],
            [
              85.8027397537845,
              20.2450591208013,
              0
            ],
            [
              85.80280940351487,
              20.24512740449367,
              0
            ],
            [
              85.80292923073634,
              20.24515638600554,
              0
            ],
            [
              85.8030246421751,
              20.245192701836828,
              0
            ],
            [
              85.80303357881557,
              20.245360054442838,
              0
            ],
            [
              85.8029789721442,
              20.245499693655628,
              0
            ],
            [
              85.8029560767074,
              20.24579212752149,
              0
            ],
            [
              85.80295595028008,
              20.245908818553428,
              0
            ],
            [
              85.80296941888807,
              20.246020033731888,
              0
            ],
            [
              85.80297623632761,
              20.246194321933938,
              0
            ],
            [
              85.8029757284947,
              20.24643847236868,
              0
            ],
            [
              85.80285015776734,
              20.24657825528776,
              0
            ],
            [
              85.80271000705,
              20.24668530389534,
              0
            ],
            [
              85.80261266964692,
              20.24671954655528,
              0
            ],
            [
              85.80259323428271,
              20.24676981399078,
              0
            ],
            [
              85.80256452887565,
              20.24689713505673,
              0
            ],
            [
              85.80251724273866,
              20.24703728456142,
              0
            ],
            [
              85.80255421729422,
              20.24719411239876,
              0
            ],
            [
              85.80248724492402,
              20.24720526818734,
              0
            ],
            [
              85.8024291118542,
              20.24714523636606,
              0
            ],
            [
              85.80242146584825,
              20.24726727304831,
              0
            ],
            [
              85.8024272099499,
              20.247372898006198,
              0
            ],
            [
              85.80249399566853,
              20.24741336284846,
              0
            ],
            [
              85.80256014393558,
              20.24749383185108,
              0
            ],
            [
              85.80246852644198,
              20.24752163884872,
              0
            ],
            [
              85.80243250772989,
              20.24758058904662,
              0
            ],
            [
              85.80237425288293,
              20.247604485729738,
              0
            ],
            [
              85.80242714386468,
              20.24771973137111,
              0
            ],
            [
              85.80247878319236,
              20.247827233063198,
              0
            ],
            [
              85.8025445612481,
              20.24783303793641,
              0
            ],
            [
              85.80261662590512,
              20.24781332589095,
              0
            ],
            [
              85.80271534159404,
              20.24779043500087,
              0
            ],
            [
              85.80277983336764,
              20.247786121388298,
              0
            ],
            [
              85.80280475505626,
              20.24788647649629,
              0
            ],
            [
              85.80269107247155,
              20.24791748273157,
              0
            ],
            [
              85.80258115705118,
              20.24793742614095,
              0
            ],
            [
              85.80251514674384,
              20.24795661163617,
              0
            ],
            [
              85.8024492738207,
              20.247992107226658,
              0
            ],
            [
              85.80240601826681,
              20.24798831307196,
              0
            ],
            [
              85.80237480165056,
              20.247939437267178,
              0
            ],
            [
              85.8023604608204,
              20.24789200396616,
              0
            ],
            [
              85.802220341181,
              20.2479045355119,
              0
            ],
            [
              85.80217593348436,
              20.24787163276378,
              0
            ],
            [
              85.80216235492543,
              20.24782038607633,
              0
            ],
            [
              85.80218426765022,
              20.24779660207583,
              0
            ],
            [
              85.80222817344865,
              20.24778349529228,
              0
            ],
            [
              85.80226062798475,
              20.24781484375833,
              0
            ],
            [
              85.80229046007311,
              20.24785167929013,
              0
            ],
            [
              85.8023227642348,
              20.24785357207005,
              0
            ],
            [
              85.80232941079682,
              20.24782234539097,
              0
            ],
            [
              85.80230460792339,
              20.24776440294797,
              0
            ],
            [
              85.80228223300051,
              20.2476797929333,
              0
            ],
            [
              85.80226958569469,
              20.24763833184447,
              0
            ],
            [
              85.80224667011792,
              20.24758409066281,
              0
            ],
            [
              85.80220775579141,
              20.247536873504988,
              0
            ],
            [
              85.80217865046892,
              20.24748398655751,
              0
            ],
            [
              85.80214188693111,
              20.24742603671439,
              0
            ],
            [
              85.80212863820265,
              20.24737707476323,
              0
            ],
            [
              85.80210188226408,
              20.24730018792334,
              0
            ],
            [
              85.80210258928999,
              20.247232418780598,
              0
            ],
            [
              85.80216145824336,
              20.24718669335363,
              0
            ],
            [
              85.80227253959417,
              20.24715084128487,
              0
            ],
            [
              85.80239556337877,
              20.2471188218552,
              0
            ],
            [
              85.8024228192203,
              20.24706779125789,
              0
            ],
            [
              85.80234636085125,
              20.24705616976885,
              0
            ],
            [
              85.8023457679897,
              20.247038650810968,
              0
            ],
            [
              85.80241826079178,
              20.24703559434598,
              0
            ],
            [
              85.80246420249146,
              20.24703265025336,
              0
            ],
            [
              85.80245952327675,
              20.24698733321766,
              0
            ],
            [
              85.80249089617568,
              20.24691524751228,
              0
            ],
            [
              85.80249277935262,
              20.24684664311677,
              0
            ],
            [
              85.80254715813432,
              20.246741621976128,
              0
            ],
            [
              85.80262225542647,
              20.24666992852373,
              0
            ],
            [
              85.80273817751575,
              20.246591812413868,
              0
            ],
            [
              85.8028117520045,
              20.24652232860153,
              0
            ],
            [
              85.8028785517133,
              20.2464628540164,
              0
            ],
            [
              85.80283715694043,
              20.2464092256689,
              0
            ],
            [
              85.80282954474086,
              20.24632941088953,
              0
            ],
            [
              85.80283462462006,
              20.2462764069649,
              0
            ],
            [
              85.80283563884105,
              20.24621216573619,
              0
            ],
            [
              85.80283662040381,
              20.24615771919486,
              0
            ],
            [
              85.80277853580499,
              20.24615046794341,
              0
            ],
            [
              85.80274374295122,
              20.24613755703746,
              0
            ],
            [
              85.802758525176,
              20.24608396446545,
              0
            ],
            [
              85.80278131353386,
              20.246034481945518,
              0
            ],
            [
              85.8027734879609,
              20.245936830249228,
              0
            ],
            [
              85.8027841103697,
              20.245886927014,
              0
            ],
            [
              85.8028155727834,
              20.2458493291598,
              0
            ],
            [
              85.80282155659705,
              20.24577813152765,
              0
            ],
            [
              85.80286826360437,
              20.24576987431855,
              0
            ],
            [
              85.80288000025291,
              20.24571112938974,
              0
            ],
            [
              85.80288617842677,
              20.24564685720225,
              0
            ],
            [
              85.802886596698,
              20.24552990166204,
              0
            ],
            [
              85.80288929545954,
              20.24543865932429,
              0
            ],
            [
              85.80288476403501,
              20.24537455897512,
              0
            ],
            [
              85.80282083555845,
              20.24536585802089,
              0
            ],
            [
              85.80278375596173,
              20.2453566771443,
              0
            ],
            [
              85.80278212776486,
              20.24532387213602,
              0
            ],
            [
              85.80264220113445,
              20.24532314272425,
              0
            ],
            [
              85.80254353173504,
              20.24530014848116,
              0
            ],
            [
              85.80255129825,
              20.24527414690995,
              0
            ],
            [
              85.80261016003396,
              20.24526531072711,
              0
            ],
            [
              85.80261386453627,
              20.24522344541542,
              0
            ],
            [
              85.80259410188343,
              20.24516725326571,
              0
            ],
            [
              85.80256645421059,
              20.24511697378724,
              0
            ],
            [
              85.80263062573641,
              20.24507265856265,
              0
            ],
            [
              85.80259852922188,
              20.24503794418341,
              0
            ],
            [
              85.80254347817905,
              20.24497820163573,
              0
            ],
            [
              85.80247994151885,
              20.24494116735096,
              0
            ],
            [
              85.80231202236908,
              20.24510247181955,
              0
            ],
            [
              85.8021500062259,
              20.24527856419422,
              0
            ],
            [
              85.80202816775581,
              20.24539414042917,
              0
            ],
            [
              85.80181392698222,
              20.245394907121998,
              0
            ],
            [
              85.80159449497728,
              20.24531987459785,
              0
            ],
            [
              85.80146774208401,
              20.24535789900681,
              0
            ],
            [
              85.80141360450347,
              20.24539694010235,
              0
            ],
            [
              85.80140443380098,
              20.24547470175639,
              0
            ],
            [
              85.80139212982918,
              20.24557558786442,
              0
            ],
            [
              85.80137159039789,
              20.245670558502848,
              0
            ],
            [
              85.80138761749915,
              20.24582377094453,
              0
            ],
            [
              85.80142833625592,
              20.24594014561632,
              0
            ],
            [
              85.80145157517408,
              20.24607892868663,
              0
            ],
            [
              85.80137649140315,
              20.24614873942193,
              0
            ],
            [
              85.80140730047216,
              20.24623168489202,
              0
            ],
            [
              85.80135556558749,
              20.24624709407711,
              0
            ],
            [
              85.80133010042309,
              20.24621011611619,
              0
            ],
            [
              85.80123703892276,
              20.24621554566896,
              0
            ],
            [
              85.80110305529843,
              20.24620489750398,
              0
            ],
            [
              85.80101768599984,
              20.24623037333285,
              0
            ],
            [
              85.80101505081319,
              20.24628155963184,
              0
            ],
            [
              85.80095462298195,
              20.24631531445803,
              0
            ],
            [
              85.80095492514776,
              20.24636589239942,
              0
            ],
            [
              85.80097532535474,
              20.24641871467415,
              0
            ],
            [
              85.80101310676184,
              20.24645502225728,
              0
            ],
            [
              85.80101238727946,
              20.24651589845417,
              0
            ],
            [
              85.80096120150031,
              20.2466108941432,
              0
            ],
            [
              85.80095854654984,
              20.24667297235867,
              0
            ],
            [
              85.80101988510066,
              20.2466735293544,
              0
            ],
            [
              85.80104723745887,
              20.24675243101596,
              0
            ],
            [
              85.80098190133069,
              20.24676725509676,
              0
            ],
            [
              85.80088521965361,
              20.246770798586358,
              0
            ],
            [
              85.80077237405048,
              20.24680470338645,
              0
            ],
            [
              85.80071051070881,
              20.24693358110402,
              0
            ],
            [
              85.8006408852221,
              20.2470526595076,
              0
            ],
            [
              85.80046979152263,
              20.24733022324741,
              0
            ],
            [
              85.8004472537513,
              20.24737177093327,
              0
            ],
            [
              85.80070747076432,
              20.24751200005009,
              0
            ],
            [
              85.80073472979477,
              20.24754046408663,
              0
            ],
            [
              85.80071337493897,
              20.24757883125123,
              0
            ],
            [
              85.80057868962794,
              20.24748722438475,
              0
            ],
            [
              85.80046580517954,
              20.24743625386494,
              0
            ],
            [
              85.8003481532503,
              20.24761807127905,
              0
            ],
            [
              85.80030684699942,
              20.24758923340842,
              0
            ],
            [
              85.800325854366,
              20.24751729448814,
              0
            ],
            [
              85.80032054341319,
              20.2474531836119,
              0
            ],
            [
              85.8003261118426,
              20.24740647349032,
              0
            ],
            [
              85.80040798822931,
              20.24741301761378,
              0
            ],
            [
              85.80039712606423,
              20.24733594030786,
              0
            ],
            [
              85.80049993785774,
              20.24704596501453,
              0
            ],
            [
              85.80060996948417,
              20.24685228690066,
              0
            ],
            [
              85.80070428741526,
              20.24674144226598,
              0
            ],
            [
              85.80084502770823,
              20.24674048433085,
              0
            ],
            [
              85.80088088700158,
              20.24656254985673,
              0
            ],
            [
              85.80078779709477,
              20.246680792072418,
              0
            ],
            [
              85.80064450197584,
              20.2466825996652,
              0
            ],
            [
              85.8004645186579,
              20.24675293015723,
              0
            ],
            [
              85.80056061876945,
              20.24679018166557,
              0
            ],
            [
              85.80049969660834,
              20.24694721014827,
              0
            ],
            [
              85.80036117246166,
              20.2471961610165,
              0
            ],
            [
              85.80031179421101,
              20.247322609971,
              0
            ],
            [
              85.80027816559273,
              20.24742805192485,
              0
            ],
            [
              85.80019492249953,
              20.24741589906292,
              0
            ],
            [
              85.80016572900121,
              20.24751128645053,
              0
            ],
            [
              85.80006609463776,
              20.247569267598788,
              0
            ],
            [
              85.7999041488492,
              20.248049609222548,
              0
            ],
            [
              85.79971886135904,
              20.24813475373293,
              0
            ],
            [
              85.79971329362304,
              20.24824304565517,
              0
            ],
            [
              85.79976742454437,
              20.24829539943821,
              0
            ],
            [
              85.79991736751467,
              20.248355248114848,
              0
            ],
            [
              85.79989042103992,
              20.24841750824598,
              0
            ],
            [
              85.7998367088752,
              20.2484297115325,
              0
            ],
            [
              85.79987342807587,
              20.248604750659,
              0
            ],
            [
              85.80006112977938,
              20.24865471674679,
              0
            ],
            [
              85.80030204921859,
              20.248727330884048,
              0
            ],
            [
              85.80044624742963,
              20.24874874636948,
              0
            ],
            [
              85.80053373466235,
              20.248745853241278,
              0
            ],
            [
              85.80053245275333,
              20.24895339545833,
              0
            ],
            [
              85.80049497802463,
              20.249065019197698,
              0
            ],
            [
              85.80042198607713,
              20.24918924545985,
              0
            ],
            [
              85.80034194008937,
              20.24930637348004,
              0
            ],
            [
              85.80020477517519,
              20.24931521454943,
              0
            ],
            [
              85.80012857336538,
              20.2493142021801,
              0
            ],
            [
              85.8000184236547,
              20.24931004337795,
              0
            ],
            [
              85.79994918251073,
              20.24931895158922,
              0
            ],
            [
              85.79987495222032,
              20.24940746832136,
              0
            ],
            [
              85.7996829489172,
              20.249669969939628,
              0
            ],
            [
              85.79965873627795,
              20.2497832376445,
              0
            ],
            [
              85.79967502108438,
              20.24987179336783,
              0
            ],
            [
              85.79976462392372,
              20.24995572262797,
              0
            ],
            [
              85.79984609695542,
              20.25006031753122,
              0
            ],
            [
              85.7999795462781,
              20.25007629626484,
              0
            ],
            [
              85.80004206515882,
              20.24989337785265,
              0
            ],
            [
              85.80007087731003,
              20.24974796081401,
              0
            ],
            [
              85.80007949333402,
              20.24963859555206,
              0
            ],
            [
              85.80008420397107,
              20.24955511133794,
              0
            ],
            [
              85.80011411512731,
              20.24946679784614,
              0
            ],
            [
              85.80016872037636,
              20.249422765969168,
              0
            ],
            [
              85.80025211090944,
              20.24942828304333,
              0
            ],
            [
              85.80038033574165,
              20.24945315620981,
              0
            ],
            [
              85.80041748108769,
              20.24952798360415,
              0
            ],
            [
              85.80047912065568,
              20.24958183374343,
              0
            ],
            [
              85.80045675442263,
              20.24963939747438,
              0
            ],
            [
              85.80040557570256,
              20.2495914446265,
              0
            ],
            [
              85.80034356053639,
              20.24962101126181,
              0
            ],
            [
              85.80024072359639,
              20.24961788309764,
              0
            ],
            [
              85.80023473789159,
              20.24956973216271,
              0
            ],
            [
              85.80028981232766,
              20.24946773626152,
              0
            ],
            [
              85.80024293598815,
              20.249472637771948,
              0
            ],
            [
              85.80020615400727,
              20.2495287451486,
              0
            ],
            [
              85.80014543230686,
              20.2496180197358,
              0
            ],
            [
              85.80010761523643,
              20.24999388448659,
              0
            ],
            [
              85.80021263446066,
              20.250057066634408,
              0
            ],
            [
              85.8002336593493,
              20.25016074664676,
              0
            ],
            [
              85.80016947086487,
              20.25019580064005,
              0
            ],
            [
              85.80012225132651,
              20.250198674764828,
              0
            ],
            [
              85.80007905223967,
              20.25018285283279,
              0
            ],
            [
              85.80009394776037,
              20.25009872685675,
              0
            ],
            [
              85.80007571387414,
              20.25005807265622,
              0
            ],
            [
              85.8000382482195,
              20.25008668766333,
              0
            ],
            [
              85.80002471615067,
              20.2501326759315,
              0
            ],
            [
              85.79997748457244,
              20.25014594753646,
              0
            ],
            [
              85.79989818861151,
              20.25015821685686,
              0
            ],
            [
              85.79992816746645,
              20.25025845673489,
              0
            ],
            [
              85.79992534101099,
              20.25032593247732,
              0
            ],
            [
              85.79993228913378,
              20.25041771322998,
              0
            ],
            [
              85.7998984272089,
              20.25046374941283,
              0
            ]
          ]
        ]
      },
      "properties": {
        "name": "ITER main gate to cafe (left)"
      }
    },
    {
      "type": "Feature",
      "geometry": {
        "type": "Polygon",
        "coordinates": [
          [
            [
              85.80064317971403,
              20.25051473967515,
              0
            ],
            [
              85.80064056175371,
              20.2504295336532,
              0
            ],
            [
              85.8007199837047,
              20.25042541743565,
              0
            ],
            [
              85.80085190223606,
              20.25041907774233,
              0
            ],
            [
              85.80097843222023,
              20.25042096262764,
              0
            ],
            [
              85.80110053535243,
              20.2504143188559,
              0
            ],
            [
              85.8010053418328,
              20.25044155806712,
              0
            ],
            [
              85.80090556005261,
              20.250448306111448,
              0
            ],
            [
              85.80089852208374,
              20.25050032778356,
              0
            ],
            [
              85.80085099679816,
              20.250503353079488,
              0
            ],
            [
              85.80077112664475,
              20.250492461740578,
              0
            ],
            [
              85.80064317971403,
              20.25051473967515,
              0
            ]
          ]
        ]
      },
      "properties": {
        "name": "behind BH-02"
      }
    },
    {
      "type": "Feature",
      "geometry": {
        "type": "Polygon",
        "coordinates": [
          [
            [
              85.80051594239622,
              20.25011086546538,
              0
            ],
            [
              85.8005464720739,
              20.250088971815998,
              0
            ],
            [
              85.80059127432374,
              20.250077259172308,
              0
            ],
            [
              85.80059964650202,
              20.2500461660122,
              0
            ],
            [
              85.80057846187677,
              20.25003237957893,
              0
            ],
            [
              85.80057004588843,
              20.250006491393748,
              0
            ],
            [
              85.8005476046114,
              20.250006341294,
              0
            ],
            [
              85.80052059165041,
              20.249996290162688,
              0
            ],
            [
              85.80052068795437,
              20.24996188032241,
              0
            ],
            [
              85.80056322933424,
              20.24994459672125,
              0
            ],
            [
              85.80057719028817,
              20.24989373587313,
              0
            ],
            [
              85.80058966442627,
              20.249856532631128,
              0
            ],
            [
              85.80060029199656,
              20.24981812388769,
              0
            ],
            [
              85.80062916466407,
              20.249796772479478,
              0
            ],
            [
              85.80066199022595,
              20.24979271048819,
              0
            ],
            [
              85.80073603513543,
              20.24978808072457,
              0
            ],
            [
              85.80081960896071,
              20.24978519369702,
              0
            ],
            [
              85.8008937758439,
              20.24979532053596,
              0
            ],
            [
              85.80097266811458,
              20.24979594698758,
              0
            ],
            [
              85.80101912196093,
              20.24981228653977,
              0
            ],
            [
              85.80095045153264,
              20.24981637508011,
              0
            ],
            [
              85.80083091856577,
              20.249808901823858,
              0
            ],
            [
              85.80070819999257,
              20.2498047811868,
              0
            ],
            [
              85.80066055583832,
              20.24981657629924,
              0
            ],
            [
              85.80065881110372,
              20.249861259142378,
              0
            ],
            [
              85.80064614429368,
              20.24991931765942,
              0
            ],
            [
              85.80064645633027,
              20.25001476187826,
              0
            ],
            [
              85.80065875492465,
              20.250112023640458,
              0
            ],
            [
              85.80060820273279,
              20.25015153921035,
              0
            ],
            [
              85.80052832811602,
              20.25013022444432,
              0
            ],
            [
              85.80051594239622,
              20.25011086546538,
              0
            ]
          ]
        ]
      },
      "properties": {
        "name": "BH-01"
      }
    },
    {
      "type": "Feature",
      "geometry": {
        "type": "Polygon",
        "coordinates": [
          [
            [
              85.80073891703978,
              20.24907290151975,
              0
            ],
            [
              85.80066814292013,
              20.24908779740769,
              0
            ],
            [
              85.80064184347431,
              20.24903781790448,
              0
            ],
            [
              85.80058003985283,
              20.24902924891297,
              0
            ],
            [
              85.80056286778033,
              20.248977912416148,
              0
            ],
            [
              85.80059639321392,
              20.248944169877348,
              0
            ],
            [
              85.80063264223062,
              20.24894123749098,
              0
            ],
            [
              85.8006549778594,
              20.24893107862076,
              0
            ],
            [
              85.80063994381607,
              20.24891514433384,
              0
            ],
            [
              85.80060400169505,
              20.24891954000491,
              0
            ],
            [
              85.8005977328033,
              20.248887659538198,
              0
            ],
            [
              85.80063054573435,
              20.24888365853554,
              0
            ],
            [
              85.80063930825072,
              20.24883510828234,
              0
            ],
            [
              85.80062805276484,
              20.24880222542405,
              0
            ],
            [
              85.8005498544807,
              20.24881568939603,
              0
            ],
            [
              85.80054588809092,
              20.24875738644202,
              0
            ],
            [
              85.80058273367632,
              20.24872986547802,
              0
            ],
            [
              85.80064544816028,
              20.24872850491571,
              0
            ],
            [
              85.80068755845849,
              20.24870689784284,
              0
            ],
            [
              85.80072100136596,
              20.24868835429209,
              0
            ],
            [
              85.8007709616923,
              20.24870620809318,
              0
            ],
            [
              85.8008065099621,
              20.24866537825091,
              0
            ],
            [
              85.80080238020724,
              20.24863862486382,
              0
            ],
            [
              85.80083882062353,
              20.24863399138673,
              0
            ],
            [
              85.80089021871048,
              20.24862139003474,
              0
            ],
            [
              85.80091813740077,
              20.24863531827808,
              0
            ],
            [
              85.80087771602548,
              20.24865632170122,
              0
            ],
            [
              85.80087997949433,
              20.248681769088908,
              0
            ],
            [
              85.80091637139327,
              20.248677149501138,
              0
            ],
            [
              85.80095058608299,
              20.24865768039996,
              0
            ],
            [
              85.80100967921528,
              20.24864261153477,
              0
            ],
            [
              85.80107641448367,
              20.2486356603148,
              0
            ],
            [
              85.80108383738889,
              20.24860896631729,
              0
            ],
            [
              85.80105248683834,
              20.24859325265593,
              0
            ],
            [
              85.8010676300207,
              20.24856404844483,
              0
            ],
            [
              85.8011125519987,
              20.24855075722011,
              0
            ],
            [
              85.80117230586649,
              20.24855072094497,
              0
            ],
            [
              85.80118806269847,
              20.24859269861026,
              0
            ],
            [
              85.80122612152402,
              20.2485651082581,
              0
            ],
            [
              85.80123105209077,
              20.24854324171372,
              0
            ],
            [
              85.80127827123907,
              20.2485342074594,
              0
            ],
            [
              85.80128359911114,
              20.24854870117995,
              0
            ],
            [
              85.80133651004071,
              20.24854499852581,
              0
            ],
            [
              85.80137146606275,
              20.248517773037058,
              0
            ],
            [
              85.80143866946189,
              20.24850008775115,
              0
            ],
            [
              85.80151946032784,
              20.248485201040168,
              0
            ],
            [
              85.80157339786597,
              20.248507205755978,
              0
            ],
            [
              85.80152360396802,
              20.24854551823799,
              0
            ],
            [
              85.80145278180927,
              20.24854083234846,
              0
            ],
            [
              85.80147532852469,
              20.248583598831658,
              0
            ],
            [
              85.80140118010938,
              20.248599071039358,
              0
            ],
            [
              85.80133562620716,
              20.24860584771196,
              0
            ],
            [
              85.80133212431143,
              20.2486488222928,
              0
            ],
            [
              85.80131365344036,
              20.2486556903499,
              0
            ],
            [
              85.80130000878466,
              20.24862856448657,
              0
            ],
            [
              85.80128187977546,
              20.24862631058974,
              0
            ],
            [
              85.80121781642278,
              20.24864200914033,
              0
            ],
            [
              85.80117856629448,
              20.24865000263467,
              0
            ],
            [
              85.80109266174829,
              20.24866995679207,
              0
            ],
            [
              85.8010282028021,
              20.24868112498417,
              0
            ],
            [
              85.80098928903672,
              20.24869058938177,
              0
            ],
            [
              85.80098255900394,
              20.24872168244676,
              0
            ],
            [
              85.80086700282212,
              20.24874532052187,
              0
            ],
            [
              85.80084470764825,
              20.24871494047092,
              0
            ],
            [
              85.80070415544188,
              20.24874796252275,
              0
            ],
            [
              85.80064301096418,
              20.24876493278146,
              0
            ],
            [
              85.8006850220156,
              20.248871358738658,
              0
            ],
            [
              85.8007134831195,
              20.24897805363868,
              0
            ],
            [
              85.80073891703978,
              20.24907290151975,
              0
            ]
          ]
        ]
      },
      "properties": {
        "name": "C-Block"
      }
    },
    {
      "type": "Feature",
      "geometry": {
        "type": "Polygon",
        "coordinates": [
          [
            [
              85.80055171534613,
              20.248692876517378,
              0
            ],
            [
              85.80050997503973,
              20.24864830977896,
              0
            ],
            [
              85.80052733800093,
              20.248635638067828,
              0
            ],
            [
              85.80052756537016,
              20.24859713667115,
              0
            ],
            [
              85.80048165485088,
              20.248579593946598,
              0
            ],
            [
              85.80046627019091,
              20.2485980328257,
              0
            ],
            [
              85.80043223216886,
              20.24857626606073,
              0
            ],
            [
              85.80035866987798,
              20.24857543034397,
              0
            ],
            [
              85.80034554776816,
              20.24859002460362,
              0
            ],
            [
              85.80032069123669,
              20.248607534614358,
              0
            ],
            [
              85.80029467502175,
              20.24859839674106,
              0
            ],
            [
              85.80030642913552,
              20.248573557719258,
              0
            ],
            [
              85.8002679189092,
              20.248566933104218,
              0
            ],
            [
              85.80024306596205,
              20.24857787121663,
              0
            ],
            [
              85.80019860845442,
              20.248567494590738,
              0
            ],
            [
              85.80018201404442,
              20.248535303085138,
              0
            ],
            [
              85.80013468004147,
              20.24852005742238,
              0
            ],
            [
              85.80010937126455,
              20.248528270052198,
              0
            ],
            [
              85.80006281206715,
              20.248509011190098,
              0
            ],
            [
              85.80001546401327,
              20.2484750416703,
              0
            ],
            [
              85.80001015870114,
              20.24841922882477,
              0
            ],
            [
              85.80003091315066,
              20.24837049463658,
              0
            ],
            [
              85.80002253004,
              20.248332716079748,
              0
            ],
            [
              85.8000659120648,
              20.24826706023497,
              0
            ],
            [
              85.80010252331121,
              20.24824101457786,
              0
            ],
            [
              85.80015559499753,
              20.24827809278539,
              0
            ],
            [
              85.80012564378492,
              20.24831252151589,
              0
            ],
            [
              85.80010960844321,
              20.248346206525138,
              0
            ],
            [
              85.80008281717221,
              20.24839154363334,
              0
            ],
            [
              85.80007136985192,
              20.24842786745813,
              0
            ],
            [
              85.80009170846029,
              20.24844068092321,
              0
            ],
            [
              85.80015621473954,
              20.248453942862998,
              0
            ],
            [
              85.800247434442,
              20.24850818163309,
              0
            ],
            [
              85.80032857444245,
              20.24854997143859,
              0
            ],
            [
              85.80036636777477,
              20.24854419177219,
              0
            ],
            [
              85.80044610026208,
              20.24853413894894,
              0
            ],
            [
              85.800476301045,
              20.24848779619227,
              0
            ],
            [
              85.8004884217836,
              20.24850349203629,
              0
            ],
            [
              85.80048549201655,
              20.248572670220188,
              0
            ],
            [
              85.80051736517645,
              20.24858982654258,
              0
            ],
            [
              85.80056002476051,
              20.248599488857508,
              0
            ],
            [
              85.8006214580362,
              20.248590568826728,
              0
            ],
            [
              85.80063944595062,
              20.24865464991829,
              0
            ],
            [
              85.80065688953444,
              20.24868551695174,
              0
            ],
            [
              85.80061538997552,
              20.248711053354178,
              0
            ],
            [
              85.80055171534613,
              20.248692876517378,
              0
            ]
          ]
        ]
      },
      "properties": {
        "name": "Library left side"
      }
    },
    {
      "type": "Feature",
      "geometry": {
        "type": "Polygon",
        "coordinates": [
          [
            [
              85.80079913705931,
              20.24863244066768,
              0
            ],
            [
              85.80078057319497,
              20.24856287477344,
              0
            ],
            [
              85.80090341813937,
              20.24853107375692,
              0
            ],
            [
              85.80096521928766,
              20.248511481681458,
              0
            ],
            [
              85.80099880970185,
              20.24849080899843,
              0
            ],
            [
              85.80099084600829,
              20.2484130083152,
              0
            ],
            [
              85.80093203105125,
              20.24840023564633,
              0
            ],
            [
              85.80093525677326,
              20.2483678628037,
              0
            ],
            [
              85.8009706123308,
              20.2483621607865,
              0
            ],
            [
              85.80097538586351,
              20.24831346492116,
              0
            ],
            [
              85.80102676515463,
              20.24849891230537,
              0
            ],
            [
              85.80096149250069,
              20.24855505541212,
              0
            ],
            [
              85.80095554633138,
              20.24851762686009,
              0
            ],
            [
              85.8009144189973,
              20.248536065882128,
              0
            ],
            [
              85.80093368407093,
              20.248614482442928,
              0
            ],
            [
              85.80079913705931,
              20.24863244066768,
              0
            ]
          ]
        ]
      },
      "properties": {
        "name": "SC-Block"
      }
    },
    {
      "type": "Feature",
      "geometry": {
        "type": "Polygon",
        "coordinates": [
          [
            [
              85.8009076535558,
              20.24809573489922,
              0
            ],
            [
              85.80080956973215,
              20.24810626224975,
              0
            ],
            [
              85.80081142128849,
              20.24807070582639,
              0
            ],
            [
              85.80062717223477,
              20.248061600758568,
              0
            ],
            [
              85.80061012553575,
              20.247959950361718,
              0
            ],
            [
              85.80054539038997,
              20.24793613345092,
              0
            ],
            [
              85.80055051109248,
              20.24788881039179,
              0
            ],
            [
              85.80060906591875,
              20.24789259790303,
              0
            ],
            [
              85.80070388593747,
              20.247869800980368,
              0
            ],
            [
              85.80080231482584,
              20.2478875991957,
              0
            ],
            [
              85.80078282070217,
              20.24795770839254,
              0
            ],
            [
              85.80085830888477,
              20.247998884289828,
              0
            ],
            [
              85.8009076535558,
              20.24809573489922,
              0
            ]
          ]
        ]
      },
      "properties": {
        "name": "Library/Physics Block"
      }
    },
    {
      "type": "Feature",
      "geometry": {
        "type": "Polygon",
        "coordinates": [
          [
            [
              85.80028220268237,
              20.24787175503847,
              0
            ],
            [
              85.80030476764011,
              20.24774972815143,
              0
            ],
            [
              85.80034043867214,
              20.247745537395108,
              0
            ],
            [
              85.80037314673703,
              20.247782826154598,
              0
            ],
            [
              85.80048227591546,
              20.24783751912181,
              0
            ],
            [
              85.80046690318025,
              20.24787797318215,
              0
            ],
            [
              85.80039324653039,
              20.24786534279903,
              0
            ],
            [
              85.80028220268237,
              20.24787175503847,
              0
            ]
          ]
        ]
      },
      "properties": {
        "name": "Library Parking Exit"
      }
    },
    {
      "type": "Feature",
      "geometry": {
        "type": "Polygon",
        "coordinates": [
          [
            [
              85.80082903148067,
              20.24767411841416,
              0
            ],
            [
              85.80089524565797,
              20.24755448694705,
              0
            ],
            [
              85.80097475482316,
              20.247436003999198,
              0
            ],
            [
              85.80099971469255,
              20.2474076881003,
              0
            ],
            [
              85.80102859389405,
              20.247403713953368,
              0
            ],
            [
              85.8011334106772,
              20.24741794836051,
              0
            ],
            [
              85.80121388198913,
              20.24738181036194,
              0
            ],
            [
              85.80129770440215,
              20.247334326639848,
              0
            ],
            [
              85.8013208288013,
              20.24736628563288,
              0
            ],
            [
              85.80136180122074,
              20.24735104632779,
              0
            ],
            [
              85.80142595490568,
              20.24733187136431,
              0
            ],
            [
              85.8014274245672,
              20.24736190471909,
              0
            ],
            [
              85.801503333137,
              20.24733434773991,
              0
            ],
            [
              85.80150966644304,
              20.247362243654408,
              0
            ],
            [
              85.80158454704721,
              20.24734402447336,
              0
            ],
            [
              85.80159069816727,
              20.247365067056908,
              0
            ],
            [
              85.80165064949841,
              20.247340358434858,
              0
            ],
            [
              85.80166689934758,
              20.24736062281784,
              0
            ],
            [
              85.80173097392313,
              20.24733574637487,
              0
            ],
            [
              85.8017454675239,
              20.24736352395363,
              0
            ],
            [
              85.80181502729182,
              20.247346726056918,
              0
            ],
            [
              85.80182027084186,
              20.2473668138101,
              0
            ],
            [
              85.8018471866564,
              20.2473598375555,
              0
            ],
            [
              85.80184263538273,
              20.24738673666737,
              0
            ],
            [
              85.8018673351516,
              20.2473752751267,
              0
            ],
            [
              85.80186479143862,
              20.247400620764118,
              0
            ],
            [
              85.80189815124695,
              20.247397996302908,
              0
            ],
            [
              85.80189503108382,
              20.24741520442568,
              0
            ],
            [
              85.80185683891523,
              20.24743485740466,
              0
            ],
            [
              85.8017941500362,
              20.24744640209167,
              0
            ],
            [
              85.80177076995766,
              20.247382036811608,
              0
            ],
            [
              85.80174432500954,
              20.247384759704218,
              0
            ],
            [
              85.80172125180128,
              20.24738950638814,
              0
            ],
            [
              85.80170705274038,
              20.24737711385114,
              0
            ],
            [
              85.80170410493388,
              20.24738881412339,
              0
            ],
            [
              85.8016856160665,
              20.24739228386121,
              0
            ],
            [
              85.80167160713158,
              20.247405576221798,
              0
            ],
            [
              85.80168320602567,
              20.24742630669664,
              0
            ],
            [
              85.80165416200236,
              20.24743571813886,
              0
            ],
            [
              85.80164994572209,
              20.2474499296861,
              0
            ],
            [
              85.80165926634994,
              20.24747392990766,
              0
            ],
            [
              85.80164265640123,
              20.247485310936668,
              0
            ],
            [
              85.80161044200428,
              20.24749612872011,
              0
            ],
            [
              85.80156326187947,
              20.24747472711782,
              0
            ],
            [
              85.80157385238755,
              20.2474962841406,
              0
            ],
            [
              85.80158430293282,
              20.2475367049605,
              0
            ],
            [
              85.80160419446852,
              20.2475736539058,
              0
            ],
            [
              85.8015890431403,
              20.24757915936923,
              0
            ],
            [
              85.80154597074626,
              20.24758990062669,
              0
            ],
            [
              85.80152429010472,
              20.24755190812914,
              0
            ],
            [
              85.80151004821892,
              20.247521428152428,
              0
            ],
            [
              85.8014760859077,
              20.247531250066288,
              0
            ],
            [
              85.8014342189595,
              20.2475377979931,
              0
            ],
            [
              85.80140412745924,
              20.24752735551238,
              0
            ],
            [
              85.80138099650227,
              20.24755623507852,
              0
            ],
            [
              85.8013366408777,
              20.24754970949349,
              0
            ],
            [
              85.80131087185373,
              20.24756887487605,
              0
            ],
            [
              85.80127279513042,
              20.24757563825072,
              0
            ],
            [
              85.80126711120167,
              20.24759577753276,
              0
            ],
            [
              85.80128457458403,
              20.24765853889345,
              0
            ],
            [
              85.80125160886935,
              20.247676246055228,
              0
            ],
            [
              85.80120504389829,
              20.247683257286,
              0
            ],
            [
              85.80115272720714,
              20.247682858736898,
              0
            ],
            [
              85.80112482312869,
              20.24769503813065,
              0
            ],
            [
              85.80107461127157,
              20.24770870045161,
              0
            ],
            [
              85.80102711135672,
              20.2477399584759,
              0
            ],
            [
              85.80098343343134,
              20.2477516331911,
              0
            ],
            [
              85.80097294855666,
              20.24772814063354,
              0
            ],
            [
              85.80094687264403,
              20.24772145686961,
              0
            ],
            [
              85.8009090815858,
              20.24773883791897,
              0
            ],
            [
              85.80086429916386,
              20.24775213697993,
              0
            ],
            [
              85.80081298475234,
              20.2477744110362,
              0
            ],
            [
              85.80079160775068,
              20.24774990649565,
              0
            ],
            [
              85.80080524916096,
              20.24771646949435,
              0
            ],
            [
              85.80082903148067,
              20.24767411841416,
              0
            ]
          ]
        ]
      },
      "properties": {
        "name": "E-Lawn &amp"
      }
    },
    {
      "type": "Feature",
      "geometry": {
        "type": "Polygon",
        "coordinates": [
          [
            [
              85.80084726555916,
              20.24737910267617,
              0
            ],
            [
              85.80091854674086,
              20.24725819955991,
              0
            ],
            [
              85.80097791522736,
              20.24716878048756,
              0
            ],
            [
              85.80102013984121,
              20.2471506819438,
              0
            ],
            [
              85.80105779227094,
              20.24714910254398,
              0
            ],
            [
              85.80107810408288,
              20.247183480029598,
              0
            ],
            [
              85.80109363194799,
              20.2472352058136,
              0
            ],
            [
              85.80109163984777,
              20.24726603545473,
              0
            ],
            [
              85.80092037460527,
              20.2472855015884,
              0
            ],
            [
              85.80086071374221,
              20.24740569796558,
              0
            ],
            [
              85.80087209997484,
              20.24743219076132,
              0
            ],
            [
              85.80085588153358,
              20.247470536881448,
              0
            ],
            [
              85.8008138169664,
              20.24747570301863,
              0
            ],
            [
              85.80078416879162,
              20.24753312213969,
              0
            ],
            [
              85.8007399429719,
              20.24755730825094,
              0
            ],
            [
              85.80084726555916,
              20.24737910267617,
              0
            ]
          ]
        ]
      },
      "properties": {
        "name": "LH Border 1"
      }
    },
    {
      "type": "Feature",
      "geometry": {
        "type": "Polygon",
        "coordinates": [
          [
            [
              85.80195017584829,
              20.247125627355818,
              0
            ],
            [
              85.80193373639742,
              20.24716929700643,
              0
            ],
            [
              85.80187267043387,
              20.24717709897202,
              0
            ],
            [
              85.80173333746295,
              20.24717996824963,
              0
            ],
            [
              85.80156974466283,
              20.24716815525743,
              0
            ],
            [
              85.80143049124642,
              20.24716917456287,
              0
            ],
            [
              85.80132928304373,
              20.24719921825033,
              0
            ],
            [
              85.80120595523674,
              20.24719715503665,
              0
            ],
            [
              85.80115607358637,
              20.247123389880798,
              0
            ],
            [
              85.80113403278311,
              20.24707684152892,
              0
            ],
            [
              85.80114045370844,
              20.24704446947326,
              0
            ],
            [
              85.80119067271713,
              20.247048603558678,
              0
            ],
            [
              85.80122538153691,
              20.24710462885082,
              0
            ],
            [
              85.80133956375546,
              20.24711402732327,
              0
            ],
            [
              85.80154341188594,
              20.24711497009591,
              0
            ],
            [
              85.80174498687747,
              20.24711767043211,
              0
            ],
            [
              85.80195017584829,
              20.247125627355818,
              0
            ]
          ]
        ]
      },
      "properties": {
        "name": "LH Border 2"
      }
    },
    {
      "type": "Feature",
      "geometry": {
        "type": "Polygon",
        "coordinates": [
          [
            [
              85.80197958781915,
              20.24714154686284,
              0
            ],
            [
              85.8020043701963,
              20.24713476302097,
              0
            ],
            [
              85.80203394941059,
              20.24711588537932,
              0
            ],
            [
              85.8020651274068,
              20.24711397729432,
              0
            ],
            [
              85.80210407151428,
              20.24711684238977,
              0
            ],
            [
              85.80212895224304,
              20.24709691449781,
              0
            ],
            [
              85.80214934051705,
              20.24703802337213,
              0
            ],
            [
              85.80211661707256,
              20.2470202178867,
              0
            ],
            [
              85.80211616849748,
              20.246992415325938,
              0
            ],
            [
              85.80212217346073,
              20.24694670570728,
              0
            ],
            [
              85.80214096590075,
              20.24691648880991,
              0
            ],
            [
              85.80217019800592,
              20.246891230325218,
              0
            ],
            [
              85.80224274075832,
              20.24690176900581,
              0
            ],
            [
              85.80221518424219,
              20.24691948052609,
              0
            ],
            [
              85.80220893902342,
              20.24694986238285,
              0
            ],
            [
              85.80219771923286,
              20.24696849971605,
              0
            ],
            [
              85.80220033902648,
              20.24699943837247,
              0
            ],
            [
              85.80223178756138,
              20.24702048982386,
              0
            ],
            [
              85.80227385465004,
              20.24704104145292,
              0
            ],
            [
              85.80233322602615,
              20.24703894562729,
              0
            ],
            [
              85.80233773837465,
              20.24706126064121,
              0
            ],
            [
              85.80229667769822,
              20.24706625406835,
              0
            ],
            [
              85.80221271290992,
              20.247077209258638,
              0
            ],
            [
              85.80220740270235,
              20.2471081849497,
              0
            ],
            [
              85.80220933373923,
              20.247151462385858,
              0
            ],
            [
              85.80214716672775,
              20.24716959935686,
              0
            ],
            [
              85.80209201085238,
              20.24718001068161,
              0
            ],
            [
              85.80204401543628,
              20.24718471914283,
              0
            ],
            [
              85.8019991843735,
              20.2471918561132,
              0
            ],
            [
              85.80197862348318,
              20.24716351078705,
              0
            ],
            [
              85.80197958781915,
              20.24714154686284,
              0
            ]
          ]
        ]
      },
      "properties": {
        "name": "BH Back Side Border"
      }
    },
    {
      "type": "Feature",
      "geometry": {
        "type": "Polygon",
        "coordinates": [
          [
            [
              85.80117017182744,
              20.246813762687978,
              0
            ],
            [
              85.80117397695984,
              20.2467155127814,
              0
            ],
            [
              85.80117868910637,
              20.24661855954647,
              0
            ],
            [
              85.8012168427472,
              20.2466160773926,
              0
            ],
            [
              85.80122088491353,
              20.24663440097207,
              0
            ],
            [
              85.80121653734155,
              20.24667200884058,
              0
            ],
            [
              85.80124050790918,
              20.246673416600448,
              0
            ],
            [
              85.80128060259149,
              20.24667686407048,
              0
            ],
            [
              85.80130136558354,
              20.24669334187141,
              0
            ],
            [
              85.80138240415465,
              20.24669294894277,
              0
            ],
            [
              85.80142094425935,
              20.24667989692177,
              0
            ],
            [
              85.80151427813625,
              20.24668919891752,
              0
            ],
            [
              85.80157283371322,
              20.246675441048758,
              0
            ],
            [
              85.80158869018364,
              20.24662721378349,
              0
            ],
            [
              85.80161493410705,
              20.24665479614428,
              0
            ],
            [
              85.80163664602435,
              20.24668427541833,
              0
            ],
            [
              85.80171399075601,
              20.24668912306522,
              0
            ],
            [
              85.8017855959298,
              20.246680742081498,
              0
            ],
            [
              85.80178158247415,
              20.2466054041168,
              0
            ],
            [
              85.80177886622515,
              20.246559905903588,
              0
            ],
            [
              85.80178128803784,
              20.24640036321992,
              0
            ],
            [
              85.80147839764861,
              20.24639379219676,
              0
            ],
            [
              85.80134086162876,
              20.24638895781926,
              0
            ],
            [
              85.80134200857972,
              20.24636547552819,
              0
            ],
            [
              85.80134393523437,
              20.24633712792765,
              0
            ],
            [
              85.80134561436665,
              20.246309699117408,
              0
            ],
            [
              85.80134779048309,
              20.246274064762968,
              0
            ],
            [
              85.80144904343364,
              20.246297642308328,
              0
            ],
            [
              85.80173663016195,
              20.2462908386915,
              0
            ],
            [
              85.80180819414726,
              20.24628717468151,
              0
            ],
            [
              85.80182442536477,
              20.24631185304811,
              0
            ],
            [
              85.8018163089533,
              20.24655768621042,
              0
            ],
            [
              85.80182936614943,
              20.2466218256182,
              0
            ],
            [
              85.8018341734929,
              20.24669202070671,
              0
            ],
            [
              85.80180684569838,
              20.24682633698303,
              0
            ],
            [
              85.80206603483217,
              20.24682817656689,
              0
            ],
            [
              85.80206225612073,
              20.24685673899272,
              0
            ],
            [
              85.8018998248546,
              20.24685805365879,
              0
            ],
            [
              85.80189469412372,
              20.24688912035776,
              0
            ],
            [
              85.80182303014925,
              20.246895893454248,
              0
            ],
            [
              85.80170566201477,
              20.24687531287923,
              0
            ],
            [
              85.80163731878986,
              20.24688196792992,
              0
            ],
            [
              85.80154446644877,
              20.24687295056084,
              0
            ],
            [
              85.80145325607499,
              20.246875570228518,
              0
            ],
            [
              85.80133251326555,
              20.24686955994817,
              0
            ],
            [
              85.80123109172017,
              20.24686909855413,
              0
            ],
            [
              85.80116754890055,
              20.24688269853876,
              0
            ],
            [
              85.80117017182744,
              20.246813762687978,
              0
            ]
          ]
        ]
      },
      "properties": {
        "name": "LH inner"
      }
    },
    {
      "type": "Feature",
      "geometry": {
        "type": "Polygon",
        "coordinates": [
          [
            [
              85.80243944148592,
              20.24824417813318,
              0
            ],
            [
              85.80256116731061,
              20.24827424515197,
              0
            ],
            [
              85.80252384653102,
              20.24836137042576,
              0
            ],
            [
              85.80246583764938,
              20.24837896882573,
              0
            ],
            [
              85.80252239442521,
              20.24841565779354,
              0
            ],
            [
              85.80260568816402,
              20.24837823130984,
              0
            ],
            [
              85.80265805428373,
              20.24844590260138,
              0
            ],
            [
              85.80266542331587,
              20.24853312198432,
              0
            ],
            [
              85.80255790403872,
              20.24859535911271,
              0
            ],
            [
              85.8025372705402,
              20.248673363809658,
              0
            ],
            [
              85.8025404658449,
              20.24872538867503,
              0
            ],
            [
              85.80242900745996,
              20.248834103346248,
              0
            ],
            [
              85.80234237200001,
              20.24891410604046,
              0
            ],
            [
              85.80238494659673,
              20.24906160561131,
              0
            ],
            [
              85.80205848044012,
              20.249107769166148,
              0
            ],
            [
              85.80201479267423,
              20.249184869986617,
              0
            ],
            [
              85.80205899409033,
              20.24926820883369,
              0
            ],
            [
              85.80207713307578,
              20.24942031710446,
              0
            ],
            [
              85.8020147828566,
              20.24947425380714,
              0
            ],
            [
              85.80206105997816,
              20.24956584242138,
              0
            ],
            [
              85.8020504157891,
              20.24964432100435,
              0
            ],
            [
              85.80192093715794,
              20.24968252356965,
              0
            ],
            [
              85.80181252363623,
              20.24968159866108,
              0
            ],
            [
              85.80175157031493,
              20.24969061024139,
              0
            ],
            [
              85.80173327367443,
              20.24964264614934,
              0
            ],
            [
              85.8016571381359,
              20.24966543782407,
              0
            ],
            [
              85.80154969883233,
              20.24969051414245,
              0
            ],
            [
              85.80136695917362,
              20.249715815967,
              0
            ],
            [
              85.80136642152831,
              20.24976983633975,
              0
            ],
            [
              85.80136171201603,
              20.249840723656508,
              0
            ],
            [
              85.801307327536,
              20.249886772905228,
              0
            ],
            [
              85.80109422086147,
              20.249907778877308,
              0
            ],
            [
              85.80104870893686,
              20.24980033074147,
              0
            ],
            [
              85.801106059999,
              20.249718172297708,
              0
            ],
            [
              85.8011052650364,
              20.249648907861268,
              0
            ],
            [
              85.80106286830491,
              20.24954267282416,
              0
            ],
            [
              85.80119124279881,
              20.24951465250258,
              0
            ],
            [
              85.80125863341998,
              20.24952481832582,
              0
            ],
            [
              85.80127837658064,
              20.24964721678089,
              0
            ],
            [
              85.80135738234443,
              20.24967420171879,
              0
            ],
            [
              85.8013779925385,
              20.24969790594055,
              0
            ],
            [
              85.80145563497707,
              20.249680787724788,
              0
            ],
            [
              85.80153744870921,
              20.24966406760187,
              0
            ],
            [
              85.80172091944887,
              20.24962966435129,
              0
            ],
            [
              85.80170941875363,
              20.249492668834158,
              0
            ],
            [
              85.8018310798835,
              20.24944354686011,
              0
            ],
            [
              85.80184941529166,
              20.24933027387878,
              0
            ],
            [
              85.80183333965655,
              20.24924183709702,
              0
            ],
            [
              85.80178017833981,
              20.24909189021999,
              0
            ],
            [
              85.80175425146741,
              20.249043838220988,
              0
            ],
            [
              85.8018702054698,
              20.249005323495208,
              0
            ],
            [
              85.8019520932895,
              20.249027969061128,
              0
            ],
            [
              85.80201294590184,
              20.24893453310915,
              0
            ],
            [
              85.80207923170366,
              20.2488651275114,
              0
            ],
            [
              85.80203996014386,
              20.24879978871713,
              0
            ],
            [
              85.80214666234923,
              20.24875888659797,
              0
            ],
            [
              85.80221341483664,
              20.24877331648214,
              0
            ],
            [
              85.80228395875758,
              20.248761311851098,
              0
            ],
            [
              85.80235616942741,
              20.248751606171428,
              0
            ],
            [
              85.80231902262284,
              20.24857881937187,
              0
            ],
            [
              85.80231858586042,
              20.24853603970461,
              0
            ],
            [
              85.80238572521297,
              20.24844406065363,
              0
            ],
            [
              85.80239286507548,
              20.248378831695508,
              0
            ],
            [
              85.8023291142548,
              20.24829779036383,
              0
            ],
            [
              85.80224504604678,
              20.24825201644698,
              0
            ],
            [
              85.80213205995408,
              20.24824007303723,
              0
            ],
            [
              85.80216014828663,
              20.24818348137321,
              0
            ],
            [
              85.80234720198175,
              20.248248113288728,
              0
            ],
            [
              85.80243944148592,
              20.24824417813318,
              0
            ]
          ]
        ]
      },
      "properties": {
        "name": "Cafe to Iter border"
      }
    },
    {
      "type": "Feature",
      "geometry": {
        "type": "Polygon",
        "coordinates": [
          [
            [
              85.80113819144512,
              20.248196631812,
              0
            ],
            [
              85.80119494928756,
              20.24818599393631,
              0
            ],
            [
              85.80124052359045,
              20.248194471917078,
              0
            ],
            [
              85.80128022234588,
              20.24818278008661,
              0
            ],
            [
              85.80130288526303,
              20.24817001836204,
              0
            ],
            [
              85.80133492967381,
              20.24815897735367,
              0
            ],
            [
              85.80141551741063,
              20.24814328629876,
              0
            ],
            [
              85.80148593983917,
              20.24812730310427,
              0
            ],
            [
              85.80156882072885,
              20.248116589298288,
              0
            ],
            [
              85.80161868050078,
              20.24810484087892,
              0
            ],
            [
              85.8016955458969,
              20.24808777642172,
              0
            ],
            [
              85.80191139224445,
              20.24800076181689,
              0
            ],
            [
              85.80201310170314,
              20.247960471719228,
              0
            ],
            [
              85.80207079942133,
              20.24792757753816,
              0
            ],
            [
              85.80209928248723,
              20.247888221812048,
              0
            ],
            [
              85.80210211160853,
              20.24782567190352,
              0
            ],
            [
              85.80203718251423,
              20.24765535751144,
              0
            ],
            [
              85.80200339108666,
              20.24755278312025,
              0
            ],
            [
              85.80201361780331,
              20.24755336560959,
              0
            ],
            [
              85.80205183171904,
              20.24765250604373,
              0
            ],
            [
              85.80212141392235,
              20.24782473169302,
              0
            ],
            [
              85.80211256328161,
              20.24789600124188,
              0
            ],
            [
              85.80207861086085,
              20.247942047749838,
              0
            ],
            [
              85.80201699211712,
              20.24797576255331,
              0
            ],
            [
              85.80191610170712,
              20.24801447257151,
              0
            ],
            [
              85.80170286182148,
              20.248097766242378,
              0
            ],
            [
              85.8016175416625,
              20.24812204796952,
              0
            ],
            [
              85.80157149956632,
              20.248132740702328,
              0
            ],
            [
              85.80148977005952,
              20.24814411453994,
              0
            ],
            [
              85.80140936454711,
              20.24815324283252,
              0
            ],
            [
              85.80133496597807,
              20.24816849285363,
              0
            ],
            [
              85.80129033305833,
              20.24819096120002,
              0
            ],
            [
              85.80124109396863,
              20.2482050151383,
              0
            ],
            [
              85.80119084448482,
              20.248203104864338,
              0
            ],
            [
              85.80113819144512,
              20.248196631812,
              0
            ]
          ]
        ]
      },
      "properties": {
        "name": "pavement behind Eblock"
      }
    },
    {
      "type": "Feature",
      "geometry": {
        "type": "Polygon",
        "coordinates": [
          [
            [
              85.8019335352938,
              20.24613743639036,
              0
            ],
            [
              85.80202317655746,
              20.24613583072291,
              0
            ],
            [
              85.80209411826286,
              20.24615016401469,
              0
            ],
            [
              85.80211445008926,
              20.246175587675808,
              0
            ],
            [
              85.80210646398258,
              20.24626397845283,
              0
            ],
            [
              85.80209765612554,
              20.24646112628592,
              0
            ],
            [
              85.80209793129791,
              20.2464979276267,
              0
            ],
            [
              85.80209822183292,
              20.246536619434238,
              0
            ],
            [
              85.80209342389746,
              20.24656655638799,
              0
            ],
            [
              85.80209213437897,
              20.24661218928938,
              0
            ],
            [
              85.80208411239747,
              20.24664518053883,
              0
            ],
            [
              85.80208611062778,
              20.24669382034679,
              0
            ],
            [
              85.80208488318412,
              20.24673922186195,
              0
            ],
            [
              85.80209221919124,
              20.24678758799373,
              0
            ],
            [
              85.80206380661637,
              20.24679543205951,
              0
            ],
            [
              85.80207389065771,
              20.24632054704449,
              0
            ],
            [
              85.80208897664353,
              20.24622568773737,
              0
            ],
            [
              85.8020872716203,
              20.246190851771818,
              0
            ],
            [
              85.80206871750572,
              20.246189265749138,
              0
            ],
            [
              85.8020181089751,
              20.246182925948098,
              0
            ],
            [
              85.80194735806677,
              20.24618614146803,
              0
            ],
            [
              85.80190178770944,
              20.246179790730178,
              0
            ],
            [
              85.80184947758222,
              20.246189270706328,
              0
            ],
            [
              85.80183440494501,
              20.246170795815118,
              0
            ],
            [
              85.80183597684444,
              20.246148558639188,
              0
            ],
            [
              85.8019335352938,
              20.24613743639036,
              0
            ]
          ]
        ]
      },
      "properties": {
        "name": "Behind LH-3"
      }
    }
  ]
}