<?xml version="1.0" encoding="UTF-8"?>

<kml xmlns="http://www.opengis.net/kml/2.2">

<Document>

    <Placemark>
        <name>ITER main gate to cafe (left)</name>

        <Polygon>
            <outerBoundaryIs>
                <LinearRing>
                    <coordinates>
                        85.7999274272089,20.25048174941283,0 85.79986161226532,20.25032136193153,0 85.79982607777369,20.25019449063931,0 85.79977873083349,20.2500822724172,0 85.79971953757732,20.24996258430432,0 85.79959763996935,20.24975176843433,0 85.79960343241098,20.24956894780212,0 85.79968046964282,20.24945669567275,0 85.79977049378181,20.24932422760896,0 85.79985721713051,20.24922821827245,0 85.79989651942395,20.24917712345044,0 85.79983393935508,20.24898933479628,0 85.7996781413445,20.24888679705089,0 85.79960550575206,20.24880033311623,0 85.79962457573092,20.24866726340528,0 85.79950358372251,20.24864408415261,0 85.79942720831306,20.24843666688914,0 85.79943469134025,20.24829460393696,0 85.79937379093059,20.24824483973465,0 85.79937688548254,20.24816433803553,0 85.79944437112873,20.24808450951799,0 85.79950371382496,20.24806564267967,0 85.79956889944638,20.24799239773684,0 85.79960728629425,20.24790710080747,0 85.79969523709281,20.24787825183036,0 85.79974180063866,20.24782529571823,0 85.79980927342083,20.24780785123522,0 85.79984078436455,20.24779735628706,0 85.79987995435216,20.24772041638058,0 85.79982346591919,20.24767924127582,0 85.79975447594518,20.24766264101121,0 85.79975792296381,20.24761865591482,0 85.79978230638916,20.24759181380185,0 85.79977858686718,20.24756202978766,0 85.79986404787448,20.24758590494726,0 85.79990842185234,20.24759506801455,0 85.79994875906205,20.24754420153693,0 85.79996968860306,20.24750485881124,0 85.80002563394473,20.24742313119995,0 85.80006424218823,20.24736900948137,0 85.80007412140517,20.24731434088429,0 85.80010025932616,20.24726635177938,0 85.80010299766548,20.24720382474542,0 85.80013668322542,20.24717824790483,0 85.80015667968642,20.2470730406538,0 85.80018094629708,20.24700395404326,0 85.80020214868813,20.24694264240156,0 85.8002292692797,20.24687905648854,0 85.80018113736665,20.24685508690378,0 85.80018810636666,20.24676604355641,0 85.80009033405052,20.24673786736011,0 85.80010418256508,20.24668473598934,0 85.80020950958472,20.2466859879172,0 85.80028496758914,20.24668636970778,0 85.80030557005421,20.24660533584356,0 85.8003545722714,20.24660077317913,0 85.80040272294673,20.2465871424986,0 85.80044399376504,20.24656506532156,0 85.8004659804491,20.24645222349919,0 85.80050020802268,20.24643204548003,0 85.80052890901611,20.24635593951028,0 85.80054586434029,20.24630593739497,0 85.80056538793551,20.24630225660008,0 85.80064025607741,20.24633244455534,0 85.80064818322278,20.24636909515013,0 85.80078342979448,20.24634514903386,0 85.80084556717966,20.24631326581303,0 85.80080800742809,20.24613295935864,0 85.8008500350011,20.24607430260102,0 85.80093993076991,20.24603963865826,0 85.80095559251944,20.24594258401777,0 85.80094779548249,20.24587483565669,0 85.80114762627079,20.24591286525638,0 85.80126627551766,20.24591610655939,0 85.80128728414972,20.24582662036902,0 85.80128050365722,20.24572249919743,0 85.80127973188874,20.24544684384352,0 85.80148170924257,20.24531437326217,0 85.80161649105018,20.24528550638966,0 85.80181912007266,20.24531796182468,0 85.8019454759241,20.24534145658513,0 85.80208726863677,20.24522723721232,0 85.80221460976644,20.24510223354858,0 85.80235439446005,20.24497896151432,0 85.80250071213804,20.24481865642247,0 85.80260436702046,20.2448527265054,0 85.80269730688998,20.24494759153769,0 85.80276875378449,20.2450771208013,0 85.80283840351487,20.24514540449367,0 85.80295823073634,20.24517438600554,0 85.8030536421751,20.24521070183683,0 85.80306257881557,20.24537805444284,0 85.8030079721442,20.24551769365563,0 85.8029850767074,20.24581012752149,0 85.80298495028008,20.24592681855343,0 85.80299841888807,20.24603803373189,0 85.80300523632761,20.24621232193394,0 85.8030047284947,20.24645647236868,0 85.80287915776734,20.24659625528776,0 85.80273900704999,20.24670330389534,0 85.80264166964692,20.24673754655528,0 85.80262223428271,20.24678781399078,0 85.80259352887565,20.24691513505673,0 85.80254624273866,20.24705528456142,0 85.80258321729421,20.24721211239876,0 85.80251624492402,20.24722326818734,0 85.80245811185419,20.24716323636606,0 85.80245046584825,20.24728527304831,0 85.8024562099499,20.2473908980062,0 85.80252299566853,20.24743136284846,0 85.80258914393558,20.24751183185108,0 85.80249752644198,20.24753963884872,0 85.80246150772989,20.24759858904662,0 85.80240325288293,20.24762248572974,0 85.80245614386467,20.24773773137111,0 85.80250778319235,20.2478452330632,0 85.8025735612481,20.24785103793641,0 85.80264562590511,20.24783132589095,0 85.80274434159404,20.24780843500087,0 85.80280883336764,20.2478041213883,0 85.80283375505626,20.24790447649629,0 85.80272007247154,20.24793548273157,0 85.80261015705118,20.24795542614095,0 85.80254414674384,20.24797461163617,0 85.8024782738207,20.24801010722666,0 85.80243501826681,20.24800631307196,0 85.80240380165056,20.24795743726718,0 85.80238946082039,20.24791000396616,0 85.802249341181,20.2479225355119,0 85.80220493348436,20.24788963276378,0 85.80219135492543,20.24783838607633,0 85.80221326765022,20.24781460207583,0 85.80225717344865,20.24780149529228,0 85.80228962798475,20.24783284375833,0 85.80231946007311,20.24786967929013,0 85.8023517642348,20.24787157207005,0 85.80235841079681,20.24784034539097,0 85.80233360792339,20.24778240294797,0 85.80231123300051,20.2476977929333,0 85.80229858569469,20.24765633184447,0 85.80227567011792,20.24760209066281,0 85.80223675579141,20.24755487350499,0 85.80220765046892,20.24750198655751,0 85.80217088693111,20.24744403671439,0 85.80215763820264,20.24739507476323,0 85.80213088226408,20.24731818792334,0 85.80213158928998,20.2472504187806,0 85.80219045824336,20.24720469335363,0 85.80230153959417,20.24716884128487,0 85.80242456337876,20.2471368218552,0 85.80245181922029,20.24708579125789,0 85.80237536085124,20.24707416976885,0 85.8023747679897,20.24705665081097,0 85.80244726079178,20.24705359434598,0 85.80249320249146,20.24705065025336,0 85.80248852327675,20.24700533321766,0 85.80251989617568,20.24693324751228,0 85.80252177935262,20.24686464311677,0 85.80257615813431,20.24675962197613,0 85.80265125542647,20.24668792852373,0 85.80276717751575,20.24660981241387,0 85.8028407520045,20.24654032860153,0 85.8029075517133,20.2464808540164,0 85.80286615694042,20.2464272256689,0 85.80285854474086,20.24634741088953,0 85.80286362462006,20.2462944069649,0 85.80286463884104,20.24623016573619,0 85.80286562040381,20.24617571919486,0 85.80280753580499,20.24616846794341,0 85.80277274295122,20.24615555703746,0 85.802787525176,20.24610196446545,0 85.80281031353385,20.24605248194552,0 85.8028024879609,20.24595483024923,0 85.8028131103697,20.245904927014,0 85.8028445727834,20.2458673291598,0 85.80285055659705,20.24579613152765,0 85.80289726360436,20.24578787431855,0 85.80290900025291,20.24572912938974,0 85.80291517842677,20.24566485720225,0 85.802915596698,20.24554790166204,0 85.80291829545953,20.24545665932429,0 85.80291376403501,20.24539255897512,0 85.80284983555845,20.24538385802089,0 85.80281275596172,20.2453746771443,0 85.80281112776485,20.24534187213602,0 85.80267120113444,20.24534114272425,0 85.80257253173504,20.24531814848116,0 85.80258029824999,20.24529214690995,0 85.80263916003396,20.24528331072711,0 85.80264286453627,20.24524144541542,0 85.80262310188343,20.24518525326571,0 85.80259545421059,20.24513497378724,0 85.80265962573641,20.24509065856265,0 85.80262752922188,20.24505594418341,0 85.80257247817904,20.24499620163573,0 85.80250894151885,20.24495916735096,0 85.80234102236908,20.24512047181955,0 85.8021790062259,20.24529656419422,0 85.80205716775581,20.24541214042917,0 85.80184292698222,20.245412907122,0 85.80162349497728,20.24533787459785,0 85.80149674208401,20.24537589900681,0 85.80144260450346,20.24541494010235,0 85.80143343380098,20.24549270175639,0 85.80142112982918,20.24559358786442,0 85.80140059039789,20.24568855850285,0 85.80141661749914,20.24584177094453,0 85.80145733625592,20.24595814561632,0 85.80148057517408,20.24609692868663,0 85.80140549140314,20.24616673942193,0 85.80143630047216,20.24624968489202,0 85.80138456558748,20.24626509407711,0 85.80135910042308,20.24622811611619,0 85.80126603892276,20.24623354566896,0 85.80113205529842,20.24622289750398,0 85.80104668599984,20.24624837333285,0 85.80104405081319,20.24629955963184,0 85.80098362298195,20.24633331445803,0 85.80098392514776,20.24638389239942,0 85.80100432535474,20.24643671467415,0 85.80104210676184,20.24647302225728,0 85.80104138727945,20.24653389845417,0 85.80099020150031,20.2466288941432,0 85.80098754654983,20.24669097235867,0 85.80104888510066,20.2466915293544,0 85.80107623745887,20.24677043101596,0 85.80101090133068,20.24678525509676,0 85.80091421965361,20.24678879858636,0 85.80080137405048,20.24682270338645,0 85.80073951070881,20.24695158110402,0 85.80066988522209,20.2470706595076,0 85.80049879152263,20.24734822324741,0 85.8004762537513,20.24738977093327,0 85.80073647076432,20.24753000005009,0 85.80076372979477,20.24755846408663,0 85.80074237493896,20.24759683125123,0 85.80060768962794,20.24750522438475,0 85.80049480517954,20.24745425386494,0 85.8003771532503,20.24763607127905,0 85.80033584699942,20.24760723340842,0 85.80035485436599,20.24753529448814,0 85.80034954341319,20.2474711836119,0 85.80035511184259,20.24742447349032,0 85.80043698822931,20.24743101761378,0 85.80042612606422,20.24735394030786,0 85.80052893785773,20.24706396501453,0 85.80063896948417,20.24687028690066,0 85.80073328741526,20.24675944226598,0 85.80087402770823,20.24675848433085,0 85.80090988700158,20.24658054985673,0 85.80081679709477,20.24669879207242,0 85.80067350197584,20.2467005996652,0 85.8004935186579,20.24677093015723,0 85.80058961876945,20.24680818166557,0 85.80052869660834,20.24696521014827,0 85.80039017246166,20.2472141610165,0 85.80034079421101,20.247340609971,0 85.80030716559273,20.24744605192485,0 85.80022392249953,20.24743389906292,0 85.80019472900121,20.24752928645053,0 85.80009509463775,20.24758726759879,0 85.79993314884919,20.24806760922255,0 85.79974786135904,20.24815275373293,0 85.79974229362304,20.24826104565517,0 85.79979642454437,20.24831339943821,0 85.79994636751466,20.24837324811485,0 85.79991942103992,20.24843550824598,0 85.7998657088752,20.2484477115325,0 85.79990242807587,20.248622750659,0 85.80009012977938,20.24867271674679,0 85.80033104921858,20.24874533088405,0 85.80047524742963,20.24876674636948,0 85.80056273466235,20.24876385324128,0 85.80056145275333,20.24897139545833,0 85.80052397802463,20.2490830191977,0 85.80045098607712,20.24920724545985,0 85.80037094008937,20.24932437348004,0 85.80023377517519,20.24933321454943,0 85.80015757336538,20.2493322021801,0 85.8000474236547,20.24932804337795,0 85.79997818251073,20.24933695158922,0 85.79990395222032,20.24942546832136,0 85.79971194891719,20.24968796993963,0 85.79968773627795,20.2498012376445,0 85.79970402108438,20.24988979336783,0 85.79979362392372,20.24997372262797,0 85.79987509695542,20.25007831753122,0 85.80000854627809,20.25009429626484,0 85.80007106515882,20.24991137785265,0 85.80009987731003,20.24976596081401,0 85.80010849333402,20.24965659555206,0 85.80011320397107,20.24957311133794,0 85.80014311512731,20.24948479784614,0 85.80019772037636,20.24944076596917,0 85.80028111090944,20.24944628304333,0 85.80040933574165,20.24947115620981,0 85.80044648108769,20.24954598360415,0 85.80050812065568,20.24959983374343,0 85.80048575442262,20.24965739747438,0 85.80043457570255,20.2496094446265,0 85.80037256053639,20.24963901126181,0 85.80026972359639,20.24963588309764,0 85.80026373789158,20.24958773216271,0 85.80031881232766,20.24948573626152,0 85.80027193598815,20.24949063777195,0 85.80023515400727,20.2495467451486,0 85.80017443230686,20.2496360197358,0 85.80013661523643,20.25001188448659,0 85.80024163446066,20.25007506663441,0 85.8002626593493,20.25017874664676,0 85.80019847086487,20.25021380064005,0 85.80015125132651,20.25021667476483,0 85.80010805223966,20.25020085283279,0 85.80012294776037,20.25011672685675,0 85.80010471387413,20.25007607265622,0 85.80006724821949,20.25010468766333,0 85.80005371615067,20.2501506759315,0 85.80000648457244,20.25016394753646,0 85.79992718861151,20.25017621685686,0 85.79995716746645,20.25027645673489,0 85.79995434101099,20.25034393247732,0 85.79996128913378,20.25043571322998,0 85.7999274272089,20.25048174941283,0
                    </coordinates>
                </LinearRing>
            </outerBoundaryIs>
        </Polygon>

    </Placemark>

    <Placemark>
        <name>behind BH-02</name>

        <Polygon>
            <outerBoundaryIs>
                <LinearRing>
                    <coordinates>
                        85.80067217971403,20.25053273967515,0 85.80066956175371,20.2504475336532,0 85.80074898370469,20.25044341743565,0 85.80088090223606,20.25043707774233,0 85.80100743222023,20.25043896262764,0 85.80112953535243,20.2504323188559,0 85.8010343418328,20.25045955806712,0 85.80093456005261,20.25046630611145,0 85.80092752208374,20.25051832778356,0 85.80087999679816,20.25052135307949,0 85.80080012664475,20.25051046174058,0 85.80067217971403,20.25053273967515,0                     </coordinates>
                </LinearRing>
            </outerBoundaryIs>
        </Polygon>

    </Placemark>

    <Placemark>
        <name>BH-01</name>

        <Polygon>
            <outerBoundaryIs>
                <LinearRing>
                    <coordinates>
                        85.80054494239621,20.25012886546538,0 85.8005754720739,20.250106971816,0 85.80062027432373,20.25009525917231,0 85.80062864650202,20.2500641660122,0 85.80060746187677,20.25005037957893,0 85.80059904588843,20.25002449139375,0 85.80057660461139,20.250024341294,0 85.80054959165041,20.25001429016269,0 85.80054968795437,20.24997988032241,0 85.80059222933424,20.24996259672125,0 85.80060619028816,20.24991173587313,0 85.80061866442627,20.24987453263113,0 85.80062929199656,20.24983612388769,0 85.80065816466407,20.24981477247948,0 85.80069099022595,20.24981071048819,0 85.80076503513543,20.24980608072457,0 85.80084860896071,20.24980319369702,0 85.8009227758439,20.24981332053596,0 85.80100166811458,20.24981394698758,0 85.80104812196093,20.24983028653977,0 85.80097945153264,20.24983437508011,0 85.80085991856576,20.24982690182386,0 85.80073719999257,20.2498227811868,0 85.80068955583832,20.24983457629924,0 85.80068781110371,20.24987925914238,0 85.80067514429368,20.24993731765942,0 85.80067545633027,20.25003276187826,0 85.80068775492465,20.25013002364046,0 85.80063720273279,20.25016953921035,0 85.80055732811601,20.25014822444432,0 85.80054494239621,20.25012886546538,0                     </coordinates>
                </LinearRing>
            </outerBoundaryIs>
        </Polygon>

    </Placemark>

    <Placemark>
        <name>C-Block</name>

        <Polygon>
            <outerBoundaryIs>
                <LinearRing>
                    <coordinates>
                        85.80076791703978,20.24909090151975,0 85.80069714292013,20.24910579740769,0 85.80067084347431,20.24905581790448,0 85.80060903985283,20.24904724891297,0 85.80059186778033,20.24899591241615,0 85.80062539321392,20.24896216987735,0 85.80066164223062,20.24895923749098,0 85.80068397785939,20.24894907862076,0 85.80066894381606,20.24893314433384,0 85.80063300169505,20.24893754000491,0 85.80062673280329,20.2489056595382,0 85.80065954573435,20.24890165853554,0 85.80066830825072,20.24885310828234,0 85.80065705276483,20.24882022542405,0 85.8005788544807,20.24883368939603,0 85.80057488809092,20.24877538644202,0 85.80061173367632,20.24874786547802,0 85.80067444816028,20.24874650491571,0 85.80071655845849,20.24872489784284,0 85.80075000136596,20.24870635429209,0 85.80079996169229,20.24872420809318,0 85.8008355099621,20.24868337825091,0 85.80083138020724,20.24865662486382,0 85.80086782062352,20.24865199138673,0 85.80091921871048,20.24863939003474,0 85.80094713740077,20.24865331827808,0 85.80090671602548,20.24867432170122,0 85.80090897949432,20.24869976908891,0 85.80094537139327,20.24869514950114,0 85.80097958608299,20.24867568039996,0 85.80103867921528,20.24866061153477,0 85.80110541448367,20.2486536603148,0 85.80111283738889,20.24862696631729,0 85.80108148683834,20.24861125265593,0 85.80109663002069,20.24858204844483,0 85.8011415519987,20.24856875722011,0 85.80120130586648,20.24856872094497,0 85.80121706269847,20.24861069861026,0 85.80125512152402,20.2485831082581,0 85.80126005209077,20.24856124171372,0 85.80130727123907,20.2485522074594,0 85.80131259911114,20.24856670117995,0 85.80136551004071,20.24856299852581,0 85.80140046606274,20.24853577303706,0 85.80146766946189,20.24851808775115,0 85.80154846032784,20.24850320104017,0 85.80160239786596,20.24852520575598,0 85.80155260396802,20.24856351823799,0 85.80148178180927,20.24855883234846,0 85.80150432852469,20.24860159883166,0 85.80143018010938,20.24861707103936,0 85.80136462620716,20.24862384771196,0 85.80136112431143,20.2486668222928,0 85.80134265344036,20.2486736903499,0 85.80132900878466,20.24864656448657,0 85.80131087977546,20.24864431058974,0 85.80124681642278,20.24866000914033,0 85.80120756629448,20.24866800263467,0 85.80112166174828,20.24868795679207,0 85.8010572028021,20.24869912498417,0 85.80101828903672,20.24870858938177,0 85.80101155900394,20.24873968244676,0 85.80089600282211,20.24876332052187,0 85.80087370764825,20.24873294047092,0 85.80073315544188,20.24876596252275,0 85.80067201096418,20.24878293278146,0 85.8007140220156,20.24888935873866,0 85.80074248311949,20.24899605363868,0 85.80076791703978,20.24909090151975,0                     </coordinates>
                </LinearRing>
            </outerBoundaryIs>
        </Polygon>

    </Placemark>

    <Placemark>
        <name>Library left side</name>

        <Polygon>
            <outerBoundaryIs>
                <LinearRing>
                    <coordinates>
                        85.80058071534613,20.24871087651738,0 85.80053897503973,20.24866630977896,0 85.80055633800093,20.24865363806783,0 85.80055656537016,20.24861513667115,0 85.80051065485088,20.2485975939466,0 85.80049527019091,20.2486160328257,0 85.80046123216886,20.24859426606073,0 85.80038766987798,20.24859343034397,0 85.80037454776816,20.24860802460362,0 85.80034969123669,20.24862553461436,0 85.80032367502174,20.24861639674106,0 85.80033542913552,20.24859155771926,0 85.8002969189092,20.24858493310422,0 85.80027206596205,20.24859587121663,0 85.80022760845442,20.24858549459074,0 85.80021101404442,20.24855330308514,0 85.80016368004146,20.24853805742238,0 85.80013837126455,20.2485462700522,0 85.80009181206715,20.2485270111901,0 85.80004446401327,20.2484930416703,0 85.80003915870114,20.24843722882477,0 85.80005991315066,20.24838849463658,0 85.80005153003999,20.24835071607975,0 85.80009491206479,20.24828506023497,0 85.80013152331121,20.24825901457786,0 85.80018459499753,20.24829609278539,0 85.80015464378492,20.24833052151589,0 85.80013860844321,20.24836420652514,0 85.80011181717221,20.24840954363334,0 85.80010036985192,20.24844586745813,0 85.80012070846028,20.24845868092321,0 85.80018521473954,20.248471942863,0 85.800276434442,20.24852618163309,0 85.80035757444244,20.24856797143859,0 85.80039536777477,20.24856219177219,0 85.80047510026208,20.24855213894894,0 85.80050530104499,20.24850579619227,0 85.8005174217836,20.24852149203629,0 85.80051449201655,20.24859067022019,0 85.80054636517644,20.24860782654258,0 85.80058902476051,20.24861748885751,0 85.8006504580362,20.24860856882673,0 85.80066844595062,20.24867264991829,0 85.80068588953444,20.24870351695174,0 85.80064438997552,20.24872905335418,0 85.80058071534613,20.24871087651738,0                     </coordinates>
                </LinearRing>
            </outerBoundaryIs>
        </Polygon>

    </Placemark>

    <Placemark>
        <name>SC-Block</name>

        <Polygon>
            <outerBoundaryIs>
                <LinearRing>
                    <coordinates>
                        85.80082813705931,20.24865044066768,0 85.80080957319497,20.24858087477344,0 85.80093241813937,20.24854907375692,0 85.80099421928766,20.24852948168146,0 85.80102780970185,20.24850880899843,0 85.80101984600829,20.2484310083152,0 85.80096103105124,20.24841823564633,0 85.80096425677326,20.2483858628037,0 85.8009996123308,20.2483801607865,0 85.80100438586351,20.24833146492116,0 85.80105576515463,20.24851691230537,0 85.80099049250069,20.24857305541212,0 85.80098454633138,20.24853562686009,0 85.80094341899729,20.24855406588213,0 85.80096268407092,20.24863248244293,0 85.80082813705931,20.24865044066768,0                     </coordinates>
                </LinearRing>
            </outerBoundaryIs>
        </Polygon>

    </Placemark>

    <Placemark>
        <name>Library/Physics Block</name>

        <Polygon>
            <outerBoundaryIs>
                <LinearRing>
                    <coordinates>
                        85.80093665355579,20.24811373489922,0 85.80083856973215,20.24812426224975,0 85.80084042128848,20.24808870582639,0 85.80065617223477,20.24807960075857,0 85.80063912553575,20.24797795036172,0 85.80057439038997,20.24795413345092,0 85.80057951109248,20.24790681039179,0 85.80063806591875,20.24791059790303,0 85.80073288593746,20.24788780098037,0 85.80083131482584,20.2479055991957,0 85.80081182070217,20.24797570839254,0 85.80088730888477,20.24801688428983,0 85.80093665355579,20.24811373489922,0                     </coordinates>
                </LinearRing>
            </outerBoundaryIs>
        </Polygon>

    </Placemark>

    <Placemark>
        <name>Library Parking Exit</name>

        <Polygon>
            <outerBoundaryIs>
                <LinearRing>
                    <coordinates>
                        85.80031120268237,20.24788975503847,0 85.80033376764011,20.24776772815143,0 85.80036943867213,20.24776353739511,0 85.80040214673703,20.2478008261546,0 85.80051127591545,20.24785551912181,0 85.80049590318025,20.24789597318215,0 85.80042224653039,20.24788334279903,0 85.80031120268237,20.24788975503847,0                    
                    </coordinates>
                </LinearRing>
            </outerBoundaryIs>
        </Polygon>

    </Placemark>

    <Placemark>
        <name>E-Lawn &amp</name>

        <Polygon>
            <outerBoundaryIs>
                <LinearRing>
                    <coordinates>
                        85.80085803148067,20.24769211841416,0 85.80092424565797,20.24757248694705,0 85.80100375482316,20.2474540039992,0 85.80102871469255,20.2474256881003,0 85.80105759389404,20.24742171395337,0 85.80116241067719,20.24743594836051,0 85.80124288198913,20.24739981036194,0 85.80132670440214,20.24735232663985,0 85.80134982880129,20.24738428563288,0 85.80139080122073,20.24736904632779,0 85.80145495490568,20.24734987136431,0 85.80145642456719,20.24737990471909,0 85.801532333137,20.24735234773991,0 85.80153866644304,20.24738024365441,0 85.80161354704721,20.24736202447336,0 85.80161969816727,20.24738306705691,0 85.80167964949841,20.24735835843486,0 85.80169589934758,20.24737862281784,0 85.80175997392313,20.24735374637487,0 85.8017744675239,20.24738152395363,0 85.80184402729182,20.24736472605692,0 85.80184927084186,20.2473848138101,0 85.8018761866564,20.2473778375555,0 85.80187163538272,20.24740473666737,0 85.8018963351516,20.2473932751267,0 85.80189379143862,20.24741862076412,0 85.80192715124694,20.24741599630291,0 85.80192403108381,20.24743320442568,0 85.80188583891523,20.24745285740466,0 85.8018231500362,20.24746440209167,0 85.80179976995765,20.24740003681161,0 85.80177332500953,20.24740275970422,0 85.80175025180128,20.24740750638814,0 85.80173605274038,20.24739511385114,0 85.80173310493387,20.24740681412339,0 85.80171461606649,20.24741028386121,0 85.80170060713158,20.2474235762218,0 85.80171220602567,20.24744430669664,0 85.80168316200236,20.24745371813886,0 85.80167894572209,20.2474679296861,0 85.80168826634994,20.24749192990766,0 85.80167165640123,20.24750331093667,0 85.80163944200427,20.24751412872011,0 85.80159226187946,20.24749272711782,0 85.80160285238755,20.2475142841406,0 85.80161330293282,20.2475547049605,0 85.80163319446852,20.2475916539058,0 85.80161804314029,20.24759715936923,0 85.80157497074626,20.24760790062669,0 85.80155329010472,20.24756990812914,0 85.80153904821891,20.24753942815243,0 85.80150508590769,20.24754925006629,0 85.8014632189595,20.2475557979931,0 85.80143312745923,20.24754535551238,0 85.80140999650227,20.24757423507852,0 85.80136564087769,20.24756770949349,0 85.80133987185373,20.24758687487605,0 85.80130179513041,20.24759363825072,0 85.80129611120167,20.24761377753276,0 85.80131357458403,20.24767653889345,0 85.80128060886935,20.24769424605523,0 85.80123404389829,20.247701257286,0 85.80118172720714,20.2477008587369,0 85.80115382312869,20.24771303813065,0 85.80110361127157,20.24772670045161,0 85.80105611135671,20.2477579584759,0 85.80101243343134,20.2477696331911,0 85.80100194855666,20.24774614063354,0 85.80097587264403,20.24773945686961,0 85.8009380815858,20.24775683791897,0 85.80089329916386,20.24777013697993,0 85.80084198475234,20.2477924110362,0 85.80082060775068,20.24776790649565,0 85.80083424916096,20.24773446949435,0 85.80085803148067,20.24769211841416,0                    
                    </coordinates>
                </LinearRing>
            </outerBoundaryIs>
        </Polygon>

    </Placemark>

    <Placemark>
        <name>LH Border 1</name>

        <Polygon>
            <outerBoundaryIs>
                <LinearRing>
                    <coordinates>
                        85.80087626555915,20.24739710267617,0 85.80094754674086,20.24727619955991,0 85.80100691522736,20.24718678048756,0 85.80104913984121,20.2471686819438,0 85.80108679227094,20.24716710254398,0 85.80110710408287,20.2472014800296,0 85.80112263194799,20.2472532058136,0 85.80112063984777,20.24728403545473,0 85.80094937460527,20.2473035015884,0 85.80088971374221,20.24742369796558,0 85.80090109997484,20.24745019076132,0 85.80088488153358,20.24748853688145,0 85.80084281696639,20.24749370301863,0 85.80081316879162,20.24755112213969,0 85.8007689429719,20.24757530825094,0 85.80087626555915,20.24739710267617,0                     
                    </coordinates>
                </LinearRing>
            </outerBoundaryIs>
        </Polygon>

    </Placemark>

    <Placemark>
        <name>LH Border 2</name>

        <Polygon>
            <outerBoundaryIs>
                <LinearRing>
                    <coordinates>
                        85.80197917584829,20.24714362735582,0 85.80196273639741,20.24718729700643,0 85.80190167043386,20.24719509897202,0 85.80176233746295,20.24719796824963,0 85.80159874466283,20.24718615525743,0 85.80145949124642,20.24718717456287,0 85.80135828304373,20.24721721825033,0 85.80123495523674,20.24721515503665,0 85.80118507358637,20.2471413898808,0 85.80116303278311,20.24709484152892,0 85.80116945370844,20.24706246947326,0 85.80121967271712,20.24706660355868,0 85.80125438153691,20.24712262885082,0 85.80136856375546,20.24713202732327,0 85.80157241188594,20.24713297009591,0 85.80177398687746,20.24713567043211,0 85.80197917584829,20.24714362735582,0                    
                    </coordinates>
                </LinearRing>
            </outerBoundaryIs>
        </Polygon>

    </Placemark>

    <Placemark>
        <name>BH Back Side Border</name>

        <Polygon>
            <outerBoundaryIs>
                <LinearRing>
                    <coordinates>
                        85.80200858781915,20.24715954686284,0 85.8020333701963,20.24715276302097,0 85.80206294941058,20.24713388537932,0 85.8020941274068,20.24713197729432,0 85.80213307151428,20.24713484238977,0 85.80215795224304,20.24711491449781,0 85.80217834051705,20.24705602337213,0 85.80214561707255,20.2470382178867,0 85.80214516849747,20.24701041532594,0 85.80215117346073,20.24696470570728,0 85.80216996590075,20.24693448880991,0 85.80219919800592,20.24690923032522,0 85.80227174075831,20.24691976900581,0 85.80224418424218,20.24693748052609,0 85.80223793902341,20.24696786238285,0 85.80222671923286,20.24698649971605,0 85.80222933902648,20.24701743837247,0 85.80226078756138,20.24703848982386,0 85.80230285465004,20.24705904145292,0 85.80236222602615,20.24705694562729,0 85.80236673837464,20.24707926064121,0 85.80232567769822,20.24708425406835,0 85.80224171290992,20.24709520925864,0 85.80223640270235,20.2471261849497,0 85.80223833373923,20.24716946238586,0 85.80217616672775,20.24718759935686,0 85.80212101085237,20.24719801068161,0 85.80207301543628,20.24720271914283,0 85.8020281843735,20.2472098561132,0 85.80200762348318,20.24718151078705,0 85.80200858781915,20.24715954686284,0                     
                    </coordinates>
                </LinearRing>
            </outerBoundaryIs>
        </Polygon>

    </Placemark>

    <Placemark>
        <name>LH inner</name>

        <Polygon>
            <outerBoundaryIs>
                <LinearRing>
                    <coordinates>
                        85.80119917182743,20.24683176268798,0 85.80120297695984,20.2467335127814,0 85.80120768910636,20.24663655954647,0 85.80124584274719,20.2466340773926,0 85.80124988491353,20.24665240097207,0 85.80124553734154,20.24669000884058,0 85.80126950790918,20.24669141660045,0 85.80130960259149,20.24669486407048,0 85.80133036558354,20.24671134187141,0 85.80141140415465,20.24671094894277,0 85.80144994425935,20.24669789692177,0 85.80154327813625,20.24670719891752,0 85.80160183371322,20.24669344104876,0 85.80161769018363,20.24664521378349,0 85.80164393410705,20.24667279614428,0 85.80166564602435,20.24670227541833,0 85.80174299075601,20.24670712306522,0 85.8018145959298,20.2466987420815,0 85.80181058247415,20.2466234041168,0 85.80180786622515,20.24657790590359,0 85.80181028803784,20.24641836321992,0 85.80150739764861,20.24641179219676,0 85.80136986162876,20.24640695781926,0 85.80137100857972,20.24638347552819,0 85.80137293523437,20.24635512792765,0 85.80137461436665,20.24632769911741,0 85.80137679048309,20.24629206476297,0 85.80147804343363,20.24631564230833,0 85.80176563016195,20.2463088386915,0 85.80183719414725,20.24630517468151,0 85.80185342536477,20.24632985304811,0 85.8018453089533,20.24657568621042,0 85.80185836614943,20.2466398256182,0 85.8018631734929,20.24671002070671,0 85.80183584569838,20.24684433698303,0 85.80209503483216,20.24684617656689,0 85.80209125612073,20.24687473899272,0 85.8019288248546,20.24687605365879,0 85.80192369412372,20.24690712035776,0 85.80185203014925,20.24691389345425,0 85.80173466201477,20.24689331287923,0 85.80166631878986,20.24689996792992,0 85.80157346644877,20.24689095056084,0 85.80148225607499,20.24689357022852,0 85.80136151326555,20.24688755994817,0 85.80126009172017,20.24688709855413,0 85.80119654890055,20.24690069853876,0 85.80119917182743,20.24683176268798,0                    
                    </coordinates>
                </LinearRing>
            </outerBoundaryIs>
        </Polygon>

    </Placemark>

    <Placemark>
        <name>Cafe to Iter border</name>

        <Polygon>
            <outerBoundaryIs>
                <LinearRing>
                    <coordinates>
                        85.80246844148591,20.24826217813318,0 85.80259016731061,20.24829224515197,0 85.80255284653101,20.24837937042576,0 85.80249483764938,20.24839696882573,0 85.80255139442521,20.24843365779354,0 85.80263468816402,20.24839623130984,0 85.80268705428372,20.24846390260138,0 85.80269442331587,20.24855112198432,0 85.80258690403872,20.24861335911271,0 85.8025662705402,20.24869136380966,0 85.8025694658449,20.24874338867503,0 85.80245800745996,20.24885210334625,0 85.80237137200001,20.24893210604046,0 85.80241394659673,20.24907960561131,0 85.80208748044012,20.24912576916615,0 85.80204379267423,20.24920286998662,0 85.80208799409033,20.24928620883369,0 85.80210613307578,20.24943831710446,0 85.8020437828566,20.24949225380714,0 85.80209005997816,20.24958384242138,0 85.80207941578909,20.24966232100435,0 85.80194993715794,20.24970052356965,0 85.80184152363623,20.24969959866108,0 85.80178057031493,20.24970861024139,0 85.80176227367443,20.24966064614934,0 85.80168613813589,20.24968343782407,0 85.80157869883233,20.24970851414245,0 85.80139595917362,20.249733815967,0 85.80139542152831,20.24978783633975,0 85.80139071201603,20.24985872365651,0 85.80133632753599,20.24990477290523,0 85.80112322086147,20.24992577887731,0 85.80107770893686,20.24981833074147,0 85.801135059999,20.24973617229771,0 85.8011342650364,20.24966690786127,0 85.80109186830491,20.24956067282416,0 85.80122024279881,20.24953265250258,0 85.80128763341997,20.24954281832582,0 85.80130737658064,20.24966521678089,0 85.80138638234443,20.24969220171879,0 85.8014069925385,20.24971590594055,0 85.80148463497707,20.24969878772479,0 85.80156644870921,20.24968206760187,0 85.80174991944887,20.24964766435129,0 85.80173841875363,20.24951066883416,0 85.8018600798835,20.24946154686011,0 85.80187841529165,20.24934827387878,0 85.80186233965655,20.24925983709702,0 85.80180917833981,20.24910989021999,0 85.80178325146741,20.24906183822099,0 85.80189920546979,20.24902332349521,0 85.8019810932895,20.24904596906113,0 85.80204194590183,20.24895253310915,0 85.80210823170366,20.2488831275114,0 85.80206896014386,20.24881778871713,0 85.80217566234923,20.24877688659797,0 85.80224241483664,20.24879131648214,0 85.80231295875758,20.2487793118511,0 85.80238516942741,20.24876960617143,0 85.80234802262284,20.24859681937187,0 85.80234758586042,20.24855403970461,0 85.80241472521297,20.24846206065363,0 85.80242186507547,20.24839683169551,0 85.8023581142548,20.24831579036383,0 85.80227404604678,20.24827001644698,0 85.80216105995407,20.24825807303723,0 85.80218914828663,20.24820148137321,0 85.80237620198174,20.24826611328873,0 85.80246844148591,20.24826217813318,0                     
                    </coordinates>
                </LinearRing>
            </outerBoundaryIs>
        </Polygon>

    </Placemark>

    <Placemark>
        <name>pavement behind Eblock</name>

        <Polygon>
            <outerBoundaryIs>
                <LinearRing>
                    <coordinates>
						85.80116719144512,20.248214631812,0 85.80122394928756,20.24820399393631,0 85.80126952359045,20.24821247191708,0 85.80130922234588,20.24820078008661,0 85.80133188526302,20.24818801836204,0 85.80136392967381,20.24817697735367,0 85.80144451741063,20.24816128629876,0 85.80151493983917,20.24814530310427,0 85.80159782072884,20.24813458929829,0 85.80164768050078,20.24812284087892,0 85.8017245458969,20.24810577642172,0 85.80194039224445,20.24801876181689,0 85.80204210170314,20.24797847171923,0 85.80209979942133,20.24794557753816,0 85.80212828248723,20.24790622181205,0 85.80213111160853,20.24784367190352,0 85.80206618251422,20.24767335751144,0 85.80203239108666,20.24757078312025,0 85.80204261780331,20.24757136560959,0 85.80208083171904,20.24767050604373,0 85.80215041392235,20.24784273169302,0 85.80214156328161,20.24791400124188,0 85.80210761086084,20.24796004774984,0 85.80204599211712,20.24799376255331,0 85.80194510170712,20.24803247257151,0 85.80173186182148,20.24811576624238,0 85.80164654166249,20.24814004796952,0 85.80160049956632,20.24815074070233,0 85.80151877005952,20.24816211453994,0 85.80143836454711,20.24817124283252,0 85.80136396597807,20.24818649285363,0 85.80131933305833,20.24820896120002,0 85.80127009396863,20.2482230151383,0 85.80121984448482,20.24822110486434,0 85.80116719144512,20.248214631812,0 
					</coordinates>
                </LinearRing>
            </outerBoundaryIs>
        </Polygon>

    </Placemark>

    <Placemark>
    <name>Behind LH-3</name>

    <Polygon>
        <outerBoundaryIs>
            <LinearRing>
                <coordinates>
                    85.8019625352938,20.24615543639036,0
                    85.80205217655745,20.24615383072291,0
                    85.80212311826286,20.24616816401469,0
                    85.80214345008926,20.24619358767581,0
                    85.80213546398258,20.24628197845283,0
                    85.80212665612554,20.24647912628592,0
                    85.80212693129791,20.2465159276267,0
                    85.80212722183292,20.24655461943424,0
                    85.80212242389746,20.24658455638799,0
                    85.80212113437896,20.24663018928938,0
                    85.80211311239746,20.24666318053883,0
                    85.80211511062778,20.24671182034679,0
                    85.80211388318412,20.24675722186195,0
                    85.80212121919124,20.24680558799373,0
                    85.80209280661637,20.24681343205951,0
                    85.80210289065771,20.24633854704449,0
                    85.80211797664353,20.24624368773737,0
                    85.80211627162029,20.24620885177182,0
                    85.80209771750572,20.24620726574914,0
                    85.8020471089751,20.2462009259481,0
                    85.80197635806677,20.24620414146803,0
                    85.80193078770944,20.24619779073018,0
                    85.80187847758222,20.24620727070633,0
                    85.80186340494501,20.24618879581512,0
                    85.80186497684444,20.24616655863919,0
                    85.8019625352938,20.24615543639036,0
                </coordinates>
            </LinearRing>
        </outerBoundaryIs>
    </Polygon>

</Placemark>
</Document>

</kml>